County,Lender Name and ID,ZIP Code,Phone,Fax,Entity Type,Location
ADAIR COUNTY,ARVEST MORTGAGE COMPANY - 209-01,74965,(918) 696-8500,(918) 696-5559,Branch,"901 N HIGHWAY 59
WESTVILLE, OK 74965
(35.99372767500046, -94.5748160819997)"
ADAIR COUNTY,ARVEST MORTGAGE COMPANY - 209-02,74960,(918) 696-3300,(918) 696-5559,Branch,"514 W LOCUST
STILWELL, OK 74960
(35.80852524700049, -94.63296960499969)"
BRYAN COUNTY,FIRST UNITED BANK &  TRUST - 11-10,74730,(580) 434-5000,(580) 434-7400,,"601 N SERVICE ROAD
CALERA, OK 74730
(33.93735315800046, -96.42358135099965)"
BRYAN COUNTY,FIRST UNITED BANK & TRUST - 11-01,74701,(580) 924-2211,,Branch,"1400 W MAIN STREET
DURANT, OK 74701
(33.994647546000465, -96.39169374799968)"
BRYAN COUNTY,GUILD MORTGAGE COPANY - 231-01,74701,(580) 920-1272,(580) 920-1265,,"2927 W UNIVERSITY BOULEVARD
DURANT, OK 74701
(34.00489400100048, -96.40634264999966)"
CANADIAN COUNTY,ARVEST MORTGAGE COMPANY - 209-11,73099,(405) 419-3775,(405) 419-3760,Branch,"915 S CORNWELL
YUKON, OK 73099
(35.49869254100048, -97.74250425599968)"
CANADIAN COUNTY,BANCFIRST - 192-92,73078,(405) 270-1000,,,"410 PIEDMONT ROAD S
PIEDMONT, OK 73078
(35.635428866000495, -97.7452964799997)"
CANADIAN COUNTY,BANK OF COMMERCE - 23-03,73064,(405) 256-5110,(405) 256-6160,Lender,"620 E STATE HIGHWAY 152
MUSTANG, OK 73064
(35.391653277000444, -97.71321119299967)"
CANADIAN COUNTY,BANK OF COMMERCE - 28-01,73099,(405) 354-3030,(405) 354-2647,Branch,"2500 S CORNWELL
YUKON, OK 73099
(35.48045070900048, -97.74254986299968)"
CANADIAN COUNTY,BANK OF COMMERCE - 28-02,73099,(405) 324-9615,(405) 324-9285,Lender,"120 S MUSTANG ROAD
YUKON, OK 73099
(35.46476095000048, -97.72469713799967)"
CANADIAN COUNTY,"FIRST AMERICAN MORTGAGE, INC - 26-01",73099,(405) 354-0426,(405) 354-6732,Branch,"1501 S RANCHWOOD BOULEVARD
YUKON, OK 73099
(35.49871592600044, -97.7334486849997)"
CANADIAN COUNTY,FIRST MORTGAGE COMPANY - 24-17,73099,(405) 265-1935,(405) 265-1939,Lender,"12801 NW 10TH STREET, SUITE 100
YUKON, OK 73099
(35.47894784300047, -97.75319076299968)"
CANADIAN COUNTY,FIRST MORTGAGE COMPANY - 24-24,73078,(405) 283-0719,(405) 283-0730,Branch,"13100 COLONY POINT BOULEVARD, SUITE 201
PIEDMONT, OK 73078
(35.66001821700047, -97.7452492809997)"
CANADIAN COUNTY,MIDFIRST BANK - 223-18,73064,(405) 202-9401,(405) 767-5328,Lender,"835 E STATE HIGHWAY 152
MUSTANG, OK 73064
(35.39168784600048, -97.70816995999968)"
CANADIAN COUNTY,MIDFIRST BANK - 223-46,73099,(405) 767-7824,(405) 858-3628,Branch,"200 S MUSTANG ROAD
YUKON, OK 73099
(35.46321396100046, -97.72469464999966)"
CANADIAN COUNTY,WELLS FARGO - 178-20,73099,(405) 848-5027,(405) 249-1053,Branch,"873 S MUSTANG ROAD
YUKON, OK 73099
(35.45665503800046, -97.72473569399966)"
CANADIAN COUNTY,YUKON NATIONAL BANK - 27-01,73099,(405) 354-5281,(405) 354-0857,Branch,"401 ELM STREET
YUKON, OK 73099
(35.50682845400047, -97.74958988199967)"
CANADIAN COUNTY,YUKON NATIONAL BANK - 27-02,73099,(405) 354-1802,(405) 354-1875,Branch,"1550 GARTH BROOKS BOULEVARD
YUKON, OK 73099
(35.484029406000445, -97.76036371699968)"
CARTER COUNTY,BANCFIRST - 192-18,73401,(580) 223-5000,(580) 221-5263,Lender,"310 W MAIN
ARDMORE, OK 73401
(34.17359345500046, -97.13281721299967)"
CARTER COUNTY,BANCFIRST - 192-62,73401,(580) 223-5000,,Branch,"1915 N COMMERCE
ARDMORE, OK 73401
(34.19611019400048, -97.14319351099965)"
CARTER COUNTY,FIRST UNITED BANK & TRUST - 11-15,73401,(580) 223-9400,(580) 223-9441,,"2617 N COMMERCE STREET, SUITE C
ARDMORE, OK 73401
(34.20370142700045, -97.14318429299965)"
CARTER COUNTY,WELLS FARGO - 178-01,73401,(405) 840-2024,(866) 420-6709,Branch,"1407 W BROADWAY
ARDMORE, OK 73401
(34.17450238100048, -97.14723715799965)"
CARTER COUNTY,WELLS FARGO - 178-08,74344,(918) 787-6028,(918) 787-6029,Branch,"2114 S MAIN STREET
GROVE, OK 74344
(36.57501998700047, -94.76917975899966)"
CHEROKEE COUNTY,ARVEST MORTGAGE COMPANY - 209-44,74464,(918) 207-4869,(918) 207-4828,Branch,"1720 S MUSKOGEE AVENUE
TAHLEQUAH, OK 74464
(35.89401442300044, -94.97710456499965)"
CHEROKEE COUNTY,BANCFIRST - 192-15,74464,(918) 456-0541,(918) 458-3087,Branch,"1204 S ROSS
TAHLEQUAH, OK 74464
(35.92415979200047, -94.97188875499967)"
CHEROKEE COUNTY,BANCFIRST - 192-48,74464,(918) 456-0541,(918) 458-3087,Branch,"130 S MUSKOGEE
TAHLEQUAH, OK 74464
(35.91304007500048, -94.9711277029997)"
CHEROKEE COUNTY,BANCFIRST - 192-98,74464,(918) 456-0541,,,"2020 S MUSKOGEE
TAHLEQUAH, OK 74464
(35.88840772900045, -94.97699472899967)"
CHOCTAW COUNTY,BANCFIRST - 192-03,74743,(580) 326-6401,(580) 326-9542,Branch,"101 E JACKSON STREET
HUGO, OK 74743
(34.01087778600049, -95.51272966499965)"
CHOCTAW COUNTY,FIRST UNITED BANK & TRUST - 11-07,74743,(580) 326-7546,(580) 326-6339,Branch,"801 E JACKSON STREET
HUGO, OK 74743
(34.01062854300045, -95.50377073099969)"
CLEVELAND COUNTY,ARVEST MORTGAGE COMPANY - 209-06,73069,(405) 292-3411,(405) 292-3448,Branch,"1355 W LINDSEY STREET
NORMAN, OK 73069
(35.20395809200045, -97.46331007399965)"
CLEVELAND COUNTY,ARVEST MORTGAGE COMPANY - 209-15,73069,(405) 366-3984,(405) 366-3072,Branch,"200 E MAIN STREET
NORMAN, OK 73069
(35.221584547000475, -97.44173014099965)"
CLEVELAND COUNTY,ARVEST MORTGAGE COMPANY - 209-35,73160,(405) 419-3710,(405) 419-3728,Branch,"2101 SANTA FE
MOORE, OK 73160
(35.33770136400045, -97.4822678219997)"
CLEVELAND COUNTY,ARVEST MORTGAGE COMPANY - 209-38,73072,(405) 366-3053,(405) 366-3068,Branch,"3615 W MAIN STREET
NORMAN, OK 73072
(35.21843046000049, -97.4954823489997)"
CLEVELAND COUNTY,BANCFIRST - 192-30,73069,(405) 360-6061,(405) 329-1464,Branch,"1201 W MAIN STREET
NORMAN, OK 73069
(35.21847031600049, -97.45910618399967)"
CLEVELAND COUNTY,BANCFIRST - 192-79,73160,(405) 794-5511,,Branch,"600 NW 5TH
MOORE, OK 73160
(35.34331589600049, -97.49460028299967)"
CLEVELAND COUNTY,BANCFIRST - 192-80,73160,(405) 794-5511,,,"701 SW 19TH STREET
MOORE, OK 73160
(35.31985805500045, -97.49937073399968)"
CLEVELAND COUNTY,BANCFIRST - 192-83,73069,(405) 360-6061,,Branch,"333 E 12TH AVENUE
NORMAN, OK 73069
(35.26913111300047, -97.45905145599966)"
CLEVELAND COUNTY,BANCFIRST - 192-84,73069,(405) 360-6061,,Branch,"1117 24th AVE NW
NORMAN, OK 73069
(35.232730569000466, -97.48036730199965)"
CLEVELAND COUNTY,CITYWIDE MORTGAGE - 4-01,73160,(405) 794-4412,(405) 794-4263,Branch,"9400 S I-35 FRONTAGE ROAD
MOORE, OK 73160
(35.37348094700047, -97.49453649899965)"
CLEVELAND COUNTY,FIRST MORTGAGE COMPANY - 24-10,73069,(405) 310-5334,(405) 310-5327,Branch,"1004 24TH AVENUE NW, SUITE 102
NORMAN, OK 73069
(35.23044998600045, -97.4804234509997)"
CLEVELAND COUNTY,FIRST UNITED BANK & TRUST - 11-02,73160,(405) 912-9599,(855) 231-8564,,"2900 S TELEPHONE ROAD, SUITE 150
MOORE, OK 73160
(35.31070033600048, -97.49439019699969)"
CLEVELAND COUNTY,FIRST UNITED BANK & TRUST - 11-17,73069,(405) 329-3474,(877) 820-6531,Branch,"712 WALL STREET, SUITE 200
NORMAN, OK 73069
(35.22691039500046, -97.48168436099968)"
CLEVELAND COUNTY,GATEWAY MORTGAGE GROUP - 232-02,73069,(405) 360-8106,,,"2405 PALMER CIRCLE, SUITE 200
NORMAN, OK 73069
(35.229423521000456, -97.4790479399997)"
CLEVELAND COUNTY,"GEORGETOWN MORTGAGE, LLC - 230-02",73160,(405) 265-1717,(866) 364-3112,,"2309 S I-35 SERVICE ROAD
MOORE, OK 73160
(35.31687550200047, -97.49050833199965)"
CLEVELAND COUNTY,LEADER MORTGAGE CORPORATION - 216-02,73160,(405) 794-3947,(405) 794-7613,Branch,"2313 S I-35 SERVICE ROAD
MOORE, OK 73160
(35.31685023300048, -97.4905039199997)"
CLEVELAND COUNTY,MCCLAIN BANK - 98-01,73072,(405) 447-7283,(405) 447-2113,Branch,"2900 W LINDSEY STREET
NORMAN, OK 73072
(35.20392352400046, -97.48493033799969)"
CLEVELAND COUNTY,MIDFIRST BANK - 223-21,73160,(405) 767-7824,(405) 858-3016,Branch,"625 NW 5TH
MOORE, OK 73160
(35.343139909000456, -97.49726436199967)"
CLEVELAND COUNTY,MIDFIRST BANK - 223-47,73072,(405) 767-7884,(405) 858-3907,Branch,"3601 W TECUMSEH
NORMAN, OK 73072
(35.26194782800047, -97.49540112299968)"
CLEVELAND COUNTY,REPUBLIC BANK & TRUST - 211-01,73069,(405) 366-2750,(405) 366-2737,Branch,"401 W MAIN STREET
NORMAN, OK 73069
(35.21890664500046, -97.44823131399966)"
CLEVELAND COUNTY,REPUBLIC BANK & TRUST - 211-03,73068,(405) 872-0505,(405) 872-5530,Branch,"805 N MAIN
NOBLE, OK 73068
(35.14992759800049, -97.39702391099968)"
CLEVELAND COUNTY,REPUBLIC BANK & TRUST - 211-04,73072,(405) 366-2750,(405) 366-2816,Branch,"3500 W ROBINSON STREET
NORMAN, OK 73072
(35.232852712000465, -97.4934606809997)"
CLEVELAND COUNTY,WELLS FARGO - 178-07,73072,(405) 364-0374,,Branch,"3750 W MAIN STREET
NORMAN, OK 73072
(35.21837313900045, -97.49600030899967)"
CLEVELAND COUNTY,WELLS FARGO - 178-19,73160,(405) 895-6575,(405) 799-5499,,"937 SW 25TH STREET, SUITE E
MOORE, OK 73160
(35.315644965000445, -97.49274535499967)"
COMANCHE COUNTY,ARVEST MORTGAGE COMPANY - 209-37,73505,(580) 250-6743,(580) 250-4545,Branch,"5201 SW LEE BOULEVARD
LAWTON, OK 73505
(34.594537166000464, -98.4573948469997)"
COMANCHE COUNTY,ARVEST MORTGAGE COMPANY - 209-39,73505,(580) 250-6746,(580) 250-4545,Branch,"4330 NW CACHE ROAD
LAWTON, OK 73505
(34.62336361600046, -98.4465302539997)"
COMANCHE COUNTY,BANCFIRST - 192-27,73505,(580) 353-7700,(580) 357-2536,Branch,"3801 NW CACHE ROAD
LAWTON, OK 73505
(34.62359752900045, -98.44026068899967)"
COMANCHE COUNTY,BANCFIRST - 192-60,73528,(580) 597-6666,(580) 357-2536,Branch,"308 MADISON
CHATTANOOGA, OK 73528
(34.422588558000484, -98.65834294199965)"
COMANCHE COUNTY,BANCFIRST - 192-73,73501,(580) 353-7700,,Branch,"501 SW &quot;C&quot; AVENUE
LAWTON, OK 73501
(34.592472091000445, -98.36116684499967)"
COMANCHE COUNTY,BANCFIRST - 192-74,73505,(580) 353-7700,,Branch,"15 NW 67TH
LAWTON, OK 73505
(34.610641272000464, -98.47470700099967)"
COMANCHE COUNTY,BANCFIRST - 192-75,73507,(580) 353-7700,,,"2204 NW FERIS
LAWTON, OK 73507
(34.61603466800045, -98.42115688599966)"
COMANCHE COUNTY,BANK OF OKLAHOMA - 182-01,73505,(580) 581-5080,(580) 250-0150,Branch,"2602 W GORE BOULEVARD
LAWTON, OK 73505
(34.608863302000486, -98.42929096599966)"
COMANCHE COUNTY,FIRST MORTGAGE COMPANY - 24-13,73505,(580) 248-7300,(580) 248-7307,Branch,"1416 NW SHERIDAN ROAD
LAWTON, OK 73505
(34.62490284600045, -98.42242244899967)"
COMANCHE COUNTY,FIRST MORTGAGE COMPANY - 24-20,73505,(580) 699-5881,(580) 699-5899,Branch,"3908 NW ELM AVENUE, SUITE 102
LAWTON, OK 73505
(34.62050057300047, -98.46664136099969)"
COMANCHE COUNTY,FIRST MORTGAGE COMPANY - 24-25,73507,(580) 248-5300,(580) 248-5305,Branch,"1701 NW CACHE ROAD
LAWTON, OK 73507
(34.623378595000474, -98.41549008599969)"
COMANCHE COUNTY,GUILD MORTGAGE COMPANY - 231-02,73501,(580) 215-4580,(580) 303-4417,,"1709 W GORE BOULEVARD, SUITE A
LAWTON, OK 73501
(34.60885628800048, -98.4142728709997)"
COMANCHE COUNTY,"VA MORTGAGE CENTER, LLC dba MORTGAGE RESEARCH CENTER - 23-01",73505,(580) 669-8670,(580) 699-8674,Branch,"2410 NW CACHE ROAD, SUITE C
LAWTON, OK 73505
(34.62322159900049, -98.42505186199969)"
COMANCHE COUNTY,WELLS FARGO - 178-02,73505,(580) 355-8054,,Branch,"1319 NW SHERIDAN ROAD
LAWTON, OK 73505
(34.622116839000455, -98.42217531099965)"
CREEK COUNTY,BANCFIRST - 192-100,74137,(918) 664-6660,,Branch,"2809 E 101ST STREET
TULSA, OK 74137
(36.01736765300046, -95.94838097499968)"
CREEK COUNTY,F&M BANK AND TRUST COMPANY - 29-01,74104,(918) 748-4181,(918) 748-4762,,"1924 S UTICA AVENUE
TULSA, OK 74104
(36.134070755000494, -95.96727493899965)"
CREEK COUNTY,F&M BANK AND TRUST COMPANY - 29-01,74104,(918) 748-4181,(918) 748-4762,Branch,"1924 S UTICA AVENUE
TULSA, OK 74104
(36.134070755000494, -95.96727493899965)"
CREEK COUNTY,FIRST UNITED BANK & TRUST - 11-09,74066,(918) 224-5151,(918) 224-3067,Branch,"315 E DEWEY AVENUE
SAPULPA, OK 74066
(35.99878826200046, -96.10922107899967)"
CREEK COUNTY,SPIRTBANK -155,74133,(918) 970-4807,(918) 970-4852,Lender,"10441 S REGAL BOULEVARD, SUITE 108
TULSA, OK 74133
(36.01168114300049, -95.88333697099966)"
CUSTER COUNTY,BANCFIRST - 192-17,73096,(580) 772-5541,(580) 772-7136,Branch,"122 N BROADWAY
WEATHERFORD, OK 73096
(35.526970340000446, -98.70910647299968)"
DELAWARE COUNTY,ARVEST MORTGAGE COMPANY - 209-09,74346,(918) 253-4235,(918) 253-8893,Branch,"338 S 5TH STREET
JAY, OK 74346
(36.42026299000048, -94.79738625799968)"
DELAWARE COUNTY,ARVEST MORTGAGE COMPANY - 209-42,74344,(918) 787-8423,(918) 787-8414,Branch,"1818 S MAIN
GROVE, OK 74344
(36.57781204100047, -94.76915227499967)"
GARFIELD COUNTY,BANK OF OKLAHOMA - 182-04,73703,(580) 548-8528,(580) 548-8576,Branch,"2308 N VAN BUREN
ENID, OK 73703
(36.41926626600048, -97.8908942009997)"
GARVIN COUNTY,BANCFIRST - 192-24,74872,(580) 759-2326,(580) 759-3539,Lender,"110 W SMITH
STRATFORD, OK 74872
(34.796632058000455, -96.95989563699965)"
GARVIN COUNTY,FIRST UNITED BANK & TRUST - 11-05,73075,(405) 238-3341,(405) 238-3247,Branch,"315 W GRANT AVENUE
PAULS VALLEY, OK 73075
(34.73971895000045, -97.22244360799965)"
GRADY COUNTY,ARVEST MORTGAGE COMPANY - 209-20,73018,(405) 224-1021,(405) 224-1035,Lender,"1927 S 4TH STREET
CHICKASHA, OK 73018
(35.03114883100045, -97.93483656399968)"
HUGHES COUNTY,FIRST UNITED BANK & TRUST - 11-08,74848,(405) 379-3307,(405) 379-6821,Branch,"102 E MAIN STREET
HOLDENVILLE, OK 74848
(35.08259055300044, -96.40124846799966)"
JACKSON COUNTY,MIDFIRST BANK - 223-06,73521,(405) 767-7817,(405) 767-5447,,"2511 N MAIN
ALTUS, OK 73521
(34.665220253000484, -99.33410412899968)"
JOHNSTON COUNTY,BANCFIRST - 192-26,73460,(580) 371-2346,(580) 371-2428,Branch,"820 E MAIN STREET
TISHOMINGO, OK 73460
(34.23059606300046, -96.66936663899969)"
KAY COUNTY,BANCFIRST - 192-40,74631,(580) 363-4141,(580) 363-2294,,"101 N MAIN
BLACKWELL, OK 74631
(36.80455128000045, -97.28302521399968)"
KAY COUNTY,RCB BANK - 233-07,74601,(580) 718-2750,(580) 762-8964,,"1223 E HIGHLAND AVENUE
PONCA CITY, OK 74601
(36.70961443700048, -97.0691848519997)"
KINGFISHER COUNTY,BANCFIRST - 192-44,73750,(405) 375-3121,(918) 375-4961,Branch,"124 S MAIN
KINGFISHER, OK 73750
(35.86014110500048, -97.93271396499966)"
KIOWA COUNTY,BANCFIRST - 192-43,73651,(580) 726-5617,(580) 726-2772,Branch,"401 S BROADWAY
HOBART, OK 73651
(35.024150277000444, -99.09600352899969)"
KIOWA COUNTY,BANCFIRST - 192-70,73651,(580) 726-5617,,,"105 W 4TH STREET
HOBART, OK 73651
(35.02452672400045, -99.09331526999966)"
KIOWA COUNTY,BANCFIRST - 192-76,73655,(580) 846-9005,,Branch,"707 E BOUNDARY
LONE WOLF, OK 73655
(34.993258262000495, -99.2544031219997)"
LE FLORE COUNTY,ARVEST MORTGAGE COMPANY - 209-23,74953,(918) 649-3019,(918) 776-6126,,"3002 N BROADWAY
POTEAU, OK 74953
(35.088640705000444, -94.63072367499967)"
LINCOLN COUNTY,BANCFIRST - 192-23,74864,(405) 567-2241,,,"902 E MAIN STREET
PRAGUE, OK 74864
(35.486538479000444, -96.67785841599965)"
LINCOLN COUNTY,BANCFIRST - 192-25,74079,(918) 968-2521,(918) 968-3779,Branch,"602 W MAIN
STROUD, OK 74079
(35.74907266000048, -96.66088060699968)"
LINCOLN COUNTY,BANCFIRST - 192-36,74855,(405) 279-3535,(405) 279-2704,Branch,"601 W CARL HUBBELL BOULEVARD
MEEKER, OK 74855
(35.50318657100047, -96.90154683699967)"
LINCOLN COUNTY,BANCFIRST - 192-63,74834,(405) 258-1795,,Branch,"1001 MANVEL AVENUE
CHANDLER, OK 74834
(35.700070723000465, -96.88079474299968)"
LOGAN COUNTY,BANCFIRST - 192-02,73044,(405) 282-4415,(405) 282-7086,,"202 W OKLAHOMA
GUTHRIE, OK 73044
(35.87804666000045, -97.42668473599969)"
LOGAN COUNTY,BANCFIRST - 192-69,73044,(405) 282-4415,,Branch,"110 N 2ND
GUTHRIE, OK 73044
(35.878191994000474, -97.42750708199969)"
LOVE COUNTY,BANCFIRST - 192-22,73448,(580) 276-3356,(580) 276-9640,,"105 SW 2ND STREET
MARIETTA, OK 73448
(33.93633747800044, -97.1181083359997)"
LOVE COUNTY,BANCFIRST - 192-59,73448,(580) 276-3356,(580) 276-9640,Branch,"201 W CHICKASAW
MARIETTA, OK 73448
(33.93618413000047, -97.11826914899967)"
MARSHALL COUNTY,BANCFIRST - 192-05,73446,(580) 795-3332,,Branch,"302 S FIRST
MADILL, OK 73446
(34.08743734400048, -96.77062047099969)"
MARSHALL COUNTY,BANCFIRST - 192-45,73439,(580) 564-2366,(580) 564-3411,,"206 HIGHWAY 70 W
KINGSTON, OK 73439
(33.99794768100048, -96.71812481499967)"
MAYES COUNTY,ARVEST MORTGAGE COMPANY - 209-24,74361,(918) 825-8722,(918) 825-8711,,"101 S MILL
PRYOR, OK 74361
(36.30617902500046, -95.31906917399965)"
MAYES COUNTY,RCB BANK - 233-04,74361,(918) 825-8820,(918) 825-8888,,"22 SE 1ST STREET
PRYOR, OK 74361
(36.30642708200048, -95.32003012899969)"
MCCLAIN COUNTY,"FIRST AMERICAN MORTGAGE, INC - 26-04",73065,(405) 392-5000,(405) 809-1693,Branch,"910 NW 32ND STREET
NEWCASTLE, OK 73065
(35.29096483800049, -97.61041976399969)"
MCINTOSH COUNTY,ARVEST MORTGAGE COMPANY - 209-26,74432,(918) 689-7745,(918) 689-7747,,"110 S 1ST STREET
EUFAULA, OK 74432
(35.28588417800046, -95.5837125869997)"
MURRAY COUNTY,BANCFIRST - 192-14,73086,(580) 622-3142,(580) 622-5518,Branch,"1020 W 1ST STREET
SULPHUR, OK 73086
(34.507795512000484, -96.96864355699967)"
MUSKOGEE COUNTY,ARVEST MORTGAGE COMPANY - 209-31,74403,(918) 207-4813,(918) 207-4828,,"735 N YORK STREET
MUSKOGEE, OK 74403
(35.74879506400049, -95.34041199699965)"
MUSKOGEE COUNTY,BANCFIRST - 192-07,74403,(918) 683-5551,(918) 683-5656,Branch,"2400 OLD SHAWNEE ROAD
MUSKOGEE, OK 74403
(35.76971047200044, -95.34019687399967)"
MUSKOGEE COUNTY,BANCFIRST - 192-81,74403,(918) 683-4055,,Branch,"501 N MAIN STREET, #64
MUSKOGEE, OK 74403
(35.75173565300048, -95.36729232399966)"
MUSKOGEE COUNTY,BANCFIRST - 192-82,74403,(918) 686-5290,,Branch,"3601 W OKMULGEE
MUSKOGEE, OK 74403
(35.743460310000444, -95.35762679999965)"
MUSKOGEE COUNTY,FIRST UNITED BANK & TRUST - 11-18,74403,(918) 683-1003,(918) 683-1003,,"1143B N MAIN
MUSKOGEE, OK 74403
(35.72600581600045, -95.33599586999969)"
MUSKOGEE COUNTY,"FIRSTAR BANK, NA - 160-01",74403,(918) 681-7117,(918) 681-2507,Branch,"510 N MAIN STREET
MUSKOGEE, OK 74403
(35.751931072000446, -95.36710969299969)"
MUSKOGEE COUNTY,LEADER MORTGAGE CORPORATION - 216-01,74403,(918) 682-4888,(918) 682-3982,,"555 W OKMULGEE
MUSKOGEE, OK 74403
(35.743460310000444, -95.35762679999965)"
NOWATA COUNTY,ARVEST MORTGAGE COMPANY - 209-12,74048,(918) 273-3442,(918) 273-0059,Branch,"108 N MAPLE
NOWATA, OK 74048
(36.70046900900047, -95.63808508499966)"
OKFUSKEE COUNTY,BANCFIRST - 192-85,74859,(918) 623-1211,,Branch,"302 W BROADWAY
OKEMAH, OK 74859
(35.43156931700048, -96.30360769399965)"
OKLAHOMA COUNTY,AMERICAN SOUTHWEST MORTGAGE CORPORATION - 151,73112,(405) 848-3600,(405) 484-8360,,"5900 N MOSTELLER DRIVE, SUITE 10
OKLAHOMA CITY, OK 73112
(35.53008138500047, -97.56712864199966)"
OKLAHOMA COUNTY,AMERICAN SOUTHWEST MORTGAGE CORPORATION - 151-01,73112,(405) 488-5626,(405) 947-8110,Branch,"4101 PERMIETER CENTER DRIVE, SUITE 300
OKLAHOMA CITY, OK 73112
(35.51367070300046, -97.59348450399966)"
OKLAHOMA COUNTY,ARVEST MORTGAGE COMPANY - 209-08,73139,(405) 419-3710,(405) 419-3728,Lender,"9300 S WESTERN AVENUE
OKLAHOMA CITY, OK 73139
(35.37428388900048, -97.53006569999968)"
OKLAHOMA COUNTY,ARVEST MORTGAGE COMPANY - 209-10,73115,(405) 671-8267,(405) 671-8251,Branch,"4600 SE 29TH STREET
DEL CITY, OK 73115
(35.435223358000485, -97.43383009599967)"
OKLAHOMA COUNTY,ARVEST MORTGAGE COMPANY - 209-13,73134,(405) 419-3814,(405) 419-3814,Branch,"4301 W MEMORIAL ROAD
OKLAHOMA CITY, OK 73134
(35.61026764100046, -97.59859141599969)"
OKLAHOMA COUNTY,ARVEST MORTGAGE COMPANY - 209-16,73033,(405) 419-3887,(405) 419-3839,Branch,"1501 W EDMOND ROAD
EDMOND, OK 73033
(35.653049001000454, -97.53948689799967)"
OKLAHOMA COUNTY,ARVEST MORTGAGE COMPANY - 209-32,73130,(405) 419-1701,(405) 419-1705,Branch,"1900 S DOUGLAS BOULEVARD
MIDWEST CITY, OK 73130
(35.44567109700046, -97.3707864539997)"
OKLAHOMA COUNTY,BANCFIRST - 192-08,73142,(405) 270-1000,(405) 270-1091,Branch,"4500 W MEMORIAL ROAD
OKLAHOMA CITY, OK 73142
(35.609063506000496, -97.6037052429997)"
OKLAHOMA COUNTY,BANCFIRST - 192-20,73102,(405) 270-4700,(405) 270-1091,,"101 N BROADWAY, SUITE 650
OKLAHOMA CITY, OK 73102
(35.46793203000044, -97.51451402099968)"
OKLAHOMA COUNTY,BANCFIRST - 192-21,73132,(405) 270-1000,(405) 720-3575,Branch,"7901 N MACARTHUR
OKLAHOMA CITY, OK 73132
(35.55173863800047, -97.61919075799966)"
OKLAHOMA COUNTY,BANCFIRST - 192-34,73159,(405) 270-1000,(405) 270-1091,,"9335 S PENNSYLVANIA AVENUE
OKLAHOMA CITY, OK 73159
(35.37360047800047, -97.54783455499967)"
OKLAHOMA COUNTY,BANCFIRST - 192-39,73013,(405) 270-1000,(405) 270-1091,Branch,"3200 E MEMORIAL ROAD
EDMOND, OK 73013
(35.609132643000464, -97.45980022399965)"
OKLAHOMA COUNTY,BANCFIRST - 192-47,73135,(405) 672-1945,(405) 672-9875,Lender,"7701 S SOONER ROAD
OKLAHOMA CITY, OK 73135
(35.38896039500048, -97.42364392499968)"
OKLAHOMA COUNTY,BANCFIRST - 192-49,73115,(406) 672-1945,(405) 619-2232,Branch,"4200 S SUNNYLANE
DEL CITY, OK 73115
(35.42433083700047, -97.44129688199968)"
OKLAHOMA COUNTY,BANCFIRST - 192-50,73020,(405) 270-5560,(405) 619-2232,,"12924 NE 23RD STREET
CHOCTAW, OK 73020
(35.493133585000464, -97.30082105499969)"
OKLAHOMA COUNTY,BANCFIRST - 192-51,73045,(405) 454-6216,(404) 454-6454,,"19979 NE 23RD STREET
HARRAH, OK 73045
(35.49307827500047, -97.17735060099966)"
OKLAHOMA COUNTY,BANCFIRST - 192-53,73118,(405) 270-1000,(405) 270-1091,Branch,"6200 WATERFORD BOULEVARD
OKLAHOMA CITY, OK 73118
(35.53443367000045, -97.54705791699968)"
OKLAHOMA COUNTY,BANCFIRST - 192-54,73120,(405) 270-1000,(405) 270-1091,Branch,"11001 N MAY AVENUE
OKLAHOMA CITY, OK 73120
(35.58204134500045, -97.56724474199967)"
OKLAHOMA COUNTY,BANCFIRST - 192-72,73049,(405) 399-2221,,Branch,"9285 N HIWASSEE
JONES, OK 73049
(35.564360733000456, -97.3003947099997)"
OKLAHOMA COUNTY,BANCFIRST - 192-86,73102,(405) 270-1000,(405) 270-1091,Branch,"220 N BROADWAY
OKLAHOMA CITY, OK 73102
(35.46952909100048, -97.51438727099969)"
OKLAHOMA COUNTY,BANCFIRST - 192-87,73108,(405) 270-1000,(405) 270-1091,Branch,"809 CORNELL PARKWAY
OKLAHOMA CITY, OK 73108
(35.45745087400047, -97.59678463899968)"
OKLAHOMA COUNTY,BANCFIRST - 192-88,73170,(405) 270-1000,(405) 270-1091,Branch,"2930 SW 134TH
OKLAHOMA CITY, OK 73170
(35.33405301400046, -97.56712029499965)"
OKLAHOMA COUNTY,BANCFIRST - 192-90,73114,(405) 270-1000,(405) 270-1091,Branch,"700 E MEMORIAL ROAD
OKLAHOMA CITY, OK 73114
(35.60911305400049, -97.50056104099968)"
OKLAHOMA COUNTY,BANCFIRST - 192-91,73104,(405) 270-1000,(405) 270-1091,Branch,"1111 N LINCOLN BLVD
OKLAHOMA CITY, OK 73104
(35.47851112900048, -97.50278379199966)"
OKLAHOMA COUNTY,BANK OF OKLAHOMA - 182-03,73116,(405) 879-8700,(405) 879-8735,Lender,"4005 NW EXPRESSWAY, STE 100
OKLAHOMA CITY, OK 73116
(35.537265979000495, -97.59079968599968)"
OKLAHOMA COUNTY,"BAY EQUITY, LLC - 236-01",73034,(405) 831-4457,,,"1325 S BRYANT, SUITE B
EDMOND, OK 73034
(35.639381193000474, -97.46051463899965)"
OKLAHOMA COUNTY,COLONIAL NATIONAL MORTGAGE - 18-1,73142,(405) 286-2091,(405) 286-2041,Branch,"4801 GAILLARDIA PARKWAY, SUITE 160
OKLAHOMA CITY, OK 73142
(35.61203874700044, -97.60719959399967)"
OKLAHOMA COUNTY,CORNERSTONE HOME LENDING - 21-01,73142,(405) 445-5445,(800) 688-6103,Branch,"4700 GAILLARDIA PARKWAY, SUITE 101
OKLAHOMA CITY, OK 73142
(35.610680157000445, -97.60782119299967)"
OKLAHOMA COUNTY,DHI MORTGAGE COMPANY - 25-01,73142,(405) 720-8344,(866) 385-0945,Branch,"5724 NW 132ND STREET
OKLAHOMA CITY, OK 73142
(35.60448318600049, -97.61897067199965)"
OKLAHOMA COUNTY,F&M BANK AND TRUST COMPANY - 29-02,73118,(405) 753-1350,(405) 753-1303,Branch,"6305 WATERFORD BOULEVARD, #470
OKLAHOMA CITY, OK 73118
(35.53561591100049, -97.54494808899966)"
OKLAHOMA COUNTY,F&M BANK AND TRUST COMPANY - 29-02,73118,(405) 753-1350,(405) 753-1303,Lender,"6305 WATERFORD BOULEVARD, #470
OKLAHOMA CITY, OK 73118
(35.53561591100049, -97.54494808899966)"
OKLAHOMA COUNTY,"FIRST AMERICAN MORTGAGE, INC - 26-02",73118,(405) 463-6737,(405) 809-1662,Branch,"5629 N CLASSEN BOULEVARD
OKLAHOMA CITY, OK 73118
(35.52837842800045, -97.53596144299968)"
OKLAHOMA COUNTY,"FIRST AMERICAN MORTGAGE, INC - 26-03",73120,(405) 613-5014,(405) 809-1587,Branch,"10900 HEFNER POINTE DRIVE, SUITE 101
OKLAHOMA CITY, OK 73120
(35.58138223900045, -97.58322458599969)"
OKLAHOMA COUNTY,FIRST COMMERCIAL BANK - 10-01,73132,(405) 844-0110,(405) 728-5425,Branch,"7308 NW EXPRESSWAY
OKLAHOMA CITY, OK 73132
(35.55983888400044, -97.64287359099967)"
OKLAHOMA COUNTY,FIRST COMMERCIAL BANK - 10-02,73134,(405) 330-9637,(405) 752-9048,Branch,"3805 W MEMORIAL ROAD
OKLAHOMA CITY, OK 73134
(35.610170542000446, -97.5885209279997)"
OKLAHOMA COUNTY,FIRST COMMERCIAL BANK - 10-03,73013,(405) 330-9638,(405) 844-0171,Branch,"1601 S KELLEY AVENUE
EDMOND, OK 73013
(35.637252928000464, -97.49601413699969)"
OKLAHOMA COUNTY,FIRST MORTGAGE COMPANY - 24-01,73116,(405) 842-8090,(405) 842-0238,Branch,"6501 N BROADWAY, SUITE 180
OKLAHOMA CITY, OK 73116
(35.54133157400048, -97.51541195199968)"
OKLAHOMA COUNTY,FIRST MORTGAGE COMPANY - 24-03,73034,(405) 562-1902,(405) 562-1900,,"201 N BRYANT, SUITE A
EDMOND, OK 73034
(35.657100983000475, -97.46050426799968)"
OKLAHOMA COUNTY,FIRST MORTGAGE COMPANY - 24-04,73102,(405) 609-1652,(405) 606-4151,Branch,"415 N BROADWAY
OKLAHOMA CITY, OK 73102
(35.47144187900045, -97.51441377299966)"
OKLAHOMA COUNTY,FIRST MORTGAGE COMPANY - 24-05,73013,(405) 285-8935,(405) 285-8936,Branch,"16301 N MAY AVENUE
EDMOND, OK 73013
(35.63535051100047, -97.56716408199969)"
OKLAHOMA COUNTY,FIRST MORTGAGE COMPANY - 24-08,73134,(405) 607-2913,(405) 607-2915,Branch,"4401 W MEMORIAL ROAD, SUITE 109
OKLAHOMA CITY, OK 73134
(35.61025842200047, -97.60236052999966)"
OKLAHOMA COUNTY,FIRST MORTGAGE COMPANY - 24-11,73003,(405) 359-8096,(405) 359-8097,Branch,"1220 S SANTA FE
EDMOND, OK 73003
(35.64075125600044, -97.51382726099968)"
OKLAHOMA COUNTY,FIRST MORTGAGE COMPANY - 24-12,73130,(405) 455-5700,(405) 455-5703,Branch,"1405 S DOUGLAS BOULEVARD, SUITE B
MIDWEST CITY, OK 73130
(35.45096007100045, -97.3708843979997)"
OKLAHOMA COUNTY,FIRST MORTGAGE COMPANY - 24-16,73110,(405) 610-1917,(405) 610-1914,Branch,"7121 E RENO AVENUE, SUITE C
MIDWEST CITY, OK 73110
(35.464117977000456, -97.40328080099965)"
OKLAHOMA COUNTY,FIRST MORTGAGE COMPANY - 24-18,73170,(405) 759-3800,(405) 759-3809,Branch,"1530 SW 119TH STREET, SUITE 103
OKLAHOMA CITY, OK 73170
(35.34877341400045, -97.54292007299966)"
OKLAHOMA COUNTY,FIRST MORTGAGE COMPANY - 24-19,73013,(405) 509-2250,(405) 509-2254,,"1362 E 15TH STREET
EDMOND, OK 73013
(35.63824842100047, -97.4615866689997)"
OKLAHOMA COUNTY,FIRST MORTGAGE COMPANY - 24-23,73034,(405) 509-6938,(405) 509-6937,Branch,"32 N BROADWAY
EDMOND, OK 73034
(35.65602705600048, -97.48109669699966)"
OKLAHOMA COUNTY,FIRST UNITED BANK & TRUST - 11-02,73139,(405) 636-0043,(405) 636-0622,Branch,"6000 S WESTERN, 2ND FLOOR
OKLAHOMA CITY, OK 73139
(35.406165039000484, -97.53016778399967)"
OKLAHOMA COUNTY,FIRST UNITED BANK & TRUST - 11-16,73142,(405) 340-2015,(877) 331-6714,,"5101 GAILLARDIA CORP PL, STE B
OKLAHOMA CITY, OK 73142
(35.60337672500049, -97.63044988999968)"
OKLAHOMA COUNTY,GATEWAY MORTGAGE GROUP - 232-01,73112,(405) 751-3800,,Branch,"2200 NW 50TH STREET, SUITE 139C
OKLAHOMA CITY, OK 73112
(35.522233310000445, -97.5499593619997)"
OKLAHOMA COUNTY,"GEORGETOWN MORTGAGE, LLC - 230-03",73134,(405) 571-0685,(405) 753-5313,Branch,"13191A QUAIL POINTE DRIVE
OKLAHOMA CITY, OK 73134
(35.61224002600045, -97.56890754199969)"
OKLAHOMA COUNTY,MIDFIRST BANK - 223-01,73122,(405) 767-7801,(405) 767-6042,Branch,"6351 N MACARTHUR BOULEVARD
OKLAHOMA CITY, OK 73122
(35.53593048400046, -97.61901445999968)"
OKLAHOMA COUNTY,MIDFIRST BANK - 223-02,73003,(405) 767-7819,(405) 767-6104,,"1200 N KELLEY AVENUE
EDMOND, OK 73003
(35.666402201000494, -97.49600722299965)"
OKLAHOMA COUNTY,MIDFIRST BANK - 223-03,73120,(405) 767-7849,(405) 767-5365,Branch,"13240 N MAY AVENUE
OKLAHOMA CITY, OK 73120
(35.60462030700046, -97.56714679799967)"
OKLAHOMA COUNTY,MIDFIRST BANK - 223-20,73170,(405) 767-7834,(405) 767-5761,Branch,"2101 SW 104TH STREET
OKLAHOMA CITY, OK 73170
(35.36333578500046, -97.54775052599967)"
OKLAHOMA COUNTY,MIDFIRST BANK - 223-23,73162,(405) 767-7808,,Branch,"11001 N ROCKWELL AVENUE
OKLAHOMA CITY, OK 73162
(35.58124050900045, -97.63850415399969)"
OKLAHOMA COUNTY,MIDFIRST BANK - 223-26,73127,(405) 767-2860,(405) 767-5562,Branch,"305 N MACARTHUR BOULEVARD, SUITE 700
OKLAHOMA CITY, OK 73127
(35.46904052400049, -97.61894416999968)"
OKLAHOMA COUNTY,MIDFIRST BANK - 223-27,73107,(405) 767-7828,(405) 767-5772,Lender,"2225 N MAY AVENUE
OKLAHOMA CITY, OK 73107
(35.49220186800045, -97.56568673799967)"
OKLAHOMA COUNTY,MIDFIRST BANK - 223-49,73013,(405) 767-6098,(405) 767-5876,Branch,"16401 N MAY AVENUE
EDMOND, OK 73013
(35.63703053800049, -97.56716408199969)"
OKLAHOMA COUNTY,MIDFIRST BANK - 223-51,73122,(405) 767-6070,(705) 767-5952,Branch,"5801 NW 38TH STREET
WARR ACRES, OK 73122
(35.509983831000454, -97.61359549099967)"
OKLAHOMA COUNTY,OKLAHOMA FIDELITY BANK - 5-01,73120,(405) 507-3121,(405) 507-3164,Branch,"2225 W HEFNER ROAD
OKLAHOMA CITY, OK 73120
(35.580188476000444, -97.55247018399967)"
OKLAHOMA COUNTY,OKLAHOMA FIDELITY BANK - 5-02,73162,(405) 507-3417,(405) 728-2505,Branch,"6901 W HEFNER ROAD
OKLAHOMA CITY, OK 73162
(35.58012282800047, -97.63535336899969)"
OKLAHOMA COUNTY,OKLAHOMA FIDELITY BANK - 5-03,73034,(405) 755-5330,(405) 330-1745,Branch,"1127 E 2ND STREET
EDMOND, OK 73034
(35.65278612300045, -97.46486324099965)"
OKLAHOMA COUNTY,PRIMELENDING - 30-01,73013,(405) 513-5322,(405) 372-2895,,"2300 S BROADWAY, SUITE 109
EDMOND, OK 73013
(35.630476359000454, -97.48428736499966)"
OKLAHOMA COUNTY,RCB BANK - 233-09,73013,(405) 608-5291,(405) 513-6082,Branch,"3600 S BOULEVARD
EDMOND, OK 73013
(35.61894086500047, -97.4781065249997)"
OKLAHOMA COUNTY,RCB BANK - 233-11,73120,(405) 302-2000,(405) 302-2003,Branch,"11217 N MAY AVENUE
OKLAHOMA CITY, OK 73120
(35.58462015100048, -97.5672343709997)"
OKLAHOMA COUNTY,SPRITBANK - 155-01,73120,(405) 942-1200,(405) 942-8964,,"11217 N MAY AVENUE
OKLAHOMA CITY, OK 73120
(35.58462015100048, -97.5672343709997)"
OKLAHOMA COUNTY,SWBC MORTGAGE CORPORATION - 20-01,73162,(405) 858-7770,(405) 848-8272,Branch,"6611 W HEFNER ROAD, SUITE B
OKLAHOMA CITY, OK 73162
(35.58012855800047, -97.6332209419997)"
OKLAHOMA COUNTY,WELLS FARGO - 178-03,73116,(405) 255-6997,(877) 473-4131,Branch,"6459 AVONDALE DRIVE
OKLAHOMA CITY, OK 73116
(35.53928080300045, -97.5322012639997)"
OKLAHOMA COUNTY,WELLS FARGO - 178-13,73120,(405) 775-2205,(877) 473-4131,Branch,"9604 N MAY AVENUE
OKLAHOMA CITY, OK 73120
(35.568971013000464, -97.56715716799965)"
OKLAHOMA COUNTY,WELLS FARGO - 178-18,73013,(405) 475-2880,(866) 377-6704,,"3601 S BROADWAY, SUITE 800
EDMOND, OK 73013
(35.61980337900047, -97.48949236799967)"
OKLAHOMA COUNTY,"WR STARKEY MORTGAGE, LLP - 12-01",73130,(405) 378-0039,(866) 222-4780,,"1716 S POST ROAD
MIDWEST CITY, OK 73130
(35.44712988600048, -97.35312658299966)"
OKLAHOMA COUNTY,"WR STARKEY MORTGAGE, LLP - 12-02",73170,(405) 378-0039,(866) 761-3526,,"1624 SW 122ND STREET
OKLAHOMA CITY, OK 73170
(35.346243004000485, -97.54615107099966)"
OKLAHOMA COUNTY,"WR STARKEY MORTGAGE, LLP - 12-03",73034,(405) 341-8644,(866) 208-5309,Branch,"10 E CAMPBELL
EDMOND, OK 73034
(35.65732337300045, -97.48044335299966)"
OKLAHOMA COUNTY,YUKON NATIONAL BANK - 27-03,73008,(405) 495-4511,(405) 495-0978,Branch,"6201 NW 23RD STREET
BETHANY, OK 73008
(35.493328320000444, -97.62455002099966)"
OTTAWA COUNTY,WELLS FARGO - 178-11,74354,(918) 540-1124,(918) 543-3528,Branch,"1425 E STEVE OWENS BOULEVARD
MIAMI, OK 74354
(36.87106748500048, -94.86340578299968)"
PAYNE COUNTY,ARVEST MORTGAGE COMPANY - 209-45,74074,(405) 385-5823,(918) 385-5805,Branch,"5215 W 6TH AVENUE
STILLWATER, OK 74074
(36.115793261000476, -97.12989041699967)"
PAYNE COUNTY,BANCFIRST - 192-13,74074,(405) 742-6200,,,"808 S MAIN
STILLWATER, OK 74074
(36.112720126000454, -97.05864483299968)"
PAYNE COUNTY,BANCFIRST - 192-97,74074,(405) 742-6200,(405) 742-6275,Branch,"505 E HALL OF FAME
STILLWATER, OK 74074
(36.09778621200047, -97.06850598399967)"
PAYNE COUNTY,FAIRWAY INDEPENDENT MORTGAGE CORP - 234-02,74074,(405) 372-5363,,,"2205 W 6TH AVENUE
STILLWATER, OK 74074
(36.11583457700044, -97.08532981499968)"
PAYNE COUNTY,PRIMELENDING - 30-02,74074,(405) 372-2894,(405) 372-2895,,"115 E 8TH STREET
STILLWATER, OK 74074
(36.11345297700046, -97.05778983999966)"
PAYNE COUNTY,RCB BANK -233-08,74074,(405) 742-4851,(405) 742-4875,Lender,"324 S DUCK STREET
STILLWATER, OK 74074
(36.11807938800047, -97.0627849819997)"
PITTSBURG COUNTY,BANCFIRST - 192-04,74501,(918) 426-0200,(918) 423-7662,Branch,"501 E CARL ALBERT PARKWAY
MCALESTER, OK 74501
(34.935217167000474, -95.77692374399965)"
PITTSBURG COUNTY,BANCFIRST - 192-77,74501,(918) 426-0200,,,"608 S GEORGE NIGH EXPRESSWAY
MCALESTER, OK 74501
(34.91580006500044, -95.74488685299968)"
PITTSBURG COUNTY,WELLS FARGO - 178-12,74501,(918) 423-2762,(918) 423-2315,Branch,"125 E CHOCTAW STREET
MCALESTER, OK 74501
(34.931737275000444, -95.76759371899965)"
PONTOTOC COUNTY,FIRST UNITED BANK & TRUST - 11-06,74820,(580) 332-4020,(580) 332-4551,Branch,"211 W 12TH STREET
ADA, OK 74820
(34.77341068600049, -96.68058916699965)"
POTTAWATOMIE COUNTY,ARVEST MORTGAGE COMPANY - 209-04,74801,(405) 214-1261,(405) 214-1341,Branch,"201 N BROADWAY AVENUE
SHAWNEE, OK 74801
(35.32878302200049, -96.92348250299966)"
POTTAWATOMIE COUNTY,BANCFIRST - 192-12,74801,(405) 273-1000,(405) 273-6733,Branch,"1939 N HARRISON
SHAWNEE, OK 74801
(35.42801948800047, -96.91192775499968)"
POTTAWATOMIE COUNTY,BANCFIRST - 192-57,74851,(405) 273-1000,(405) 878-7237,Branch,"508 W BROADWAY
MCLOUD, OK 74851
(35.43597349300046, -97.09364078399966)"
POTTAWATOMIE COUNTY,BANCFIRST - 192-58,74873,(405) 273-1000,(405) 878-7237,,"1213 N GORDON COOPER DRIVE
TECUMSEH, OK 74873
(35.27364003100047, -96.93039701899966)"
POTTAWATOMIE COUNTY,BANCFIRST - 192-95,74801,(405) 273-1000,,Branch,"302 N BROADWAY AVENUE
SHAWNEE, OK 74801
(35.33023204800048, -96.92353402899965)"
POTTAWATOMIE COUNTY,BANCFIRST - 192-96,74801,(405) 273-1000,,Branch,"3443 N KICKAPOO
SHAWNEE, OK 74801
(35.424426860000494, -96.92974696499965)"
POTTAWATOMIE COUNTY,FIRST UNITED BANK & TRUST - 11-04,74801,(405) 273-6100,(405) 273-2241,,"912 E INDEPENDENCE STREET
SHAWNEE, OK 74801
(35.34736580200047, -96.91095112999966)"
ROGERS COUNTY,BANCFIRST - 192-103,74019,(918) 341-7100,,Branch,"26205 S HIGHWAY 66
VERDIGRIS, OK 74019
(36.23059216700045, -95.69557657399969)"
ROGERS COUNTY,BANCFIRST - 192-64,74017,(918) 341-7100,,Branch,"1698 S LYNN RIGGS BOULEVARD
CLAREMORE, OK 74017
(36.293513143000496, -95.63040419799967)"
ROGERS COUNTY,BANCFIRST - 192-65,74017,(918) 341-7100,,,"1003 N LYNN RIGGS BOULEVARD
CLAREMORE, OK 74017
(36.32047009200045, -95.61123230399966)"
ROGERS COUNTY,BANCFIRST - 192-66,74017,(918) 341-7100,,Branch,"1025 W WILL ROGERS BOULEVARD
CLAREMORE, OK 74017
(36.31490410200047, -95.62182085099965)"
ROGERS COUNTY,BANCFIRST - 192-71,74036,(918) 341-7100,,Branch,"1 N BROADWAY
INOLA, OK 74036
(36.15250135000048, -95.51036419299965)"
ROGERS COUNTY,RCB BANK - 233-03,74017,(918) 342-7131,(918) 342-7106,Branch,"511 W WILL ROGERS BOULEVARD
CLAREMORE, OK 74017
(36.31230455400049, -95.61548099699968)"
ROGERS COUNTY,RCB BANK - 233-06,74015,(918) 384-1805,(918) 384-1825,Branch,"1727 N HIGHWAY 66
CATOOSA, OK 74015
(36.18111588500045, -95.74793349699968)"
ROGERS COUNTY,WELLS FARGO - 178-16,74066,(918) 499-1185,(918) 274-1216,,"8426A N 123ND E AVENUE
OWASSO, OK 74066
(35.99627819300048, -96.12681728599966)"
SEMINOLE COUNTY,BANCFIRST - 192-11,74868,(405) 380-1300,(405) 382-1268,Branch,"1500 N MILT PHILLIPS AVENUE
SEMINOLE, OK 74868
(35.23745317200047, -96.67092601999968)"
SEMINOLE COUNTY,BANCFIRST - 192-46,74849,(580) 925-3211,(580) 925-3860,Branch,"230 S BROADWAY
KONAWA, OK 74849
(34.955180449000466, -96.75204683999965)"
SEMINOLE COUNTY,BANCFIRST - 192-94,74868,(405) 380-1300,,,"206 N 2nd
SEMINOLE, OK 74868
(35.22455800300048, -96.66980267999969)"
OKLAHOMA COUNTY,WELLS FARGO - 178-04,73120,(405) 936-0338,(405) 752-4289,Branch,"4101 NW 122ND STREET
OKLAHOMA CITY, OK 73120
(35.59467842000049, -97.59427035999965)"
SEMINOLE COUNTY,FIRST UNITED BANK & TRUST - 11-12,74868,(405) 382-0690,,,"201 N MILT PHILLIPS AVENUE
SEMINOLE, OK 74868
(35.22513011900048, -96.67109443299967)"
SEQUOYAH COUNTY,"FIRSTAR BANK, NA - 160-03",74955,(918) 776-2000,(918) 776-2004,Branch,"209 N KERR BOULEVARD
SALLISAW, OK 74955
(35.458367094000494, -94.80746456599968)"
STEPHENS COUNTY,ARVEST MORTGAGE COMPANY - 209-07,73533,(580) 470-1173,(580) 470-1176,Branch,"2203 N HIGHWAY 81
DUNCAN, OK 73533
(34.532770067000456, -97.96700356799965)"
STEPHENS COUNTY,ARVEST MORTGAGE COMPANY - 209-27,73533,(580) 470-1145,(580) 470-1176,,"729 W MAIN STREET
DUNCAN, OK 73533
(34.50180825600046, -97.95656850399968)"
STEPHENS COUNTY,BANCFIRST - 192-06,73055,(580) 658-5422,(580) 658-5426,,"130 N BROADWAY
MARLOW, OK 73055
(34.648640070000454, -97.95779683499967)"
STEPHENS COUNTY,BANCFIRST - 192-19,73533,(580) 252-1800,(580) 251-7087,,"1616 W ELK AVE
DUNCAN, OK 73533
(34.52163326400046, -97.96844161499968)"
STEPHENS COUNTY,BANCFIRST - 192-61,73533,(580) 255-4100,(580) 251-7087,Branch,"16 S 9th
DUNCAN, OK 73533
(34.50171156400046, -97.95828348299966)"
STEPHENS COUNTY,BANCFIRST - 192-78,73055,(580) 658-5422,,Branch,"128 W MAIN STREET
MARLOW, OK 73055
(34.647613386000444, -97.95585063199968)"
STEPHENS COUNTY,"GEORGETOWN MORTGAGE, LLC - 230-01",73533,(580) 606-6740,(866) 264-1548,Branch,"1209B W MAIN
DUNCAN, OK 73533
(34.50239917400046, -97.96335228299967)"
TILLMAN COUNTY,BANCFIRST - 192-42,73542,(580) 335-7522,(580) 335-7520,,"200 N MAIN
FREDERICK, OK 73542
(34.39090155900044, -99.01700447499968)"
TILLMAN COUNTY,BANCFIRST - 192-68,73542,(580) 335-7522,,,"201 S MAIN
FREDERICK, OK 73542
(34.38831298100047, -99.01705335799966)"
TULSA COUNTY,AMERICAN SOUTHWEST MORTGAGE CORPORATION - 151-02,74133,(918) 742-7300,,Branch,"9110 S SHERIDAN ROAD
TULSA, OK 74133
(36.03086968000048, -95.90425162799966)"
TULSA COUNTY,ARVEST MORTGAGE COMPANY - 209-19,74133,(918) 631-1511,(918) 631-1520,Branch,"6560 E 71ST STREET
TULSA, OK 74133
(36.060772957000495, -95.90176080399965)"
TULSA COUNTY,ARVEST MORTGAGE COMPANY - 209-33,74135,(918) 631-6882,,Branch,"4548 E 51ST STREET
TULSA, OK 74135
(36.08983350400047, -95.92482026799968)"
TULSA COUNTY,ARVEST MORTGAGE COMPANY - 209-47,74012,(918) 295-2579,(918) 295-2574,Branch,"2251 N 9TH STREET
BROKEN ARROW, OK 74012
(36.07364048900047, -95.77952674899967)"
TULSA COUNTY,BANCFIRST - 192-09,74063,(918) 245-2261,(918) 241-5555,,"301 E 2ND STREET
SAND SPRINGS, OK 74063
(36.13846155900046, -96.10619801099966)"
TULSA COUNTY,BANCFIRST - 192-101,74133,(918) 664-6660,,Branch,"10279 S MEMORIAL DRIVE
TULSA, OK 74133
(36.014100028000485, -95.8863738129997)"
TULSA COUNTY,BANCFIRST - 192-102,74105,(918) 712-1795,,Branch,"5623 S LEWIS AVENUE
TULSA, OK 74105
(36.08088027500048, -95.95793684799969)"
TULSA COUNTY,BANCFIRST - 192-16,74135,(918) 664-6660,,Branch,"4901 E 41ST STREET
TULSA, OK 74135
(36.104407565000486, -95.92189116799966)"
TULSA COUNTY,BANCFIRST - 192-35,74145,(918) 664-6660,,Branch,"7625 E 51ST STREET
TULSA, OK 74145
(36.089947580000455, -95.89280066099968)"
TULSA COUNTY,BANCFIRST - 192-38,74037,(918) 299-5081,(918) 664-3422,Branch,"200 E MAIN
JENKS, OK 74037
(36.022563292000484, -95.96811034399968)"
TULSA COUNTY,BANCFIRST - 192-56,74033,(918) 322-9015,(918) 664-3422,Branch,"394 E 141ST STREET
GLENPOOL, OK 74033
(35.95915322400049, -96.00438071799965)"
TULSA COUNTY,BANCFIRST - 192-93,74063,(918) 241-5576,,Branch,"102 W 41ST STREET
SAND SPRINGS, OK 74063
(36.104689013000495, -96.12159422799965)"
TULSA COUNTY,BANCFIRST - 192-99,74137,(918) 664-6660,,,"8822 S YALE AVENUE
TULSA, OK 74137
(36.03427047500048, -95.92212508099965)"
TULSA COUNTY,BANK OF OKLAHOMA - 182-02,74065,(918) 588-8650,(918) 272-0156,,"413 E 2ND STREET
OWASSO, OK 74065
(36.26818603200047, -95.85258193099969)"
TULSA COUNTY,BANK OF OKLAHOMA - 182-05,74133,(918) 619-1932,,,"6505 E 101ST STREET S
TULSA, OK 74133
(36.01737802400049, -95.9039605109997)"
TULSA COUNTY,BANK OF OKLAHOMA - 182-06,74136,(918) 488-7140,(918) 280-3374,Branch,"7060 S YALE, SUITE 100
TULSA, OK 74136
(36.06125690800047, -95.92223987599965)"
TULSA COUNTY,CORNERSTONE HOME LENDING - 21-02,74105,(918) 921-8020,(866) 409-8971,Branch,"1441 E 41ST STREET
TULSA, OK 74105
(36.10433112800047, -95.9718498259997)"
TULSA COUNTY,FIRST MORTGAGE COMPANY - 24-02,74136,(918) 496-2241,(918) 496-6771,Branch,"2504 E 71ST STREET, SUITE A
TULSA, OK 74136
(36.06070741700046, -95.95556400999965)"
TULSA COUNTY,FIRST UNITED BANK & TRUST - 11-03,74136,(918) 294-8020,(918) 294-9036,,"7424 S YALE AVENUE
TULSA, OK 74136
(36.05561073400048, -95.92213429899965)"
TULSA COUNTY,FIRST UNITED BANK & TRUST - 11-14,74056,(918) 609-6970,(866) 535-2683,,"9455 N OWASSO EXPRESSWAY, SUITE A
OWASSO, OK 74056
(36.29071434500048, -95.83651179699967)"
TULSA COUNTY,"FIRSTAR BANK, NA - 160-02",74133,(918) 298-7232,(918) 298-7231,Branch,"10124 S SHERIDAN ROAD, SUITE B
TULSA, OK 74133
(36.01627068100049, -95.90426471299969)"
TULSA COUNTY,GATEWAY MORTGAGE GROUP - 232-03,74135,(918) 526-5237,,Branch,"4111 S DARLINGTON AVENUE, SUITE 150
TULSA, OK 74135
(36.10423011300048, -95.91719677099968)"
TULSA COUNTY,GATEWAY MORTGAGE GROUP - 232-04,74056,(918) 401-1055,,,"8551 N 125TH E AVENUE, SUITE 200
OWASSO, OK 74056
(36.27808224500046, -95.83451069499966)"
TULSA COUNTY,GATEWAY MORTGAGE GROUP - 232-05,74112,,,,"6910 E 14TH STREET
TULSA, OK 74112
(36.14246282400046, -95.8990552469997)"
TULSA COUNTY,MIDFIRST BANK - 223-07,74008,(918) 293-6885,(405) 858-3657,,"11122 S MEMORIAL DRIVE
BIXBY, OK 74008
(36.001710448000495, -95.8867350489997)"
TULSA COUNTY,MIDFIRST BANK - 223-24,74105,(918) 742-4261,(405) 858-3812,Branch,"4255 S PEORIA AVENUE
TULSA, OK 74105
(36.10042066900047, -95.97566700799968)"
TULSA COUNTY,MIDFIRST BANK - 223-25,74137,(918) 293-6887,(405) 585-3005,Branch,"9139 S YALE AVENUE
TULSA, OK 74137
(36.03050942800047, -95.92206631399966)"
TULSA COUNTY,MIDFIRST BANK - 223-50,74146,(918) 551-7400,(405) 767-6078,,"3140 S GARNETT ROAD
TULSA, OK 74146
(36.11740069400048, -95.85115489099968)"
TULSA COUNTY,PRIMELENDING - 30-03,74133,(918) 978-3000,(866) 502-4380,Branch,"6102 S MEMORIAL DRIVE
TULSA, OK 74133
(36.07503014000048, -95.88654492299969)"
TULSA COUNTY,RCB BANK - 233-01,74055,(918) 274-1463,(918) 274-1614,Branch,"12200 E 96TH STREET N
OWASSO, OK 74055
(36.29301635900049, -95.83772198899965)"
TULSA COUNTY,RCB BANK - 233-02,74055,(918) 274-1438,(918) 274-1404,,"11633 E 86TH STREET N
OWASSO, OK 74055
(36.27857841800045, -95.84446013399969)"
TULSA COUNTY,RCB BANK - 233-05,74012,(918) 259-1311,(918) 259-1325,Branch,"1300 E KENOSHA STREET
BROKEN ARROW, OK 74012
(36.061008023000454, -95.77472058199965)"
TULSA COUNTY,UNITED BANK - 22-01,74133,(918) 289-2552,(888) 288-9054,Branch,"6705 E 81ST STREET, SUITE 175
TULSA, OK 74133
(36.046398241000475, -95.90214105699965)"
TULSA COUNTY,WELLS FARGO - 178-05,74135,(918) 499-1199,(877) 302-1471,,"5314 S YALE STREET, SUITE 420
TULSA, OK 74135
(36.08581088900047, -95.92235438499966)"
TULSA COUNTY,WELLS FARGO - 178-15,74012,(918) 451-4860,(866) 707-2691,,"4649 W KENOSHA STREET
BROKEN ARROW, OK 74012
(36.060864198000445, -95.84588326599965)"
TULSA COUNTY,WELLS FARGO - 178-17,74135,(918) 302-5529,(405) 752-4289,Branch,"4363 S HARVARD AVENUE
TULSA, OK 74135
(36.10177222000044, -95.94014548999968)"
TULSA COUNTY,WELLS FARGO - 178-21,74012,(918) 455-0850,(866) 707-2691,Branch,"3104 S ELM PLACE
BROKEN ARROW, OK 74012
(36.020662020000486, -95.79748245699966)"
WAGONER COUNTY,BANCFIRST - 192-01,74429,(918) 486-2148,(918) 486-2140,,"14269 S STATE HIGHWAY 51
COWETA, OK 74429
(35.98835396500044, -95.6712413039997)"
WAGONER COUNTY,FIRST BANK AND TRUST COMPANY - 221-01,74467,(978) 485-2173,(918) 485-0583,,"111 S CASAVER AVENUE
WAGONER, OK 74467
(35.958852479000484, -95.3749168169997)"
WAGONER COUNTY,WELLS FARGO - 178-09,74467,(918) 485-5481,,,"520 W CHEROKEE
WAGONER, OK 74467
(35.95977141400044, -95.38386162099965)"
WASHINGTON COUNTY,BANCFIRST - 192-55,74003,(918) 338-4390,(918) 664-3422,,"300 SE FRANK PHILLIPS BOULEVARD
BARTLESVILLE, OK 74003
(36.75082729200045, -95.9741471479997)"
WASHINGTON COUNTY,RCB BANK - 233-10,74003,(918) 337-1363,(918) 337-1360,Branch,"4224 SE ADAMS ROAD
BARTLESVILLE, OK 74003
(36.74353314400048, -95.9295724219997)"
WOODWARD COUNTY,MIDFIRST BANK - 223-45,73801,(405) 767-6306,,,"1518 OKLAHOMA AVENUE
WOODWARD, OK 73801
(36.433698596000454, -99.39946040099966)"
