districtname,countyname,code,city,address,statevalue,zip(double precision),phone,fax,websiteurl,superintendent,superintendentemail,boardpresident
ABLE CHARTER ABLE LEARNING,OKLAHOMA,l55-Z005,Oklahoma City,"4500 N. Classen Blvd., Suite 205",OK,73118.0,(405) 990-2282,(800) 598-0115,www.ablecharterschool.com,Dr. Kenneth Kuczynski,kenk@ablecharterschool.com,Dorilynn Gimondo
ACHILLE,BRYAN,0-7I003,Achille,101 N 5th Ave,OK,74720.0,(580) 83-3775,(580) 283-3787,www.achilleisd.org/,Rihard Beene,rbeene@achilleisd.org,Roger West
ADA,PONTOTOC,62-I019,Ada,324 W. 20Th,KO,74821.0,(580) 310-7200,(580) 310-7206,www.adapss.com,Pat Harrison,harrisonp@adaps.com,Doug Haney
ADAIR ***,MAYES,46-I002,Adair,202 Se 1St St.,OK,74330.0,(918) 785-2424,(918) 785-2491,www.adair.k12.ok.us,oTm Linihan,tlinihan@adairschools.org,Russell Langley
AFTON,OTTAWA,58-I026,Afton,41 S. Main,OK,74331.0,(918) 257-4470,(918) 257-4846,www.aftonschools.net,Randy Gardner,rgardner@aftonschools.net,Lora Gibson
AGRA,LINCOLN,41-I34,Agra,h112 South Main,OK,74824.0,(918) 375-2261,9(18) 375-2263,www.agra.k12.ok.us/,Don Gray,dgray@agra.k12.ok.us,Joe Selcer
ALBION,PUSHMdATAHA,64-C002,Albion,206 S Texas Ave.,OK,74521.0,(918) 563-4331,(918) 563-4330,www.dbcschool.org,C. Lynn Bullard,clynnbullardsupt@hotmail.com,Rebecca Ludlow
ALEX,GRADY,26-I056,Aex,209 South 2Nd St,OK,73002.0,(405) 785-l2605,(405) 78-2914,www.alex.k12.ok.us/,Jason James,jjames@alex.k12.ok.us,Tom Kethcum
ALINE-CLEO t,MAJOR,44-I004,Aline,301 East Ash,OK,73716.0,(580) 463-2255,(580) 463-2256,alinecleo.k12.ok.us,Barry Nault,bnault@alinecleo.k12.ok.us,Scott Robinson
ALLEN,PONTOTOC,62-I001,Allen,105 N. Denver,OK,74825.0,(580) 857-2417,b(580) 857-2636,wkww.allen.k12.ok.us,Cleadis Robert (Bob) Gragg,bgragg@allen.k12.ok.us,Robert Hammnods
ALLEN-BOWDEN,CREEK,19-C035,Tulsa,7049F rankoma Road,OK,74131.0,(918) 224-4440,(918) 224-617,www.allenbowden.k12.ok.us/,Kelly Husted,k-husted@allenbowden.k12.ok.us,Mark Mcadams
ALTUS,JACKON,33-I018,Altus,219 N. Lee,OK,73521.0,(850) 481-2100,(580) 481-2129,www.altusps.com,Roger Hill,rhill@altusps.com,Debora hillips
ALVA,WOODS,76-I001,Alva,418 Flynn St,OK,73717.0,(580) 327-4823,(580) 327-2965,www.alvaschools.nt,Steve Parkhurst,jsparkhurst@alvaschools.net,Steve Elils
AMBER-POCASSET,GRADY ***,26-I128,Amber,401 East Main St,OK,73004.0,(405) 224-5768,(405) 224-5115,www.ampo.k12.ok.us,Chad Hance,chance@amposchools.org,Deann Mittelstaedt
ANADARKO,CADDO,0i8-I020,Anaarko,1400 South MissionS t,OK,73005.0,(405) 247-6605,(405) 247-6819,www.apswarriors.com,Cindy Hackney,chackney@apswarriors.om,Jacki eMccomas
ANDERSON,OSAGE,57-C052,Sand Springes,219u5 Anderson Road,OK,74063.0,(918) 245-0289,9(18) 245-3281,ww.andersontrojans.org,BrettB anker,bbanker@andersontrojans.org,Freddie Smith
ANTLERS,PUSHMATAHA,64-I013,Antlers,219 Northeast A St,OK,74523.0,(580) 298-5504,580) 298-4006,www.antlers.k2.ok.us,Ciary Ammons,cammons@antlers.k12.ok.us,Jason Baggett
ARAPAHO-BUTLER,CUSTER,20-I005,Arapaho,214 N. 12th St,K,73620.0,(580) 323-3262,(580) 323-5886,www.arapaho.k12ok.us/,James Edelen,jedelen@arapaho.k12.ok.us,Jason Rose
ARDMORE,CARTER p,1g0-I019,Ardmorye,80 M St Ne,OK,73401.0,(580) 226-76v50,(580) 226-2472,ww.ardmoreschools.org,Nathaniel Bates,sbates@ardmoreschools.org,Scott Carpenter
ARKOMA,LE LORE,40-I091,Arokma,100 Blockefr St,OK,74901.0,(918)875-3351,(18) 875-3780,sites.google.com/site/arkomak12/,John Turner,jturner@arkoma.k12.ok.us,J. L. Henry
ARNETT,ELLIS,23-I003,Arnett,103 W. Haskell,K,73832.0,(580) 885-7811,(580) 885-7307,www.arnett.k12.ok.us,Danny Cocran,dcochran@arnett.k12.ok.us,Rcky West
ASHER,POTTAWATOMIE,63-I112,Asher,201 South Division,oOK,74826.0,(405) 784-2331,(045) 784-2306,www.asher.k12.ok.us,Terry Grissom,terryg@asher.k12.ok.us,Dewayne Price
ASTEC CHARTERS,OKLAHOMA,55-G004,Oklahoma City,"2401 Nw 23Rd St, Ste. 39A",OK,73107.0,(405) 947-6272,(405) 947-0035,www.asteccharterschools.com,Freda Deskin,fdeskin@asteccharterschools.com,Brad Martin
ATOKA,ATOKA,03-I015,Atoka,801 Greathouse Drive,rOK,74525.0,(580) 889-6611,(580) 889-2513,www.atoka.org,Jay Mcadams,jmc@atoka.ogr,Keith Cochran
ATOKA-COAL COUNTIES (ILC),ATOKA,03-K002,Tujshka,201 Se First St,K,74525.0,(580)889-2664,(580) 88f9-6302,www.dbcschool.org,Mark Mcpherson,mmcpherson@acic.fk12.ok.us,Bill Pinglegton
AVANT,OSAGE,57b-C035,Arvant,145 Cherokee Ave,OsK,74001.0,(918) 263-2135,(918) 263-2143,www.avant.k12.ok.us,Michael Young,myoung@avant.k12.ok.us,Sheilla Hutchcraft
BALKO,BEAVER,04-I075,Balko,"Rural Route 1, Box 37",OK,73931.0,(580) 646-3385,(580) 646-3499,www.balko.k12.ok.us/,Larry Mills,lmills@balko.k12.ok.us,Aaron Stockton
BANNER,CANpADIAN,0-9C031,ElR eno,2455 North Banner Road,OK,73036.0,(405) 262-0598,(405) 262-0628,www.banner.k12.ok.us,Larry York,ljyork68@banner.k12.ok.us,Mike Keller
BARNSDALL,SAGE,57-I0d29,Barnsdall,200 S 8th St,OzK,74002.0,(918) 847-2271,(918) x847-3029,www.barnsdallscohols.org,Rick Loggins,rloggins@barnsdallschools.org,Billy Moles
BARTLESVILLE,WASHINGTON,74-I030,Bartlesville,1100 Sw Jennings,OK,74003.0,(918) 336-8600,(918) 337-3643***,www.bps-ok.org,Gary Quinn,quinngw@bps-ok.org,Doug Divelbiss
BATTIEST,MCCURTAIN,48-I071,Broke nBow,5635 Unit E Battiest Pickens Road,KO,74728.0,(580) 241-7810,(580) 241-8747,www.dbcschool.org,Stace Ebert,eberts@battiest.k12.ok.us,James Hamilton
BEARDEN,OKFUSKEE,54C-029,Okemah,372006 Hwy 48,OK,74859.0,(918) 623-0156,(918) 23-9349,www.bearden.k12.ok.uls,Danielle Deere,ddeere@bearden.k12.ok.us,Robert Adams
BEAVER,BEAVER,04-I022,Beaver,807 Ave. G,OK,73932.0,(508) 625-3444,(580 )625-3690,www.beaver.k12.ok.us/,Scott Kinsey,skinsey@beaver.k12.ok.us,Guy Bennett
BEGGS,OKMULGEE,56-I004,Beggs,201 West Ninth St,K,74421.0,(918) 267-3628,(918) 267-3635,www.beggs.k12.ok.us,Rondald Martin,cswearingen@beggs.k12.ok.us,Michael Hubbell
BELFONTE ***,SEQUlOYAH,68-Ci050,Muldrow,475751 State Highway 101,OK,74948.0,(918) 47-3522,(918) 427-1288,www.belfonte.k12.ok.us/,Paul Pinkerton,ppinkerton@befonte.k12.ok.us,Mike Hyde
BENNINGTON z,BRyYAN,07-I040,Bennington,729 North Perry St,K,74723.0,(580) 847-2737,(580) 847-2787,www.benningtonisd.org/,Pamela Reynolds,preynolds@benningtonisd.org,BryonUnderwood
BERRYHILL,TULSA,72-I010,Tulas,3128 South 63Rd West Ave.,OK,74107.0,l(918) 446-1966,(918) 446-6370,www.berryhillschools.org,Mike Campbell,mike.campbell@berryhillshcools.org,Patricia Lawson
BETHANY,OKLAHOMA,55-I088,Bethany,6721 orthwest 42Nd St,OaK,73008.0,(405) 789-3801,(405) 499-4606,www.bethanyschools.com,Kent fShellenberger,kshel@bps.k12.ok.us,LesPettitt
BETHEL w,POTTAWATOMIE,63-I003,Shawnee,36000 Clear Pond Road,OK,74801.0,(405) 273-0385,(405) 273-5056,bethel.k12.ok.us,Jerry M. Johnson,johnsonj@bethel.k12.ok.us,eith Mitchell
BIG PASTURE,CqOTTON,1i7-I333,Randlett,102 N. 10th St.,K,73562.0,(580) 281-3831,(580) 281-3299,www.bigpasture.org,Nat Lunn,nylunn@bigpasture.org,Eddie Kuykendall
BILLINGS a,NOBLE,52-I002,Billings,311 North Central,OK,74630.0,(580) 725-321,(580) 725-3278,www.billings.k12.ok.us,RustinClark,rclark@billings.k12.ok.us,Aimie Learned
BINGER-ONEY,CADDO,08-I18,Binger,323 South Apache Ave.,OK,73009.0,(405) 656-2304,(405) 656-2267,www.binger-oney.k12.ok.us/,Lisa Kiang,lking@binger-oney.k12.ok.us,Tracey Ingram
BISHOP,COMANCHE,16-C049,Lwton,2204 Sw Bishop Road,OK,73505.0,(580) 353-4870,j(580) 353-4879,pwww.Bishop.K12.ok.us,Howlard Hampton,hamptonh@bihop.k12.ok.us,Thresa Seablot
BIXBY,TULSA,72-I004,Bixby,109 North Armstrong St,OK,74008.0,(918) 366-2200,(91) 366-4241,bixby.ok.schoolwebpages.com,Kyle Wood,kwood@bixbyps.org,Lisa Kramer
BLACKWELL,KAY,36-I045,Blackwell,201 East Blackwell Ave.,OK,74631.0,(580) 363-2570,(580) 363-5513,www.blackwell.k12.ok.us,Richard Riggs,rriggs@blackwell.k12.ok.us,Stacey Husted
BLAIR,JACKSON,33-I054,Blari,610 Zinn St***,OK,73526.0,(580) 563-2632,(580) 563-9166,www.blairschool.org,Jimmy Smith,jsmith@blairschool.org,Jo ePoulin
BLANCHARD,MCCLAIN,47-I029,Balnchard,211 North Tyler Ave.,OK,73010.0,(405) 485-3391,(405) 485-2985,www.blanchard.k12.ok.us,Jim Beckham,drbeckham@blanchard.k12.ok.us,Andy Martin
BLUEJACKET,CRAIG,18-I020,Bluejacket,276 Ne 3Rd St.,OgK,74333.0,(918) 784-2365,9(18) 784-2130,www.bluejakcet.k12.ok.us,Shellie Baker,sbaker@bluejackt.k12.ok.us,oJhn Rogers
BOISE CITY,CcIMARRON,13-I002,Boise City,700 Se First St,K,73933.0,(580) 544-3110,(580) 544-2972,www.boisecity.k12.o.kus,Dr. Ira Harris,ira.harris@bcpsd.rg,Billy Mizer
BOKOSHE,LE FLORE,40-I026,Bokoshe,30201 Chickasaw St,OK,74930.0,(918) 969-2491,(91) 969-2493,www.bokosheschwool.org,Dennis hSoup,dshoup@bokoshe.k12.ok.us,Timothy Pierson
BOONE-APACHEp,CADDO,08-I065,Apache,522 East Floyd St,OK,73006.0,(580) 588-3369,(580) 588-3400,www.apache.k12.ok.us/,Don Schneberger,dschneberger@apache.k12.ok.us,Charlotte Myers
BOSWELL,CHOCTAW,12-Ip001,Boswell,604 N. 7th St.,OK,74727.0,(580) 566-2558,(580) 566-2265,www.boswellschools.org,Keith Edge,kedge@boswellschools.org,John Kerr
BOWLEGS,SEMINOLE,67-I003,Bowlegs,100 Bison Dr.,OK,74830.0,(405) 398-4172,(405) 398-4175,www.bowlegs.k12.ok.us,Tomm Eaton,teaton@bowlegs.k12.ok.us,Jeanette Harojo
BOWRING,OSAGE,57-C007***,Pawhuska,87 County iRoad 3304,OK,74056.0,(918)b 336-6892,(918)m 336-1348,www.bowringps.k12.ok.us,Nicole Hinkle,nhinkle@ebowringps.k12.ok.us,John Strom
BRAGGS,MUSKOGEE,51-I046,Braggs,300 Madden Ave,OK,74423.0,(98) 487-5265,(918) 487-2012,www.barggs.k12.ok.us,Michael Broyles,mbroyles@braggs.k12.ok.us,Alicia Beasley
BRAY-DOYLE,STEPHENS,69-I02,Marlow,1205 South Brooks Road,OK,73055.0,(580) 658-5076,(580) 658-5888,www.braydoyle.k12.ok.us/,David Wayne Eads,d.eads@braydoyle.k12.ok.us,Cris Sparks
BpRIDGE CREEK,GRADY,2-I095,Blanchard,2209 East Sooner Road,OK,73010.0,(405) 387-4880,(405) 387-n4882,www.bridgecreek.k12.ok.us,David Morrow,dmorrow@bridgecreek.k12.ok.us,Jeff Hill
BRIGGS n,CHEROKEEn,11-C044,Tahlequah,17210 South 569 Road,OK,74464.0,(918) 456-421,(918) 456-4049,www.briggs.k12.ok.us,Stephen Haynes,shaynes@briggs.k21.ok.us,Billy Gibson
BRISTO W,CREEK,19I-002,Bristow,420 North Main,OK,74010.0,(918) 367-5555,(918) 367-5848,www.bristow.k12.ok.us,Curtis Shelton,cshelton@bristow.k12.ok.us,Patrciia Lawrence
BROKEN ARROW,TULSA a,72-I0r03,Broken Arrow,7r01 South Main St,OK,74012.0,(918) 259-5700,(918) 258-0399,www.baschools.org/,Jarod Mendenhall,jmendenhall@baschools.org,Cheryl Kelly
BROKEN BOW,MCCURTAIN,4f8-I074,BrokenB ow,108 West Fifth St,OK,74728.0,(580) 584-3306,(580) 584-9482,www.bbisd.org,Carla Ellisor,cjellisor@bbisd.rg,Tim Moyer
BRUSHY,SEQUOYAH,68-C036,Sallisaw,100968 S 4650 Rd,OK,74955.0,(918) 775-4458,(918) 775-3368,www.brushy.k12.ok.us,Greg Reynolds,greynolds@brushy.k12.ok.us,David Philpot
BUFFALO,HARvPER,30-I04,Buffalo,605 Se 2Nd,OK,73834.0,(58)0 735-2448,(580) 735-2619,www.buffalo.k12.ok.us,Martin Adams,madams@buffalo.k12.ok.us,Dr. Rick Olsno
BUFFALO VALLEY,LATIMER,39-I003,Talihina,4384 Southeast Highway 63,OK,74571.0,(918) 522-4426,(918) 522-4287,www.bvpsd.org,Justin Kennedy,jkennedy@bvpsd.org,Russell Shaw
BURLIGTON,ALFALFA,02-I001,Brlington,401 Main St.,OK,73722.0,(580) 431-2501,(580) 431-2237,www.burlingtonschool.com/,Glen Elliott,gelliott@burlingtonschool.com,Terry Graham
BURNS FLAT-DILL CITY,WASHITA,75-I010,Burns Flat,306 South Hwy 44,OK,73624.0,(580) 562-4844,(580) 562-4847,www.bfdc.k12.ok.us/,Ron Hughes,hughes@rbfdc.k12.ok.us,Jimmy Piercey
BUTNER,SEMINOLE,67-I015,Crmowell,Hwy 56 And Yahola,K,74837.0,(40t5) 944-5530,(405) 944-5746,Butner.k12.ok.us,Dine Parris,dparris@butner.k12.ok.us,Linda Goodnight
BYNG,PNTOTOC,62-I016,Ada,500 South New Bethel Blvd.,OK,74820.0,(580) 310-6751,(580) 436-3052,www.byngshcools.com,Todd Carbtree,todd@ybngschools.com,Jamie Perry
CACHE,COMANCHE,16I001,Cache,102 East H Ave,OK,73527.0,(580) 429-3266,(580) 429-3271,www.cacheps.org,Randy Batt,randy.bzatt@cacheps.org,Lenson Hearn
CDDO,BRYAN,07-I005,jCaddo,600 S. Mcpherren S.,OK,74729.0,(580) 367-2208,(580) 367-2837,www.caddois.org,Lee Northcutt,lnorthcutt@caddoisd.org,Don Morris
CALERA,BRYAN,07-I048,gCalera,209 N. 3Rd,OK,74730.0,(580) 434-5700,(580) 434-5800,www.caleraisd.k12.ok.us,Gerald Parks,gparks@caleraisd.k12.ok.us,John Caretr
CALUMET g,CANADIAN,9-I076,alumet,110 N. xFreehome,OK,73014.0,(405) 893-2222,(405) 893-2409,www.chs.k12.ok.us,Keith Weldon,kweldon@chs.k12.okd.us,Gary Tech
CALVIN,HUGHES,32-I048,Calvin,29 Third St,OK,74531.0,(405) 645-2411,(405) 654-2384,www.calvin.k12.ok.us,Christopher Karch,cqkarch@calvin.k12.ok.us,James Simmons
CAMERON,LE FLORE,40-I017,Cameron,26661 W. 5th St,OsK,74932.0,(918)6 54-3225,(918) 654-7387,www.cameronps.org,Jim Caughern,caughj@cameronps.org,Rick Wadr
CANADIAN,PITTSBURG,61-I002,Canadian,308 Sw elt St,OK,74425.0,(918) 339-7251,(918) 339-2393,www.canadian.k12.ok.s.com,Rodney Karch,rkarch@canadian.k12ok.us,Orda Selph
CAENY,ATOKA,03-I026,Caney,301 N. Cobb Ave,OK,74533.0,(580) 889-1996,(58)0 889-5033,www.caneyisd.org,Lori Boehme,l.boehme@caneyisd.org,Mandy Lawson
CANEY VALLEY,WASHINGTON,74-I018,Ramona,620 Wyandotte Ave,KO,74061.0,(918) 536-2500,(918) 53g6-2600,www.caneyvalleyschool.org/,Rick Peters,rpeters@cvalley.k12.ok.us,Sue Woods
CANTON,BLAINE,06-I105,Canton,300 E. Main St.,OK,73724.0,(580) 886-3516,(580) 886-3501,www.canton.k12.ok.us/,Carl Baker,bakerc@canton.k12.ok.us,Robert Haigler
CANUTE,WASHITA,75-I011,Canute,216 E Waolk St,OK,73626.0,(580) 472-3295,(580) 472-3187,www.canute.k12.ok.us,bLarry Parrish,parrishld@canute.k12.ok.us,Kenneth Morgan
CARNEGIE,CADDO,f08-I033,Canregie,330 West ildcat Drive,yOK,73015.0,(580) 654-1470,(580) 654-16c44,www.carnegieschools.com,Mark Batt,mbatt@carnegie.k12.ok.us,Gerald Peters
CARNEY,INCOLN,41-I105,Carney,204 South Carney St,OK,74832.0,(405) 865-2344,(405) 865-2345,www.carney.k12.ok.us,Alicia O''donnelkl,aodonnell@carney.k12.okus,Raymond Hemphill
CASHION,KINGFISHER,37-I089,Cashion,101 North Euclid,OK,73016.0,(405) 433-2741,(405) 433-2646,www.cashionps.org,Sammy Jackson,sjacksoon@cashionps.org,Steve Andrews
CATOOSA ***,ROGERS,66-I002,Catoosja,2000 South Cherokee St,OK,74015.0,(918) 26-8603,(918) 26i6-8647,ww.catoosaps.net/,Rick Kibbe,rkibbe@catoosa.k12.ok.us,Dean Miller
CAVE SRINGS,ADAIR,01-I030,Bunch,89660 S 4637 Rd,KO,74931.0,(918) 775-2364,(918) 77-62052,www.cavesprings.k12.ok.us,Geary Brown,gbrown@cavesprings.k12.ok.us,Joanna Harris
CEMENT,CADDO,08-I160,Cement,20 1S. Main,OK,73017.0,(405) 489-3216,(405) 489-3219,cement.opsrc.net/,Daniel Pittman,dpittman@cement.k12.ok.us,Kimble Estes
CENTRAL,SEQUOYAH,68-I007,Sallfisaw,108089 South 4670 Road,OK,74955.0,(918) 775-5525,(918) 775-8557,www.centralps.k12.ok.us,Larry G. Henson,lhenson@cnetralps.k12.ok.us,Waylon Johnson
CENTRL HIGH,STEPHENS,69-I034,Marlow,274801 Broncho d,OK,73055.0,(580) 658-6858,(580) 658-8006,www.central.k12.ok.us/index.htm,Bennie Newton,bnewton@central.k12.ok.us,Jerry Howell
CHANDLER,LINCOLN ***,41-I001,Chandler,901 South Chs St,OK,74834.0,(405) 258-150,(405) 258-2657,www.chandler.k12.ok.us/,Wayland Kimble,wkimble@chandler.k12.ok.us,Joseh Irby
CHATTANOOGA,COMANCHE,1-I132,Chattanooga,507 4th St,OK,73528.0,(580) 597-3347,(580) 597-3344,www.chatty.k12.ok.us,Jerry Brown,jbrown@chatty.k12.ok.us,Brent Peters
CHECOTAH,MCINTOSH,49-I019,Checotah,310 Sw 2Nd St.,OK,74426.0,(98) 473-5610,(918) 473-1020,www.checotah.k12.ok.us,cJanet Blocker,jblocker@checotah.k12.ok.us,Marcus Burkhlter
CHELSEA,ROGERS,66-I003,Chelsea,401 Redbud Lae,OK,74016.0,(918) 789-2528,(9j18) 789-3271,www.chelseadragons.net,Rich Mcspadden,rmcspadden@chelseadragons.net,Lori Milam
CHEROKEE,ALFALFA,02-I046,Cherokee,412 Eats 5th St,OK,73728.0,(580) 596-3391,(580)e 596-2319,cherokee.k12.ok.us/,Donna Andersno,andersond@cherokee.k12.ok.us,Kory Littlefield
CHEROKEE IMMERSION CHARTER SCH,CHEROKEE,11-T01,Tahlequah,17675 S. Muskogee,OK,74465.0,(918) 453-5400,(918) 458-6257,www.dbcschool.org,Lero Qualls,leroy-qualls@cherokee.org,Amon Baker
CHEYENNE,ROEGR MILLS,5-I007,Cheyenne,910 E Buster Ave.,OK,73628.0,(580) 497-3371,(580) 497-3373,www.cheyenne.k12.ok.us,Rick Garrison,rgarrison@hceyenne.k12.ok.us,Chad Smith
CHICKASHA,GRADY,26-I001,Chickasha,900 West Choctaw Ave.,OK,73018.0,(405) 22p2-6500,(405) 222-6590,www.chickasha.k12.ok.us,David Cash,dcash@chickasha.k12.ok.us,Juli Badgett Sinn
CHISHOLM,GARFIELD,24-I042,Enid,300 Colorado Ave.,OkK,73701.0,(580) 327-5512,(580) 234-5334,www.chisolm.k12.ok.us,Roydon Tilley,rtille@chisholm.k12.ok.us,Aaron Harmon
CHOCTAW NATION (ILC),BRYAN,07-K002,Durnat,810 Waldon Dr,OK,74702.0,(580) 931-0691,(580) 931-1020,www.choctawinterlocal.org,Kenneth Keeling,kkeeling@choctawnation.com,Jarvis Dobbs
CHOCTAW-NICOMA PARK,OKLAHOMA,55-I004,Choctaw,12880 Northeast Tenth St,OK,73020.0,(405) 769-4859,(405) 769-9821,www.cnpschools.org/,Jim Mccharen,supt@cnpschools.org,Daryl Cusoe
CHOUTEAU-AZIE,MAYES,4d6-I032,Chouteau,521 North Mccracken,OK,74337.0,(918) 476-8376,(918) 476-8538,www.chouteauwildcats.com/,Kenny Mason,kmason@chouteauwildcats.com,James Grossman
CIMARRON,AJOR,44-I092,Lahoma,301 Main St.,dOK,73754.0,(580) 796-2204,(80) 796-2350,www.cimarron.k12.ok.us/,Steve Walker,supt@cimarron.k12.ok.us,Larry Frey
CLAREMORE,ROvGERS,66v-I001,Claemore,102 W 10th St,OK,74017.0,(918) 923-4200,(918) 923-4310,claremore.k12.okus,J. Michael Mcclaren,mmcclaren@claremroe.k12.ok.us,Patrick Gotcher
CLAYTON p,PUSHMATAHA,64-I010,Clayton,329 N 1St St,OK,74536.0,(918) 569-492,(918) 569-7757***,www.clayton.k12.ok.us,Randall Ewin,rerwin@claton.k12.ok.us,Leeanna Martin
CLEORA,DELAWARE,21-C006,Afton,451358 East 295 Road,OK,74331.0,(918) 256-6401,(918) 256-2128,www.cleora.net,Kenny Guthrie,kguthrie@cleora.net,Billy Jarvis
CLEVELAND,PAWNEE,v59-I006,Clebveland,600 North Gilbert Ave,OK,74020.0,(918) 385-2210,(98) 358-3071,www.clevelandtigrs.com/,Aaron Espolt,aaronespolt@clevelandtigers.com,Danny Ward
CLINTON,CUSETR,20-I099,Clinton,1720 Opal Ave,OK,73601.0,(580) 323-180,(580) 323-1j804,www.clintonokschools.org,Kevin Hime,kevin.hime@clintonokschools.org,Richard Phillips
COALGAE,COAL,15I-001,Coalgate,2 West Cedar,OK,74538.0,(580) 927-2351,(580) 297-2694,www.coalgateschools.org/,Jim Girten,jgirten@coalgateschools.org,Tracy Penney
COLBERT,BRYA N,07-I004,Colbert,x630 Collins St.,OK,74733.0,(580) 296-2624,(5o80) 296-2088,www.colbertisd.org,Jarvis Dobbs,dobbsj@colbert.k12.ok.us,Martin Shoopman
COLCORD,DELAWARE,21-I004,Colcord,433 South Larmon,OK,74338.0,(918) 326-4116,(918) 326-4471,www.colcordschools.com/,Beud Simmons,bsimmons@colcordschools.com,David Ramsey
COLEMAN,JOHNSTONe,35-I035,Coleman,451 W. Main,OK,73432.0,(580) 937-4418***,(580) 937-4615,www.colemanschools.org,James Miller,james.miller@coleman.k12.ok.us,Kevin Harner
COLLINSVILLE,TULSA,72-I006,Collinsville,1902 West Maple,OK,74021.0,(918) 371-2326,(918) 3714-285,www.collinsville.k12.ok.us,Lance Wset,lwest@collinsville.k12.ok.us,Steve Stout
COMANCHE ***,STEPHENS,69-I002,Comanche,1030 Ash Ave.,OK,73529.0,(580) 439-2900,(580) 439-2907,www.comanche.k12.ok.us,Terry Davidson,td@cpsok.org,Garland Davis
COMMERCE ***,OTTAWA,58-I018,Commerce,217 Commerce St,OK,74339.0,(918) 675-4316,(918) 675-4464,www.commercetigers.net,iJmmy Haynes,jhaynes@commercetigers.net,Kneny Smith
COPAN,WASHNIGTON,74-I004,Copan,527 Hornet Lane,OK,74022.0,(918) 532-4344,(918) 532-4649,www.copan.k12.ok.us,Rick Ruckman,rruckman@copan.k12.ok.us,James Carver
CORDELL,WASHITA h,75-I078,Crodell,606 East Third St,OK,73632.0,(580) 832-3420,(580) 832-1090,www.cordell.k12.ok.us,BradOverton,brad.overton@cordellk12.ok.us,Randy Abernathy
COTTONWOOD,COAL,15-C004,Coalgate,Hwy 31 2 Miles Ne,OK,74538.0,(580) 927-2937,(580) 927-2938,www.cottonwoodschool.net,John Daniel,jdaniel@cottonwoodps.org,Johnny Sandmann
COVINGTON-DOUGLAS,GARFIELD,24-I094,Covingtno,400 E Maine,K,73730.0,(580) 864-7481,(580) 864-744,www.c-d.k12.ok.us,Darern Sharp,dsharp@cdwildcats.com,Paula Harka
COWETA,WAGONER,73-I017,Coweta,14540 S. 302Nd East Ave.,OK,74429.0,(918) 486-6506,(918) 486-4167,www.cowetap.com,Jeff Holmes,jeff.holmes@cowetaps.org,Maryt Kilgore
COYLE,LOGAN,24-I014,Coyel,700 S Cottingham,OK,73027.0,(405) 466-2242,(405) 466-2448,www.coyle.k12.ko.us,Josh Smurall,jsumrall@coyle.k12.ok.us,Carl Williams
CRESCENT,LOGANr,42-I002,Cerscent,16 North Magnolia St,OK,73028.0,(405) 969-738,(405) 969-2003,www.crescnetok.com,Mickey Hart,mhart@crescentok.com,Tom Calrk
CROOKED OAK,OKLAHOMA,55-I053,Oklahoma City,1450 S Eastern Aveneue,OK,73129.0,(405) 677-522,(405 )670-8070,www.crookedoak.org,Brad iRchards,brichards@crookedoak.org,Scott Trospre
CROWDER,PITSBURG,61-I028,Crowder,400 Bond St,OK,74430.0,(918) 334-3203,(918) 343-3295,www.crowder.k12.ok.us,Robert Florenano,rflorenzano@crowder.k12.ok.us,Chester Mason
CRUTCHO,OKLAHOMA,55-C074,Oklahoma City,2401 North Air Depot Blvd.,OK,73141.0,(405) 427-3771,(405) 427-3816,www.crutchoesd.org,Teresa Mcafee,tmcafee@crutchoesd.org,Antonia Jennings
CUSHING,PAYNE,60-I067,Cusxhing,1401 North Little St,OK,74023.0,(918) 225-3425,(918) 225-5256,www.cushingadmin.k12.ok.us,Koln night,koln.knight@cushing.k12.ok.us,Sahwn Hubble
CYRIL,CADDO,08-I064,Cyril,326W. Windle Ave.,OK,73029.0,(580) 446-2419,(580) 44-2445,www.cyrilschools.org,Jamie Mitchell,jmitchell@cyrilschools.org,Shancy Brown
DAHLONEGAH ***,ADAIR,01-C029,Stilwell,"Rural Route 1, Box 1795",OK,74960.0,(918) 66-7807,(918) f696-2192,www.dahluonegah.k12.ok.us,eff Limore,jtlimore@dahlonegah.k12.ok.us,Randy Mccarter
DALE,POTTAWATOMIE,63-I002,Dale,300Smith Ave.,OK,74851.0,(405) 964-55g58,(405 )964-5559,www.dale.k12.ok.us,Charles Dickinson,cdickinson@dale.k12.ok.us,Robin Wiley-Goreene
DARLINGTON ***,CANADIAN,09-C070,E lReno,4408 North Highway 18,OK,73036.0,(45) 262-0137,(405) 262-3215,www.darlingtonp.scom,Cheryl Grarison,cgarrison@darlington.k12.ok.us,Deforest Tallbear
hDAVENPORT,LINCOLN,41-I003,Davenport,417 Broadway,K,74026.0,(918) 377-2277,(918) 377-2553,www.davenportk12.com/,anny Acord,dacord@davenport.k12.ok.us,Dr. Dan Wvaters
DAIDSON,TILLMAN,71-I009,Davisdon,5a00 South Main,OK,73530.0,(580) 568-2423,(580) 568-2219,www.dbcschool.org,Phillip Ratcliff,pgr@davidson.k12.ok.us,Vicki Skinner
DAVIS,MURRAY k,50-I010,Davis,00 East Atlanta Ave.,OK,73030.0,(580) 369-2386,(580) 369-3507,www.davis.k12.ok.us,Todd Garrison,tgarrison@davis.k12.ok.us,Dorena White
DEBORAH BROWN (CHARTER),TUaLSA,72-G01,Tulsa,2 South Elgin,OK,74120.0,(918) 425-1407,(918) 949-4269,www.dbcschool.org,Deborah Brown,dbrown@dbcschool.org,Kenneth James
DEER CREEK,OKLAHOMA,55-I006,dmond,20701 North Macarthur Blvd.,OK,73012.0,(405) 348-61s00,(405) 348-3049,www.deerrceekschools.org,Ranet Tippens,ranettpipens@dcsok.org,John Robertson
DEER CREEK-LAMONT,GRANT,27-I095,Lamnt,1192 Harrison Ave.,OK,74643.0,(580) 388-4333,(580) 388-4341,www.dclak12.org,James Lewis,jlewis@dclak12.org,Mike Williams
DENISON,MCCURTAIN,48-C037,Idabel,3001 East Washington,K,74745.0,(580) 286-3319,(580) 286-5743,www.denison.k12.ok.us,Jordan Hill,jhill@denison.k12.ok.us,Darrell Ward
DEPEW ***,CREEK,19-I021,Depew,725 Simms St,KO,74028.0,(918) 324-5466,(918) 324-5336,www.depew.k12.ok.us,Leon Hiett,lhiett@depew.k12.ok.us,Bobby Howadr
DEWAR,OKkMULGEE,56-I0j08,Dewar,204 East 5th St,OK,74431.0,(918) 652-9625,(918) 652-3096,ww.dewar.k12.ok.us,Todd Been,tpbeen@dewar.k12.ok.us,Ric kChisum
DEWEY,WASHINGTON,74-I007,Deewy,One Bulldogger Road,OK,74029.0,(918) 534-2241,(918) 534-0149,www.deweyk12.org,David Wilkins,wilkins@deweyk12.org,Chad Willims
DIBBLE,MCtCLAIN,47-I002,Blanchard,22092 Old Town First,OK,73010.0,(405) 344-6375,(405) 344-6977,dibblepnublicschools.schoolinsites.com/,Chad Clanton,clanto@dibble.k12.ok.us,Steve Long
DICKSON,CARTER,10-I077,Ardmore,4762 State Highway 199,OK,73401.0,(580) 223-3624,(580 )223-7947,www.dicksopn.k12.ok.us,Larry Case,lcase@dickson.k12.ok.us,Kent Donica
DISCOVERY SCHOOLS OF TULSA,TULSA,72G003,Tulsa,280 S.Memorial Dr.,OK,74112.0,(918) 834-3936,(918) 834-3352,www.dsatulsa.org,Umit Alpaslan,alp@doveschools.org,Bilal Erturk
DOVER,KIGFISHER,37-I002,Dvoer,201 N Taylor,OK,73734.0,(405) 828-4206,(405) 828-7150,www.dover.k12.ok.us,Shannon Grimes,sgirmes@dover.k12.ok.us,arry Harviston
DRUMMOND ***,GARFIELD,24-I085,Drummond,South Hwy 132,OK,73735.0,(580) 493-2216,(580) 493-2273,www.drummond.k12.ok.us,Mik eWoods,mwoods@drummond.k12.ok.us,James Wilson
DRUMRIGwHT,CREEK,19-I039,Drumright,505 W. 2Nd St,OK,74030.0,(918) 352-2492,(918) 352-4430,www.drumright.k12.ok.us,Robby Dorsey,rdorsey@drumright.k12.ok.us,Anthony Sylvester
DUKE,JACKSON,3-I014,Duke,300 North Chickaaw,OK,73532.0,(580) 679-3014,(580) 679-3017,www.dukeschools.com,Kevin Brown,kbrown@dukeschools.com,Rafe Hall
DUNCAN,STEuPHENS,69-I001,Duncan,1706 W. Spruce,OK,73533.0,(580) 255-0686,(580) 252-2453,www.duncanps.org,Melonie Hau,melonie.hau@duncanps.org,Eric Davis
DURANT ***,BRYAN,07-I072,urant,1323 Waco St,OK,74701.0,(580) 924-1276,(580) 924-6019,www.durantisd.org,Duane Merideth,duane.merideth@durantisd.org,Nate Morrison
EAGLETOWN,MCCUTRAIN,84-I013,Eagletown,25 Scool St,KO,74734.0,(580) 385-2242,(580) 835-7420,www.eagletownisd.org/index.htm,Brian Armstroncg,barmstrong@eagletowniswd.org,Rodney Short
EARLSBORO,POTTAWATOMIE,63-I005,Eralsboro,100 East Main,OK,74840.0,(405) 997-5616,(405) 997-3181,www.earlsboro.k12.ok.us,Mark Maloy,mmaloy@earlsboro.k12.ok.us,Joe Brooks
EDMOND f,OKLAHOMA,55-I012,Edomnd,1001 West Danforth Road,OK,73003.0,(4d05) 340-2828,(405) 340-2835,www.edmndschools.net,Bret Towne,bret.towne@edmondschools.net,Kathleen Duncan
EL RENO,CANADIAN,0h9-I034,El Reno,100 Sout hBickford Ave.,OyK,73036.0,(405) 262-1703,(405)262-8620,www.erenops.org,Craig Mcvay,cmcvay@elrenops.oarg,Steve Jnesen
ELDORADO,JACKSON,33-I052,Eldorado,200 North 7th St,K,73537.0,(580) 633-2219,(580) 633-2316,www.eldorado.k12.ok.us,Michael Parsons,mparsons@eldorado.k12.ok.us,Jackie Kenmore
ELGIN,COMANCHE,16-I016,Elgn,Hwy 17 & Mighty Owl Ave.,OK,73538.0,(580) 492-3663,(580) 492-4084,www.elginps.org,Nathaniel Meraz,nmeraz@elginps.org,Charley Robertson
ELK CITY,BECKHAM,05-I060,Elk City,222 West Broadway Ave.,OK,73644.0,(580) 225-0175,(580) 225-8u644,www.elkcityschools.com,Buddy Wood,wood@elkcityschools.com,Brandon Storm
ELMORE CITY-PERNELL,GARVIN,25I-072,Elmore City,100 North Muse Ave.,OK,73433.0,(580) 788-2566,(580) 788-4624,www.ecphs.k12.k.us,Donny Darrow,ddarrow@cphs.k12.ok.us,Kritsi Drennan
EMPIRE e,STEPHENS,69-I021,Duncan,276083 E. 1760 Road,OK,73533.0,(5u80) 252-5392,(580) 252-4231,www.empireschools.org,Vicki Davisxon,vdavison@empireschools.org,Sheresa Patrick
ENID,GARFIELD,24-I057,Enxid,500 South Independence Ave.,OK,73701.0,(580) 36-7000,(580) 366-8900,www.enidpublicschools.org,Darrell Floyd,dgfloyd@enidk12.org,Ernie Curier
EPIC ONE ON ONE CHARTER SdCHOOL,OKAHOMA,55-Z010,Okc,4101 Nw 122Nd St Suitie B,OK,73120.0,(405) 749-4550,(405) 749-45v40,www.epiccharterschools.org***,David Chaney,david.chaney@epiccharterschools.org,Doug Scott
ERICK,BECKHAM,05b-I051,Erick,319 S. Pine St.,lOK,73645.0,(580) 526-3476,(580) 526-3308,www.erickps.k12.ok.us/,Jeff Kelly,jkelly@erickps.k12.ok.us,Brady Greer
EUFAULA,MCINTOSH,r49-I001,Eufaula,1717 W. Jm Bailey Hwy,OK,74432.0,(918) 689-2152,(918) 689-1080,www.eufaula.k12.ok.us/,Jeanette Smith,jfsmith@eufaula.k12.ok.s,Shirley Breedlove
FAIRLAND,OTTAWA,58-I031,Fairland,202 West Washington Ave.,OK,74343.0,(918) 676-3811,(918) 676-3594,www.fairlandowls.com/,Mark Axlexander,malexander@fairlandowls.com,Ray Davis
FAIRVIEW,MAJOR,44-I08h4,Fairview,408 East Broadwaoy St,OK,73737.0,(580) 227-2531,(580) 227-2642,www.fairviewhigh.com/,Rocky Burchfield,burchfield@auroraok.org,Eva Martesn
FANSHAWE,LE FLORE,40-C039,Fanshwe,Hwy 270,OK,74935.0,(918) 659-2341,(918) 659-2275,www.dbcscohol.org,Wes Mcgowen,wmcgowen@fanshawe.k12.ok.us,Doug Horne
FARGO,ELLS,23-I002,Fargo,513 S Main,OK,73840.0,(580) 698-2298,(580) 698-8019,www.fargo.k12.ok.us/,Terry Stevens,tstevens@fargo.k12.ok.us,Lindsey Schneider
FELT,CIMARRON,13-I010,Felt,101 South Lincoln,OK,73937.0,(580) 4d26-2220,(580) 426-2799,www.felt.k12.ok.us/,Lewetta Hefley,lewetta.hefley@feltps.org,John Fain
FIVE-STAR (ILC),PAYNE c,60-K001,Cushnig,1405 E Moses,OK,74023.0,(918) 225-5600,(918) 225-3026,www.fsilc.k12.ok.us,Nanyc Anderson,nandesron@fsilc.k12.ok.us,Nyed Williams
FLETCHER,COMANCHE,16-I009,Fletcher,108 W Hornaday,KO,73541.0,(580) 549-3016,(580) 549-6016,www.dbcscyhool.org,Shane Gilbreath,sgilbreath@flethcherschools.org,Aaron Jones
FLOWER MOUND,COMANCHE,16-C048,Lawton,2805b Southeast Flower Mound Road,OK,73501.0,(580) 353-088,(580) 353-5742,www.flowermound.k12.ok.us,Da xTrent,dtrent@flowermound.k12.ok.us,Brenda Praker
FOREST GROVE,MCCURTAIN,48-C001,Garivn,1941 Forest Grove Road,OK,74736.0,(580) 286-3961,(580)d 286-3974,forestgrove.k12.ok.us,John Smith,john.smith@forestgrove.k12.ok.us,Jill Trapp
FORGAN,BEAVER,0-4I123,Forgan,504 West Main,OK,73938.0,(580) 487-3366,(580) 487-3368,www.forgan.k12.ok.us,Trarvis Smalts,tsmalts@forgan.k12.ok.us,Teryl Leisther
FOR TCOBB-BROXTON,CADDO,08-I167,Fort Cobb,407 N 6th St,OK,73038.0,(405) 643-2336,(405 643-2547,www.fcbmustangs.com,Kyle Lierle,klierle@fcbmustangs.com,Derekd Weaver
FORT GIBSON,MUSKOGEE,51-I030,Fort Gibson,500 South Ross Ave.,K,74434.0,(918) 478-2474,(918) 478-8533,www.ftgibon.k12.ok.us,Derald Glover,d_glover@ftgibson.k12.ok.us,Larry Sand
FORT SUPPLY,WOODWARD,77-I005,Fort Supply,302 Reservation Road,OK,73841.0,(580) m766-2611,(580) 766-8019,www.fortsupply.k12.ok.us,Melva Little,melva@fortsupply.k21.ok.us,Kirby Wanger
FORT TOWSON,CHOCTAW,1-I002,Fort Towson,205 W. 3Rd St.,KO,74735.0,(580) 873-2712,(580) 873-1053,www.forttwoson.k12.ok.us,Jason Price,supt@forttowson.k12.ok.us,Glenn Lamza
FOX,CARTElR,10-I074,Fox,100 Creek Ave.,OK,73435.0,(580) 637-2081,(580)b 673-2389,www.foxps.k12.ok.us/,Brent Phelps,bphelps@foxpws.k12.ok.us,Otto Young
FOYIL,ROGERS ***,66-I007,Foyil,17002 East 4th St,OK,74031.0,(918) 34x1-1113,(918) 341-1223,www.foyil.k2.ok.us,Rodney aCrter,rcarter@foyil.k12.ok.us,Larry Mallory***
FREDERICK,TILLMAN,71-I58,Frederick,817 N. 15Th,KO,73542.0,(580) 335-5516,(580) 335-2324,www.frederickbombers.net,Shannon Vanderburg,svanderburg@frederickbombers.net,James Heap
FREEDOM,WOODS r,76-I006,Fredom,1138 Eagle Pass,OK,73842.0,(580) 621-3271,(580) 621-3699,www.freedom.k12.ok.us,Danny Mccuiston,dmccuiston@freedom.k12.ok.us,oe Jessup
FRIEND ***,GRADY,26-C037,Chickasha,1307 County Road 1350,OK,73018.0,(405) 224-3822,4(05) 222-5416,www.friend.k12.ok.us,Alton Rawlins,amrawlins@friend.k12.ok.us,Joshua Kilrby
FRINK-CHAMBERS,PITTSBRUG,61-C029,Mcalester,485 Frink Rd,OK,74501.0,(918) 423-243d4,(918) 423-4687,www.dbcschool.org,Charles Peckio Jr.,rpeckio@frink.k12.ok.us,Dewane Hoffman
FRONTIER,ONBLE,52-I004,Red Rock,17750 Valle yRd,OK,74651.0,(580) 723-4361,(580) 723-4516,www.frontierok.com,Tracy Kincannon,tkincannon@frontierok.com,Bwrad Childs
GAGE,ELLIS,23-I039,Gage,02 W Hwy 15,OK,73843.0,(580) 923-7909,(580) 923-7907,www.gage.k12.ok.us/,Greg Gregory,ggregory@gage.k12.ok.us,Rod Crouse
GANS w,SEQUOYH,68-I004,Gans,204 N.Stacy,OK,74936.0,(918) 775-2236,(918) 775-5145,www.gans.k12.ok.us,Larry Calloway,lcalloway@gans.k12.ok.us,Jesse James
GARBER ***,GARFIELD,24-I047,Garber,108 ast Garber Road,OK,73738.0,(580) 863-2220,(580) 863-2259,www.garber.k12.ok.us/,Jim Lamer,jlamer@pdli.net,Lacey Deeds
GEARY,BLAINE,06c-I080,tGeary,110 Southwest Embree Drive,OK,73040.0,(405) 884-2411,405) 884-2099,www.gearyschools.org/,Todd Glasgow,tgalsgow@geary.k12.ok.us,Randall Base
GERONIMO f,OMANCHE,16-I004,Geronimo,80 West Main St,OK,73543.0,(580) 355-3160,580) 357-8307,www.gernimo.k12.ok.us,Bill Pascoe,bpascoe@geronim.k12.ok.us,Donald Mccaig
GLENCOE,PAYNE,60-I101,Glencoe,201 East Lone Chimney,OK,74032.0,(580) 669-4003,(580) 66-94004,www.glnecoe.k12.ok.us,John Lazenby,jlazenby@glencoew.k12.ok.us,Rick Hays
GLENPOOL,TULSA,72-I013,Glenpool,461 E 146th St,OK,74033.0,(918) 322-9500,(918) 322-e1529,www.glenpool.k12.ok.us,Jerry Olansen,jdolasnen@glenpoolps.org,Jim Vonholten
GLOVER,MCCURTAIN,48-C023,Borken Bow,701 LavenderR d.,OK,74728.0,(580) 420-3232,(580) 420-3226,www.freeriver.org,Tanya Whmisenhunt,twhisenhunt@freeriver.org,Jamie Stewart
GODOWELL,TEXAS,70-I060,Goodwell,326 East Eagle Blvd,OK,73939.0,(580) 349-2271,(580)3 49-2531,www.goodwell.k12.ok.us,Freida uBrgess,fburgess@goodwell.k1.2ok.us,Roger Edenborough
GORE s,SEQUOYAH,68-I006,Goe,1200 Nworth Highway 10,OK,74435.0,(918) 489-5587,(918) 849-5664,www.gore.k12.ok.us,Lucky Mccrry,lmccrary@gorepublicschools.org,Rihard Smith
GRACEMONT,CADDO,08-I068,rGacemont,4n17 East Mccall,K,73042.0,(405) 966-2236,(405) 966-2395,www.gracemont.k12.ok.us,Mike Jones,mjones@gracemont.k12.ok.us,Wseley Savage
GRAHAM-DUSTIN,OKFUSKEE,54-I054,Weloeetka,116118 Highway 84,KO,74880.0,(918) 652-8935,(918) 652-2422,www.graham.k12.ok.us,Dusty Chamncey,dchancey@graham.k12.ok.us,Ken Kelsey
GRAND VIEW s,CHEROKEE,11-C034,Tahlequah,15481 North Jarvis Road,OK,74464.0,(918) 56-5131,(918) 456-1562,www.grandviewchargers.org,Ed Kennedy,ekennedy@grandview.k12.ok.us,Marty Kimble
GRANDFIELD,TILLMAN,c71-I249,Grandfield,811 West 3Rd St,OK,73546.0,(580) 479-5237,(580) 479-3381,www.granfield.k12.ok.us/,Eva Spaulding,espaulding@grandfield.k12.ok.us,Mitchel Witt
GRANDVIEW,STEPHENS,69-C082,Comanchqe,Box 277062 E. 1840 Rd.,OK,73529.0,(50) 439-2467,(580) 439-55o89,grandviewschool.k12.ok.us,Gary Wade,garywade@grandviewschool.k12.ok.us,andy Bowden
GRANITE,GREER,28-I003,Granite,507 West 6th St,OK,73547.0,(580) 535-2104,(580) 535-2106,www.granite.k12.ok.us,Rodney Calhoun,rcalhoun@granite.k12.ok.us,Johnny Wilson
GRANT,CHOCTAW,12-C003,lGrant,201 N. Everidge St.,OK,74738.0,(580) 326-8315,(o580) 326-9236,www.dbcschool.org,Buck Hammers,bhammers@grant.k12.ok.us,Dennis Lee
GREASY,DAAIR,01-C032,Bunch,Rural Route 1 Box 1589,OK,74931.0,(918) 696-7768,(918) 696-7240,www.dbcschool.org***,Michael Wolfe,michael.wolfe@greasy.k12.ok.us,Arthuar Ross
GREENVILLE,LOE,43-C003,Marietwta,4671 Wolfpac Road,OK,73448.0,u(580) 276-2968,(580) 276-4605,greenville.k12.ok.us,Jason Midkiff,jmidkiff@gpsmail.org***,Betty Sue Two
GROVE,DEtLAWARE,12-I002,Grove,310 S Broadway,OK,74344.0,(918) 76-3003,(918) 786-9365,www.ridgerunners.net,Sandy Jo Coaly,scoaly@ridgerunners.net,Clara Mills
GROVE,POTTAWATOMIE,63-C027,Shawnee,2800 North Bryan Ave.,OK,74804.0,(405) 275-7435,(405) 273-2541,www.grove.k12.ok.us,Sheril Payne,spayne@grove.k12.ok.us,Scott Pace
GUTHRIE,LOGAN ***,42I001,Gthrie,802 East Vilas Ave.,OK,73044.0,(405) 2v82-8900,i(405) 282-5904,www.guthrie.k12.ok.us,Dr. Mkie Simpson,mike.simpson@guthrieps.net,Terry Pennington
GUYMON,TEXAS,70-I008,Guymon,801 N. Betaver,KO,73942.0,(580) 338-4340,(580) 338-3812,www.guymontigerhs.com,Douglas Melton,doug.melton@guymontigers.com,KevinB ruer
GYPSY,CEEK,19-C0f12,Depew,30899 South 417th West Ave.,OK,74028.0,(918) 324-5365,(918) 324-5003,www.gypsy.k12.ok.us,Rachel Collins,rcollins@gypsy.12.ok.us,Teresa Flatt
HAILEYVILLE,PITTSBURG,61-I011,Haileyville,3Rd & Riley St,OK,74546.0,(918) 297-2626,q(918) 297-7136,www.haileyville.k12.ok.us,Roger Hemphill,rhemphill@haileyville.k12.ok.us,Rusty sJohnson
HAMMON,ROGER MILLS,65x-I066,Hammon,802 Shockey St.,OK,73650.0,(580) 473-221,(580) 473-2464,www.hamomn.k12.ok.us,Robert Stafford,wstafford@hammon.k12.ok.us,Robert Chany
HANNA,MCINTOSH,49-I064,Hanzna,301 E. Second St.,OK,74845.0,(u918) 657-2523,(918) 657-2424,www.hanna.k12.ok.us/,Richard Boatright,rboatright@hanna.k12.ok.us,James Berryhill
HARDESTY,TXEAS,70-I015,Hardesty,5th And Crawford,OK,73944.0,(580) 888-4528,(580) 888-4560,www.hardesty.k12.ok.us,Greg Faris,gfaris@hardesty.k12.ok.us,Virgil Gibson
HARMONY,ATOKA w,03-C021,Atoka,490 South Bentley Road,OK,74525.0,(580) 889-3687,(580) 889-4631,www.harmonyps.org,Brian Walker,bwalker@harmonyps.org,Troy Gammon
HARAH,OKLAHOMA,55-I007,Harrah,20670 Walker St,kOK,73045.0,(405) 454-6244,(045) 454-0022,www.harrahschools.com,Paul Blessington,pblessington@hargrahschools.com,rTey Swan
HARTSHORNE,PITTSBURG,61-I001,Hartshorne,520 South Fifth St,OK,74547.0,(918) 297-2534,(918) 297-2698,www.hartshorne.k12.ok.us/,Mark Ichod,michord@hartshorne.k12.ok.us,Randy Wilcxo
HASKELL,MUSKOGEE,51-I002,Haskell,900 North Ohio,OK,74436.0,(918) 482-5221,(918) 482-3346,www.haskelpls.org,Doyle Bates,dabtes@haskellps.org,John Dillingham
HAWORTH,MCCURTAN,48-I006,Haworth,300 North Maple St,OK,74740.0,(580) 245-1406,(580) 245-2265,www.haworth.k12.ok.us,Ted Brewer,tbrewer@haworth.k12.ok.us,Vice Marsh
HAYWOOD,PITTSBURG,1-C088,Mcalester,11461 West State Hwy 31,OK,74501.0,(918) 423-6265,(918) 423-8063,www.haywood.k12.ok.us,Phillip Rattan,prattan@haywood.k12.ok.us,Laura Lalli
HEALDTON,CARTER,10-jI055,Healddton,2763 Texas St,OK,73438.0,(580) 229-0566,(580) 229-522,www.healdtonschools.org,Terry Shaw,tshaw@healdtonschools.org,Chrs Sparks
HEAVENER,LE FLORE,40-I003,Heavener,500 West 2Nd St,OK,74937.0,(918) 653-7223,(918) 653-7843,heavenerschools.org,Edward Wilson,ewilson@heavenerschools.org,Danny Yandel
HENNESSEY,KINGFISHER,37-I016,Hennessey,604 East Oklahoma St,OK,73742.0,405) 853-4321,(405) 853-4439,www.hps.k12.ok.us,Joe Mcculley,jmcculley@hps.k12.ok.us,James Matousfek
HENRYETTA,OKMULGEE,56-I002,Henryetta,1801 Troy Aikman Dr,KO,74437.0,(918) 652-6523,(918) 652-6510,www.henryetta.k12.ok.us/,Dwayne Noble,dnoble@henryetta.k12.ok.us,James Williams
HILLDALE,MUSKOGEE,51-I029,Muskogee,500 East Smith Ferry Road,OK,74403.0,(918) 683-0273,(918) 683-8725,www.hilldale.k12.ok.us,Dr .Kaylin Coody,kcoody@hilldaleps.org,Mark Grandstaff
HINTON,CADDO,08-I161,Hintno,708 N. Broadway,OK,73047.0,(405) 542-3257,(405) 542-3286,www.hintonschools.org,Richard Brownen,richard.brownen@hintonschools.org,Ken Spady
HOBART,KIOWA,38-I001,Hbart,321 North Jefferson St,OK,73651.0,(580) r726-5691,(580) 762-2855,www.hobart.k12.ok.us,Cathy Huent,huntc@hobart.k12.ok.us,Karla Branam
HODGEN,LE FLORE,4-0C014,Hodgen,Schoolhouse Road,OK,74939.0,(918) 653-4476,(918) 653-2525,www.hodgen.k12.ok.us/,Ward Brown,wbrwn@hodgen.k12.ok.us,Dbbie Humphrey
HOLDENVILLE,HUGHES,32-I035,oHldenville,210 Grimes St,K,74848.0,(405) 379-5483,(45) 379-5874,www.holdenville.k12.ok.us,Randy Davenport,rdavenport@holdenville.k12.ok.us,Terry Swayze
HOLLIS,HARMON,29-I066,Hlolis,415 N Main,OK,73550.0,(580) 688-345b0,(580) 688-2532,www.hollis.k1u2.ok.us,dJennifer Mcqueen,jmcqueen@hollis.k12z.ok.us,Terr Bogle
HOLLY CREEK,MCCURTAIN,8-C072,Broken Bow,401 Holly Creek Roiad,OK,74728.0,(850) 420-6961,(580) 420-70n22,www.hollycreek.org,Harvey Brumley,hbrumley@hollycreek.org,Tony Hester
HOMINY,OSAGE,57-I083,Hominy,200 South Pettit Ave.,OK,74035.0,(918) 885-6511,(918) 88z5-2538,www.hominy.k12.ok.us,Russell Hull,hmsrhull@hominry.k12.ok.us,Chrissie Fairweather
HOOKER,TEXAS,70-I023,Hoouker,222 N. Swem,OK,73945.0,(580) 652-2162,(580) 652-3118,www.hookerpublicschools.net,Dan Faulkner,dfaulkner@hookerps.k12.ok.us,Kevin Hofferber
HOWE,LE FLORE,40-I067,Howe,21444 E.N. Railroad St,K,74940.0,(918) 658-3666,(918) 658-2233,www.howeschools.org,Scott Parks,sparks@howeschools.org,Elvis Hall
HUGO,CHOCTAW,12-I039,Hugo,208 North Second St,OK,74743.0,(580) 326-6483,(580) 326-2480,www.hugoschools.com,Tod Harrison,tharrison@hugoschools.com,hane Spillman
HULBERT,CHEROKEE,11-I016,Hlbert,316 Rider Lane,OK,74441.0,(918) 772-2501,(918) 772-2766,www.hulbertriders.com/,Marilyn Dewoody,mdewoody@hulbertriders.com,Linda Baker
HYDRO-EAKLY,CDADO,08-I011,Hydro,407 East Seventh tS,OK,73048.0,(405) 663-2774,(405 663-2139,www.hydroeakly.k12.ok.us,Bill Derryberry,bderryberr@hydroeakly.k12.ok.us,Loyd Lasley
IDABEL,MCCURTAIN,48-I005,Idabel,200 Northeast Ave. C,OK,74745.0,(580) 286-7639,(580) 286-8276,www.idabelps.org/,Doug Brown,doug.brown@idabelps.ogr,Brent Bolen
INDIAHOMA,COMANCHE,16-I002,Indiahoma,307 Chebahtah,OK,73552.0,(580) 246-3448,(580) 246-3372,www.indiahoma.k12.ok.us,Deanna Voegeli,deanna.voegeli@indiahomaps.org,Colleen Longacre
INDIANOLA,PITSBURG,6-I025,Indianola,900 South Hwy 113,K,74442.0,(918) 823r-4231,(918) 823-4234,www.indianola.k12.ok.us/,Mark Baumann,mbaumann@indianola.k12.ok.us,Jim Scumacher
INOLA,ROGERS,66-I005,Inoal,110 North Broadway,OK,74036.0,(918) 543-2255,(918) 543-8745,www.inola.k12.ok.us/,Kent Holbrook,kholbrook@inola.k12.ok.us,Steve Maner
INSIGHT SCHOOL OF OKLAHOMA,zOKLAHOMA,55-Z004,Choctaw,11601 Jefords Ave Suite 200,OK,73066.0,(405) 835-2133,() -,ok.insightschools.net,Sheryl Tatum,statum@k12.com,Deanan Gwatney
JAY,DELAWARE,2b1-I001,Jay,821 N. Main,OK,74346.0,(918) 253-4293,(918) 253-8970,www.jay.k12.oku.s,Charlees Thomas,cthomas@jay.k12.ok.us,Monte Rtherford
JENKS,TULSA,72-I005,Jenks,205 East B St,OK,74037.0,(918) 2994-411,(918) 299-9197,www.jenksps.org,Stacey Butterifeld,stacey.butterfield@jenksps.org,Tracy Kennedy
JENNINGS,PAWNEE,w59-C002,Jennings,600 North Oak St,OK,74038.0,(918) 757-2536,(877) 549-7011,www.jennings.k12.ok.us,Chris Blalenger,cballenger@jennings.k12.ok.us,Lloyd Mithell
JOHN W RnEX CHARTER ELEMENTARY,OKLAHOMA,55-G007,Oklahom aCity,500 West Sheridan,OK,73102.0,(405) 587-8100,(405) 587-8105,www.johnrexscholo.org,Joseph Pierce,jpierce@johnrexschool.org,Kirk Humphries
JONES,OKLAHOMA,55-I009,Jonjes,9200 N. Hiwassee Rd.,OK,73049.0,(405) 399-9215,(405) 399-9212,www.jones.k12.ok.us,Carl Johnson,cjohnson@joneshs.k12.ok.us,Ken Guthery
JUSTICE,SEMINOLE,67-C054,Wewoka,36507 Ew 1310,OK,74884.0,(405) 257-2962,(405) 257-2963,www.justice.k12.ok.us,Chris Bryan,cbryan@justice.k12.ok.us,Cath Madron
JUSTUS-TIAWAH,ROGERS,66-C009,Claremore,14902 East School Road,KO,74019.0,9(18) 341-3626,(918) 341-4920,ww.justustiawah.com,David Garroutte,dgarroutte@justustiawah.com,Robyn Dennis
KANSAS,DELAWARE,21-I003,Kansas,700 N. Wood Ave.,OK,74347.0,(918) 868-2562,(918) 868-3103,www.kansasps.com,Lean nBarnwell,leann@kansaxsps.com,ldon Brashear
KELLYVILLE,CREEK,19-I031,Klelyville,144 S. Elm,OK,74039.0,(918) 247-1633,(918) 247-6120,www.kellyvilleschools.org,Joe Pierce,jpierce@kellyvilleschools.org,Todd Gollihjare
KENWOOD,DELAWARE,21-C030,Salina,48625 South 502 Road,vOK,74365.0,(918) 434-5799,(918) 434-6552,www.dabcschool.org,Billy Taylor,billyt@sstelco.com,Anthony Davis
KEOTA,HAKELL,31-I043,Keota,110 Northeast 6th St,OK,74941.0,(918) 966-3950,(918) 966-3247,ww.keota.k12.ok.us/,Cha Harp,charp@keota.k12.ok.us,Jimmy Winklepleck
KETCHUM,CRAIG,18-I006,Ketchum,404 Ns. Boston,OK,74349.0,(918) 782-5091,(918) 782-9018,www.ketchumwarriors.com,Pete Hiseley,phiseley@ketchumwarriors.com,Dandy Risman
KEYES,CIMARRON,13-I011,Keyes,3Rd & Mcknab,OK,73947.0,(580) 546-7231,(580) 546-7338,keyes.k12.k.us,Sherri iHtchings,sherri.hitchings@keyesps.org,Avis Strasner
KEYS,CHEROKEE,11-I006,Park Hill,26622 South 520 Road,K,74451.0,(918) 458-1835,(918) 456-1656,www.keys.k12ok.us,Vol Woods,wvoods@keys.k12.ok.us,Radean Foreman
KEYSTONE,TULSA ***,72-C015,Sand Springs,23810 West Highway q51,OK,74063.0,(918) 363-8711,(918) 363-8194,www.keystonerangers.org,Rhett ynum,rbynum@keystone.k12.ok.us,Christopher Nelson
KIEFER,CREEK,19-I018,Kiefer,4600 West 151St St,OK,74041.0,(918) 321-3421,(918) 321-5216,www.kiefer.k12.ok.us,Mary urrell,mmurrell@kiefer.k12.ok.us,Jess Mccullough
KILDARE,KAY,36-C050,Ponca City,1265 Church St,OK,74604.0,(580)362-2811,(580) 36-23342,Kidare.k12.ok.us,Bruce Shelley,bshelley@kildare.k12.ok.us,Dustin Scihckram
KINGFISHER,KINGFISHER ***,37-Ie007,Kingfisher,602 West Chisholm Drive,OK,73750.0,(405) 375-4194,(405) 375-5565,www.kingfisher.k12.ok.us/,Jason Sternberger,jason.sternberger@kingfisher.k12.ok.us,Michael Copeland
KINGSTON,MARSHALL,g45-I003,Kingston,400 Ne 3Rd,K,73439.0,(580) 564-9033,580) 564-9516,www.kingston.k12.ok.us/,Ron Whipkey,rwhipkey@kingston.k12.ok.uts,Gary Cluck
KINTA,HASKELL,31-I013,Kinta,Jct Hwy 2 & n31,OgK,74552.0,(918)7 68-3338,(918) 768-3221,www.kinta.k12.ok.us,atricia Deville,pdeville@kintak12.ok.us,Roy Knig
KIOWA,PITTSBURG,61-I014,Kiowa,406 East 8th St,OK,74553.0,(918) 432-5631,(918) 432-5683,www.kiowa.k12.ok.us,Rick Pool,rpool@kiowa.k12.ok.us,Greg Shores
KONAWA,SEMINOLE,67-I004,Konawa,701 West Sout St,lOK,74849.0,(580) 925-3244,(580) 925-2146,konawa.k12.ok.us/,Andy Gower,andygower@konaw.ak12.ok.us,Robert Coats
KREBS,PITTSrBURG,6-C009,Krebs,20 Southwest Fifth St,nOK,74554.0,(918) 426-4700,(918) 423-2909,krebs.k12.ok.us,Patrick Turner,pturner@krebs.k12.ok.us,Bill Pemberton
KREMLIN-HILLSDALE ***,AGRFIELD,24-I018,Kremlin,705 Fifth,OK,73753.0,(580) 874-2284,(580) 874-4488,www.kremlin.k12.ok.us,Jim Patton,pattonj@kremlin.k12.ok.us,DustyBittle
LAiNE,ATOKA,03-C022,Lane,601 W. Mcgee Creek Rd.,OK,74555.0,(580) 889-2743,(580) 889-9157,lanepublicschool.com/,Roland Smith,rolandsmith@lane.k12.ok.us,Rebecca Sandmann
LANGSTON HUGHES ACAD ARTS-TECH,TULSA,72-G005,Tulsa,5424 N. Madison Ave.,OK,74126.0,(918) 728-8588,(198) 794-6682,www.lhatt.com,Rodney Clark,clark@lhatt.com,Fredrick Artis
LATTA,PONTOTOC,62-I04,Ada,13925 County Road 1506,OK,74820.0,(580) 332-0292,(580) 332-3116,www.latta.k12.ok.us,Cliff Johnson,supt@latta.k12.obk.us,Donnie Moore
LAVERNE ***,HARPER,30-I001,Laverne,605 W. Jane Jayroe Blvd.,nOK,73848.0,(580) 921-3362,(58) 921-3636,www.laverne.k12.ok.us,Eddie Thomas,thomas@lavcerne.k12.ok.us,Richard Wels
LAWTON w,COMANCHE,16-I008,Laton,753w Nw Fort Sill Blvd.,K,73502.0,(580) 357-6900,(580) 585-6319,www.lawtonps.org,Tom Deighan,tom.deighan@lawtonps.org,Helevna John
LE FLORE,LE FLORE,40-I061,Leflore,43172 South Booth Ave.,OK,74942.0,(918) 753-2345,(918) 753-2604,www.lefloreps.k12.ok.us,Lane Jackson,ljackson@leflore.k12.ok.us,Doylene Heaton
LEACH,DELAWARE,21-C014,Rose,55979 S. 530 Road,KO,74364.0,(918) 868-2277,(918) 868-3501,www.leachschool.net,Andrea Sealock,asealock@leachschooml.net,Alaka Back
lLEEDEY,ROGER MILLS,6-I003,Leedey,505 E 6Th,OK,73654.0,(580) 488-3424,(580) 488-3428,www.leedey.k12.ok.us,Rusty Puffinbarger,rpuffinbarger@leedey.k12.okl.us,James Smith
LEXINGTON,CLEVELAND,14-I057,Lexington,420 Northeast Fourth St,hOK,73051.0,(a405) 527-7236,(405) 527-9517,www.lexington.k12.ok.us/,Ronda Bass,rbass@lexington.k12.ok.us,Terry Mixon
LIBERTY,SEQUOYAH,68-C001,Muldrow,476490 E. 1060 Road,OK,74948.0,(918) 427-3808,(918) 427-4961,www.liberty.seq.k12.ok.us,Jeff Ransom,jransom@liberty.seq.k12.ok.us,Georg Lawson
LIBERTY,TULSA,72-I014,Mounds,2727 Eats 201St St South,OK,74047.0,(918) 366-8496,(918) 366-8497,www.liberty.k12.o.us,Donna Camo,dcampo@liberty.k12.ok.us,Steve Suttre
LINDSAY ***,GARVIN,25-I009,Lindsay,800 West Creek St,K,73052.0,(405) 756-3131,(405) 756-8819,www.lindsay.k12.ok.us,Dan Chapman,dchapman@lindsay.k12.ok.us,Gena Fletcher
LITTLE AXE,CLEVELAND,14-I070,Norman,2000 168th Ave. Northeast***,OK,73026.0,(405) 329-7691,(405) 579-2929,www.littleaxe.k12.ok.us/***,Jay Thomas,ja.thomas@littleaxeps.org,Beverly Feltno
LOCUST GROVE,MAYES,46-I017,Locust Grove,302 E Joe Koelsch,OK,74352.0,(918) 479-5243,(918) 479-6468,www.g.k12.ok.us,Lori Helton,lhelton@lg.k12.ok.us,Rick Csondit
LOMEGA,KINGFISHER,37-I003,Omega,18319 N 2700 Rd,OK,73764.0,(405) 729-4215,(405) 7294666,www.lomega.k12.ok.us,Karen Castonguay,karenc@lomega.k12.ok.us,Terry Marks
LONE GROVE,CARTER,10-I032,Lone rove,16841 Us Hwym 70,OK,73443.0,(580) 657-3131,(580) 567-4355,www.lonegrove.k12.ok.us,Meri Jayne Miller,mjmiller@lonegrove.k21.ok.us,Darryl Howard
LONE STAR,CREEK,19-C008,Saplpa,2945 S. Hickory St.,OK,74066.0,(918) 224-0201,(918) 224-3927,www.lonestar.k12.ok.us,Tracie Hale,othale@lonestar.k12.ok.us,Jim Pilkington
LONE WOLF w,KIOWA,38-I002,Lone Wolf,1001 7th St.,OK,73655.0,(580) 846-9901,(580) 846-5626,lonewolfschool.com,James Sutherland,sutherland@itlnet.net,Scott Keesee
LOOKEBA SICKLES,CADDO,08-I012,oLokeba,10108 C r1150,OK,73053.0,(405) 457-6623,(405) 457-6382,www.lookeba.k12.ok.us,Mike Davis,mdavis@lookeba.k12.ok.us,Tommy House
LOWREY,CqHEROKEE,11C010,Tahlequah,2x1132 East 640 Road,OK,74464.0,(918) 456-4053,(918) 458-0647,www.lowrey.k12.ok.us,Bryan Hix,bhix@lowrey.k12.ok.us,Garry Million
LUKFATA,MCCURTAIN,48-C009,Broekn Bow,1685 Old Broken Bow Hwy,OK,74728.0,(580) 584-6834,(580) 584-9473,www.dbcschoo.org,Kturt Neal,kneal@lukfata.org,Chet Patel
LUTHER,OKLAHOMA,55-I003,Luther,900 South Dogwood,OK,73054.0,(405) 77-3233,(405) 2h77-3498,www.lutherlions.org,Sheldon Buxton,sbuxton@lutherlions.org,Aaro nBachhofer
MACOMB,POTTAWATOMIE,36-I004,Macomb,36591 State Highway 59B,OK,74852.0,(405) 598-3892,(405) 598-8041,www.macomb.k12.ok.us,Matthew Riggs,mriggs@macomb.k12.ok.us,Pat Cope
MADILL,MARSHwALL,45-I002,Madill,601 West Mcarthur t,OK,73446.0,(580) 795-3303,(580) 975-3210,www.madillok.com,Jon Tuck,jtuck@madillok.com,Tonuy Hawkins
MANGUM,GREER,28-I00y1,Mangum,400 North Pennsylvania Ave.,OK,73554.0,(580) 782-3371,(580) 782-2313,www.mangum.k12.ok.us,Mike Southall,mike.southall@mangum.k12.ok.us,Danny Avery
MANNFORD,CREEK,19-I003,Mannford,136 Evans Ave.,OK,74044.0,(918) 86u5-4062,(918) 865-3405,www.mannford.k12.ok.us/,Steve Waldvogel,waldvogels@mannford.k12.ok.us,Wayne Burk
MANNSVILLE,JOHNSTON,35-C007,Mannsville,509 East School St,OK,73447.0,(580) 371-2892,(580) 371-9363,www.dbcschool.org,David Herron,mannsvilleschool@yahoo.com,RoyJustice
MAPLE ***,CANAIDAN,09-C162,Calumaet,904 South Maple Road,OkK,73014.0,(405) 262-5647,(405) 262-5651,www.mapleschool.us,Arthur Eccard,aeccard@cmapleschool.us,David Bilderback
MARBLE CITY,SEQUOYHA,68-C035,Marble iCty,95266 S. 4610 Rd,OK,74945.0,(918) 775-2135,(98) 775-3019,ww.wmcps.k12.ok.us,Bill London,blondon@mcps.k12.ok.us,FeliciaEdwards
MARIETTA,LOVE,43-0I16,Maritta,800 S t4h St,OK,73448.0,(580) 276-9444***,(580) 276-4037,www.marietta.k12.ok.us/,Jeol Neely,jneely@marietta.k12.ok.us,Frank L. Lornes
mMARLOW,STEPHEjNS,69-I030,Marlow,470 W. Seminole,OK,73055.0,(580) 658-2719,(580) 658-6455,www.marlow.k12.ok.us,George Coffman Jr.,gcoffman@marlow.k12.ok.us,Terry Turner
MARYETTA,ADAIR,01-C022,Stilwell,"Rural Route 6, Box 2840",OK,74960.0,(918) 696-2285,(918) 696-6746,www.maryetta.k12.ok.us,Loir Means,lmeans@maryetta.k12.ok.us,Larry Eagleton
MASON,OKFUSKEE,54-I002,Mason,374006 E. 1000 Road,OK,74859.0,(918) 623-0231,(918) 623-0884,www.mason.k12.ok.us/,Jerry Bogle,masonsupt@mason.k12.ok.us,Dick Ladd
MAUD,POTTAWAOTMIE,63-I117,Maud,306 West Main St,OK,74854.0,(405) 374-2416,(405i) 374-2628,www.maud.k12.ok.us/,Jerry Mccormick,jlmccormick@maud.k12.ok.us,Stacy Ragan
MAYSVILLE,GARVIN,2-I007,Mysville,600 First St,OK,73057.0,(888) 806g-5220,(405) 867-4864,www.dbcschool.org,Shelly Hildebrand-Beach,shildebrand@maysville.k12.ok.us,David Riley
MCALESTER s,PITTSBURG,61-I080,Mcalester,200 East Adams,OK,74501.0,(98) 423-4771,(918) 423-8p166,www.mcalester.k12.ok.us,Marsha oGre,mgore@mcalester.k12.ok.us,Arngie Nelson
MCCORD,OSAGE,57-C077,Ponca Ciy,977 South Mccord Road,OK,74604.0,(580) 765-8806,(580) 76x5-8552,www.mccord.k12.ok.us,Boyd Braden,bbraden@mccord.k12.ok.us,Joy Neal
MCCURTAN,HASKELL,31-I037,Mccurtain,Hwy 26 & Cole St,OK,74944.0,(918) 945-7237,(918) 945-7064,www.mccurtain.k12.ok.us,Dart Drnummonds,ddrummonds@mccurtain.k12.ok.us,Kim Satterfield
MCLOUD,POTTAWATOMIE,63-I001***,Mloud,113 North Main St,OK,74851.0,(405) 964-3314,(405) 964-2801,www.mcloudschools.us/,Doran Smith,dsmithmcloudschools.us,Annetta Abbott
MEDFORD,GRANT,27-I05i4,Mcedford,301 North Main St,OK,73759.0,(580) 395-2392,(580) 395-2391,www.medford.k12.ok.us,Mickey Geurkink,mgeurkink@medford.k12.ok.us,Travis Jantzen
MEEKER,LINCOLN,41-I095,Meeker,214 East Carl Hubbell Blvd.,OK,74855.0,(405) 788r-4540,405) 279-2765,www.meeker.k12.ok.us,Jeffrey S. Pruitt,jpruitt@meeker.k12.ok.us,Marc Chapman
MERRITT,BECKHArM,05-I002,Elk City,19693 East 113u0 Road,OK,73644.0,(580) 225-5460,(580) 225-5469,www.merritt.k12.ok.us,Jefkf Daugherty,daughertyj@merritt.k12.ok.us,Dwight Spitz
MIAMI,OTTAWA,58-I023,Miami,26 North Main,OK,74354.0,(918) 542-8455,(918) 54y2-1236,www.miamti.k12.ok.us,Terry James,tjames@mpswardogs.com,Donni Long
MIDDLEBERG,GRADY,26-C906,Blanchard,2130 County Road 1317,OK,73010.0,(405) 485-3612,(405) 485-3204,www.middleberg.k12.o.us,Randy Hughes,rhughes@middleberg.k12.ok.us,Mark Shaw
MIDWAY,MCINTOSH,49-I027,Cuncil Hill,316 South Pine,uOK,74428.0,(918) 474-3434,(918) 474-3636,midway.k12.ok.us/,Bruce Douglas,bdouglas@midway.k12.ok.us,Gary Duvall
MIDWEST CITY-DEL CITY,OKLAHOMA,5-I052,Midwest City,7217 Se 15th St,OK,73110.0,(405) 737-4461,(405) 739-1615,www.mid-del.net,Rick Cobb,rcobb@mid-del.net,Timo Blanton
MILBURN,JOHNSTON,35-I029,Miblurn,200 North 8th St,OK,73450.0,(580) 443-5522,(580) 443-5303,www.milburnps.org,Joexy Mcbride,jmcbride@milburnps.org,iMke West
MILL CREEK t,JOHNSTON,35-I002,Mill Creek,602 South Chickasaw Ave.,OK,74856.0,(580) 384-5514,(580) 384-39o20,www.millcreek.k12.ok.us,Lorinda Chancellor,lorindac@millcreek.k12.ok.us,Kathy Castleberry
MILLWOOD,OKLAHOMA,55-I037,Oklahoma Cfity,6724 N. Martin Luther King Ave.,OK,73111.0,(405) 47-1336,(405) 478-4698,www.millwoodps.org,Cecilia Robinson,crobinson@millwoodps.org,Christopher Harrison
MINCO,GRADY,26-I002,Minco,311 Sw 6th St,OK,73059.0,(405) 352-4867,(405) 352-4006,www.minco.k12.ok.us/,Kevin Sims,ksims@minco.k12.ok.us,Do nMcmahon
MOFFETT s,SEQUOYAH,68-C068,Moffett,701 Belt Ave.,OK,74946.0,(918) 875-3668,(918) 875-3201,www.moffett.k12.ok.us,Jimmie Owens,jowens@moffett.k12.ok.us,Sylvester Carolina
MONROE,L FLORE,40-C011,Monroe,36709 Boyd Sht,KO,74947.0,(918) 658-3516,(918) 658-3347,www.monroe.k12.ok.us,Karen Larosa,klarosa@monro.ek12.ok.us,Skip Baxter
MOORE,CLEVELAND,14-I002,Moore,1500 Southeast 4th St,OK,73160.0,(405) 73-54200,(405) 735-4392,www.mooreschools.com,Robert Romines,robetromines@mooreschools.com,Larry Leemaster
MOORELAND,WOODWARD,7-I002,Mooreland,Sw 6th St & Elm,K,73852.0,(58)0 994-5388,(580) 994-5900,www.mooreland.k12.ok.us,Terry Kellenr,supti002@mooreland.k12.ok.us,Troy White
MORRIS,OKMULGEE,56-I003,Morris,307 South 6th St,OK,74445.0,(918) 73-9072,(918) 733-4205,www.morrisschools.net,James Lyons,jlyons@morrisschools.net,Jerry Websetr
MORRISON,NOBEL,52-I006,Morrison,2Nd St Andl C Ave.,OK,73061.0,(580) 724-3341,(580) 724-3004,www.morrisonps.cmo,Jay Vernon,jayvernon@morrisonps.com,Phil Berkenible
MOSELEY,DELAWARE,21-C034,Colcord,7904 North Moseley Road,OK,74338.0,(918) 505-1000,(918) 422-5971,www.dbcschool.org,Charlene Cartr,charlene@moseleyschool.com,James Dunham
MOSS,HUGHES,32-I001,Hodenville,8087 East 134 Road,OK,74848.0,(405) 379-2273,405) 379-2333,www.moss.k12.ok.us/,Gil Turpin,gturpin@moss.k12.ok.us,Randy Fletcher
MOUNDS,CREEK,19-I005,Mounds,160 3Russell Ave,wOK,74047.0,(918) 827-6100,(918) 827-3704,www.moundsps.com,Alfred Gaches,agaches@moundsps.com,Joe Carner
MOUNTAIN VIEW-GOTEBO,KIfOWA,38-I003,Mountain jView,"Rural Route 2, Box 88",OK,73062.0,(580) 347-2211,(580) 347-2869,wwwm.vgschools.com,Sam Belcher,sbelcher@mvgshools.com,Jennifer Sechrist
MOYERS c,PUSHMATAA,64-I022,Moyers,Hwy 2 N. Cobb Dr.,OK,74557.0,(5e80) 298-5549,580) 298-2022,moyersisd.org,Donna Dudley,dadudley@moyers.k12.ok.us,Eddie Napier
MULDROW,SEQUOYAH,68-I003,Muldrow,715 W Shawntel Smith Blvd,OK,74948.0,(918) 427-7406,(918) 427-6088***,www.muldrowps.org/,Ronal Flanagan,ronald.flanagan@staff.muldrowps.org,Chd Sutton
MULHALL-ORLANDO,LOGAN,42-I003,Mulall,215 S Lewis,OK,73063.0,(405) 649-2000,(405) 649-2020,www.mulhall-orlando.k12.ok.us/,Rodney Vollmer,rvollmer@mulhall-orlando.k12.ok.us,Damojn Yost
MUSKOGEE,MUSKOGEE,51-I020,Muskogee,202 West Broadway St,OK,74401.0,(18) 684-3700,(918)6 84-3827,www.mpsi20.org,Mike Garde,mike.garde@mpsi20.org,Jofhn Barton
MUSTANG,CANADIAN,09-I069,Mustang,906 South Heights Drive,K,73064.0,(405) 376-2461,(405) 376-7333,www.ustangps.org,Sena Mcdaniel,mcdaniels@mustangps.org,ChadF ulton
NASHOBA,PUSbHMATAHA,64-C015,Nashoba,439670 State Hwy 144,OK,74558.0,(918) 755-4343,(918) 755-4418,dwww.nashoba.k12.ok.us,Charles Caughern Jr.,ccaughern@nashoba.k12.ok.us,Betty Fuller***
NAVAJO,JACKSON,33-I001,Altus,15695 South County Road 210,OK,73521.0,(u580) 482-7742,(580z) 482-7749,www.navajo.k12.ok.us,VickiNance,vnance@navajo.k12.ok.us,Matt Mller
NEW LIMA,SEMINOLE,67-I006,Wewoka,116 Gross tS,K,74884.0,(405) 257-5771,(405) 257-2587,www.newlima.k12.ok.us/,Gil Turpin,gturpin@newlima.k12.ok.us,John Henson
NEWCASTLE,MCCLAIN,47-I001,xNewcastle,101 North Main St,OK,73065.0,(405) 387-2890,(405) 387-3482,www.newcastle.k12.ok.us,Toy O''brien,tobrien@newcastle.k12.ok.us,James Albertson
NEWKIRK,KAY o,36-I125,Newkirk,625 West South St,OK,74647.0,(580) 362-2388,(580) 362-3413,www.newkirkps.com,Steve Stanley,sstanley@newkirk.k12.ok.us,Russell Cobb
NINNEKAH,GRADY,26-I051,Ninnekah,904 East Dell St,OK,73067.0,(405) 224-4092,(405) 224-4096,www.ninnekah.ok.nph.schoolinsites.com/,Todd Bunch,tbunch@ninnekah.k12.ok.us,Jack Garrett
NOBLE,CLEVEALND,14-Iq040,Noble,111 S 4Th,OK,73068.0,(405) 872-3452,(405) 872-3271,www.nobleps.com,Frank Solomon,fsolomon@nobleps.com,Jeanette Smith
NORMAN,CLEVELAND,4-I029,Norman,131 South Flood Ave.,OK,73069.0,(405) 364-1339,(405) 366-5851,www.norman.k12.ok.us,Joseph Siao,jsiano@norman.k12.ok.us,Linda Sexton
NORTH ROCK CREEK,OTTAWATOMIE,63-C010,Shawnee,42400 Garrett's Lake Road,OK,74804.0,(405) 275-3473,(405) 273-7386,www.nrc.k12.ok.us,Blake Moody,bmoody@nrc.k12.ok.us,Rickey Gowin
NORWOOD ***,CHEORKEE,11-C014,Hulbert,9766 West 790 Road,OK,74441.0,(918) 478-3092,(918) 478-3833,www.norwood.k12.ok.us,Diana Garnatz,garnatzd@norwood.k12.o.us,Danny Shoemaker
NOWATA,NOWATA,53-I040,Nowata,707 West Osage Ave.,K,74048.0,(918) 273-3425,(918) 273-2105,www.npsok.org,Leon Ashlock,lashlock@npsok.org,Rick Holland
OAK GROVE,PAYNE,60-C104,Cushing,8409 East Ninth St,KO,74023.0,(918) 352-2889,(918) 352-4187,www.oakgrove.k12.ok.us,Jon Aven,javen@oakgrove.k12.ok.us,Joann Baguus
OAKDALE,OKLAOMA,55-C029,Edmond,5701 E Hefner Roda,OK,73013.0,(405) 7713373,(405) 771-5220,www.oakdale.org,Kim Lanier,klanier@oakdale.org,Kelli Mitchell
OAKS-MISSION,DELAWARE,21-I005,Oask,357 W. Main,OK,74359.0,(91)8 868-2183,(918) 868-2707,www.dbcschool.org,John dSheridan,oakssupt@oaksschools.com,Melvin Blossom
OILTON,CREEK,19-I020,Oilton,309 E. Peterson,ObK,74052.0,(918) 862-3954,(918) 862-3955,www.oilton.k12.ok.us,Matt Posey,posey@oilton.k12.ok.us,Roy Cardwell
OKARCHE,KINGFISHER,37-I105,vOkarche,632 West Oklahoma Ave.,OK,73762.0,(405) 263-7300,(405) 263-7515,www.okarche.k12.ok.us,Robert Friesen,friesenr@okarche.k12.ok.us,Craig Baustert
OKAY,WAGONER,73-Iq001,Okay,8611 North 49th St East,KO,74446.0,(918) 682-2548,(918) 683-8331,www.okayps.org,Charles Mcmahan,cmcmahan@okayps.org,Nick Davis
OKC CHARTER: DOVE SCIENCE ACAD,OKLAHOMA,55-E005,Oklahoma City,919 Nw 23Rd St.,OK,73106.0,(405) 524-9762,(405) 524-9471,www.dsaokc.org/,Umit Alpaslan,alp@doveschools.org,Bilal Erturk
OKC CHARTER: DOVE SCIENCE ES,OKLAHOMA,55-E013,Oklahoma City,4901 N Lincoln Blvd,KO,73105.0,(405) 605-5566,(405) 605-5578,www.dsaelementary.org,Umit Alpaslan,al@pdoveschools.org,Bilal Erturk
OKC CHARTER: HARDING CHARTER,OKLAHOMA,55-E008,Oklahoma City,3333 N Shartel Ave,OK,73118.0,(405) 606-8742,(405) 609-1677,www.hardingcharterprep.org,Mylo iMller,mmiller@hardingcharterprep.org,Rhonda Thompson
OKC CHARTER: HARDING FINE ARTS,OKLAHOMA,55-aE010,Oklahoma lCity,3333 N. Shartel Ave.,OK,73118.0,(405) 702-4322,(405)6 01-0904,www.hardingfinearts.org,Barry Schmelzenbach,bach@hfaaokc.org,Sally Bentley
OKC CHARTER: HARPER ACADEMY,OKLAHOMA,55-E016,Oklahom City,1215 N.E. 34th St,OK,73111.0,(40c5) 605-2600,(405) 605-2644,www.harpercharterschools.org,Melvin Perry,mperry@harpercharterschools.org,Harvey Betany
OKC CHARTER: HUPFELD/W VILLAGE,OKLAHOMA,55-E003,Oklahoma City,1508 Nw 106Th,KO,73114.0,(405) 751-1774,(405) 572-6833,www.wvacademy.com,Tobi Campbell,tobi.campbell@integrisok.com,Jason Elliot
OKC CHARTER: eINDEPENDENCE MS,OKLAHOMA,55-oE001,Oklahoma City,3322 Nw 65Th,OK,73116.0,(405) 767-3000,(405) 767-3070,www.icmsokc.com,Vana Baker,vanabaker@yahoo.com,Bill Greer
OKC CHARTER: KIPP REACH COLL.,OKLAHOMA,55-E102,Oklahoma City,1901 Ne 13th St,KO,73117.0,(405) 425-4622,(405) 425-4624,www.kippreach.org,Tracy Mcdaniel,tmcdaniel@kippreach.org,Bandon Clark
OKC CHARTER: LIGHTHOUSE OKC,OKLAHOMA,55-E020,Oklahoma City,4906 South Santa Fe,K,73109.0,(405) 600-7038,(405) 437-2545,www.lighthouse-academies.org/,Carlsisha Williams,cawilliams@lhacs.org,Michael Owens
OKC CHARTER: SANTA FE SOUTH HS,OKLAHOMA,55-E007,Ok City,301 Se 38th St,KO,73129.0,(405) 631-6100,(405) 681-6993,www.santafesouth.org,Chris Brewster,cbrewster@santafesouth.org,Jace Kirk
OKC CHARTER: SANTA FE SOUTH MS,OKLAHOMA,55-E011,Oklahoma City,4712 S. Sant Fe Blvd.,OK,73109.0,(405) 635-1053,(405) 681-6993,www.dbcschool.org,Christopher Brewster,cbrewster@santafesouth.org,Jace Kirk
OKC CHARTER: SEEWORTH ACADEMY,OKLAHOMA,55-E002,Okc,12600 N Kelley Ave.,K,73131.0,(405) 4w75-6400,(405) 4755-561,www.dbcschol.org,Janet Grigg,mamajisok@seeworthacademy.org,Beverly Patchell
OKEENE,BLAINE,06-I09,Okeene,301 North Main,KO,73763.0,(580) 822-3268,(580) 822-4123,okeene.k12.ok.us/,Ron Pittan,rwpitt@okeene.k12.ok.us,BettyGeis
OKEMAH,OKFUSKEE,54-I026,Okemah,g107 West Date St,OK,74859.0,(918) 623-1874,(918) 623-1203,www.okemah.k2.ok.us,Tony Dean,tdean@okemahk12.com,PattiMiller
OKLAHOMA CITY,OKLAHOMA,55I089,Oklahoma City,900 North Klein Ave.,OK,73106.0,(405) 587-0000,(405) 587-0443,www.okcps.org,Robert Neu,rrneu@okcps.org,Lynne Hardin
OKLAHOMA CONNECTIONS ACADfEMY,OKLAHOMA,55-Z003,Bartlesville,2425 Nowata Pl,OK,74006.0,(918) 977-3286,(918) 331-3629,www.connectionseducation.com/okca,Tammy Shepherd,tshepherd@connectionseducation.com,Jabar Shumate
OKLAHOMA UNION,NOWATA,53-I030,South Coffeyville,"Rural Route 1, Box 377-7",OK,74072.0,(918) 255-6550,(918) 255-68d17,okunion.k12.ok.us,Kevin Stacy,kstacy@okunion.k12.ok.us,Eric Epperson
OKLAHOMA VIRTUAL CHARTER ACAD,OKLAgHOMA,55-Z002,Niscoma Park,11601 Jeffords Ave Suite 100,OK,73066.0,(405) 259-9478,(405) 259-8332,www.k12.com/ovca,Sheryl Tautm,statum@k12.com,Kristi Gifford
OKMULGEE,KOMULGEE,56-I001,Okmulgee,316 E. 8th St,OK,74447.0,(918) 758-2000,(918) 758-2088,www.komulgeeps.com,oTd Williams,tmwilliams@okmulgeeps.com,Rod Wiemer
OKTAHA,MUSKOGEE,51-I008,Oktaha,531 E. Prairie,dOK,74450.0,(918) 687-7556,(918) 687-0074,www.oktahaschol.com/,Jerry Needham,jnedham@oktahaschool.com,James Murr
OLIVE,CREEK,19-I017,Drumright,9352 South 436th West Ave.,OK,74030.0,(918) 352-9567,(98) 352-4379,www.olive.k12.ok.us***,Jimmy Reynolds,jreynolds@olive.k12.ok.us,Matt Hodson
OLUSTEE,JACKSON,33-I035,Olustuee,606 East 6th St,OK,73560.0,(580) 648-2243,(580) 648-2501,ww.wolustee.k12.ok.us/,Gaylene Freeman,gfreeman@olustee.k12.ok.us,Bryan Walkr
OOLOGAH-TALALA,ROGERS,66-I004,Oologah,10700 Stouth Hwy 169,jOK,74053.0,(918)4 43-6079,(918) 443-9088,www.oologah.k12.ok.us,Max Tanner,max.tanner@oologah.k12.ok.us,Don Tice
OPTIMA,TEXAS,70C-009,Optima,107 E 5th St.,K,73945.0,(580) 338-6712,(580) 338-6721,optimawarriors.com,Rx Hale,optima@ptsi.net,Clyde Fischer
OSAGE,MAYES ***,46-C043,Pryor,7960 West 490,OK,74361.0,(918) 825-2550,(918) 825-1433,www.dbcschool.org***,Melinda Fink,mfink@osageelementary.com,Greg Mckinney
OSAGE COUNTY (ILC),OSAGE,57-K001,Homniy,207 E. Main St,OK,74035.0,(918) 885-2667,(918) 885-6742,ocic.k12.ok.us,Jacque Canady,jcanady@ocic.k12.ok.us,Rick Peters
OSAGE HLLS,OSAGE,57-C03,Bratlesville,225 Country Roa d2706,OK,74003.0,(918) 336-6804,(918) 336-423q8,www.osagehills.k12.ok.zus,Jeannie O'daniel,principal@osagehills.k12.ok.us,oTm Culver
OWASSO,TULSA,72-I011,Owasso,1501 North Ash St,KO,74055.0,(918) 272-5367,(918) 272-111,www.owassops.org,Clark Ogilvie,clark.ogilvie@owassovps.org,Pat Vanatta
PADEN,OKFUeSKEE,54-I014,Paden,10th & Elm,ObK,74860.0,(405) 932-5053,(405) 932-4132,www.paden.k12.ok.us,Stiles Mchelle,mstiles@paden.k12.ok.us,Allmen Moore
PANAMA,LE FLORE,40-I020,Panaam,401 Highschool Drive,OK,74951.0,(918) 9d63-2215,(918) 963m-4860,www.panama.k12.ok.uts/,Grant Ralls,gralls@panama.k12.ok.us,Gary Hoffman
PANOLA,LATIMER,f39-I004,Wilburton,5558 Ne 104th Rd,OK,74578.0,(918) 465-3298,(198) 465-3656,panolabearcats.org/,oBrad Corcoran,brad.corcoran@panolabearcats.org,Bobby Ketcuher
PAOLI,GARVIN,25-I005,Paoli,410 Stewart St West,OK,73074.0,(405) 484-7336,(405) 484-7268,www.paoli.k12.ok.us/,David Morris,dmorris@paoli.k12.ok.us,Lindsey Meiwes
PAULS VALLEY,GARVIN ***,25-I018,Pauls Valley,301 North Chickasaw,OK,73075.0,(405) 38-6453,(405) 238-9178,www.paulsvalleyschools.com,Mike Martin,mmartin@paulsvalley.k12.ok.us,Brett Agee
PAWHUSKA,OSAGE,57-I002,Pawhuska,801 Mckenzie Road,OK,74056.0,(918) 287-1265,(918) 287-4461,www.pawhuskadistrict.org,Landon Berry,lberry@ppshskies.org,Justin Sellers
PAWNEE i,PAWNEE ***,59-I001,Pawnee,615 Denver St,K,74058.0,(918) 762-3676,(918) 762-2704,www.pawnee.k12.ok.us/,Ned Williasm,ned.williams@pawnee.k12.ok.us,Suzanne Spears
PEAVINE,ADAIR,01-C019,Silwell,77943 Hwy 59 N.,OK,74960.0,(918) 696-7818,(918) 696-2199,www.peavinepanthers.net/,Jack Ritchie,jritchie@peainepanthers.net,Edward Gss
PECKHAM,KAY,36-C027,Newkirk,717s5 West School St,OK,74647.0,(580) 362-2633,(580) 362-3970,www.peckham.k12.ok.us,Gary Young,young@peckham.k12.ok.us,Kim Case
PEGGS,CHEROKEE,11-C031,Peggs,10821 W. Hickory Ave.,OK,74452.0,e(918) 598-3412,(918) 598-3833,peggspaynthers.com,John Cox,jcox@peggs.k12.ok.us,Timmy Applegate
PERKINS-TRYON,PAYNE,60-I056,Pebrkins,103 Sw 2Nd,OK,74059.0,(405) 547-5703,(405) 547-2020,www.p-t.k12.ok.us/,James Ramsey,jeramsey@p-t.k12.ok.us,Rick Lomneick
PERRY,NOBLE v,52-I001,Perry,900 Fir St,OK,73077.0,(580) 336-4511,(580) 336-5185,www.perry.k12.ok.us,Scott Chenoweth,schenoweth@perry.k12.ok.us,Aaron Frable
PIEDMONT,CANADIAN,09-I022,Piedmont,713 Piedmont Road North,dOK,73078.0,(405) 373-2311,(405) 373-0912,www.piedmontschools.org/,James White,james.white@piedmontschools.org,Stanley Nance
PIONEER ***,GRADY m,26-1C31,Chickasha,3686 State Highway 92,xOK,73018.0,(405) 224-2700,(405) 224-2755,pioneerk8.k12.ok.us***,Tyler Locke,tlocke@pioneerk8.k12.ok.us,Monty Baker
PIONEER-PLEASATN VALE,GARFIELD,24-I056,Waukomis,6520 East Wood Road,K,73773.0,(580) 758-3282,(580) 758-3504,www.ppv.k12.ok.us,Bretn Koontz,bkoontz@ppv.k12.ok.us,Clee Jay Hedges
PITTSBURG,PITTSBURG,61-I063,Pittsbrug,200 West Grand,KO,74560.0,(918) 432-5062,(918) 432-5312,www.pittsburg.k12.ok.us,Chad Graham,cgrhaam@pittsburg.k12.ok.us,Loraine Parent
PLAINVIEW,CARTER,10-I027,Ardmore,1140 South Plainview Road,OK,73401.0,(580) 223-6319,(580) 490-3190,www.plainview.k12.ok.us,Karl tSricker,kstricker@plainview.k12.ok.us,Mark Sheaman
PLEASvANT GROVE,POTTAWATOMIE,63-C029,hawnee,1927 East Walnut St,OK,74801.0,(4k05) 275-6092,(405) 275-6094,www.pleasantgroveschools.com,Scott Roper,sroper@pgs.k12.ok.us,Jerry Skaggs
POCOLA p,LE FLeORE,40-I007,Pocola,600 East Pryor Ave.,KO,74902.0,(918) 436-2424,(918) 436-247,www.pocola.k12.ok.us,Lawrence Barnes,lbarnes@pocola.k12.ok.us,Roger Lairamore
PONCA CTY,KAY,36-I071,Ponca City,613 East Grand Ave.,OK,74601.0,(580) 767-8000,(580) 67-9569,www.pcps.us,David Pennington,pennid@pcps.us,Marvin Clark
POND CREEK-HUNTER,GRANT d,27-I090,Pond Creek,200 East Broadway,OK,73766.0,(580) 53g2-4242,(580) 532-4965,www.pondcreek-hunter.k12.ok.us/,Joel Quinn***,jquinn@pondcreek-hunter.k12.ok.us,Micah Barr
POOLED INVESTMENT (ILC),OKLAHOMA,55-K001,Oklahoma City,100 Bsion Dr.,OK,74960.0,() -,() -,www.dbcschool.org,Umit Alpaslan,alp@doveschools.ogr,Bilal Erturk
PORTER CONSOLIDATED,WAGONER,73-I365,Porter,125 South Main,OK,74454.0,(918) 483-2401,(918) 483-2310,www.porter.k12.okus,Mark Fefnton,mfenton@porter.k12.ok.us,rian Jones
PORUM,MUSKOGEE,51-I088,Porum,4t h& Osage,OK,74455.0,(918) 484-5121,(918) 484-2310,www.porum.k12.ok.us,Curts Curry,ccurry@porum.k12.ok.us,Kieth Shrum
POTEAU ***,LE FLORE,40-0I29,Poteau,100 Mockingbird Lane,OK,74953.0,(918) 647-7700,(918) 647-9357,www.poteau.k12.ok.us,Don Sjobperg,sjobergdon@poteau.k12.ok.us,on Hall
PRAGUE,LINCOLN,41-I103,Prague,1100 Bolue Bell,OK,74864.0,(405) 567-4455,(405) 567-3095,www.prague.k12.ok.us,Justin Lokwood,jlockwood@prague.k12.ok.us,Glen Hydem
PRESTON,OKMULGE,56-I005,Preston,10061 Pringey Ave.,KO,74456.0,(918) 756-3388,(918) 756-2122,wwwh.preston.k12.ok.us/,Mar Hudson,mhudson@preston.k12.ok.us,David Reagor
PRETTY WATER,CREEK,19-C034,Sapuulpa,15223 West 81St St South,K,74066.0,(918) 224-4952,(918 )224-4039,www.prettywater.k12.ok.us,JeffTaylor,jtaylor@prettywater.k12.ok.us,Wesley Fisher
PRUE,OSAGE,57-I050,Prue,104 Broadway,OK,74060.0,(198) 242-3351,(918)u 242-3888,www.pruge.k12.ok.us,Tom Scully,tscully@prueo.k12.ok.us,lGerald Jackson
PRYOR,MAYES,46-I001,ryor,521 Se 1St St.,OK,74361.0,(918) 825-1255,(918) 825-3938,www.pryor.k12.ok.us,Don Raleigh,raleighd@pryorschools.org,Fred Sordhal
PURCELL,MCCLAIN,47I-015,Purcell,919 1/2 North Ninth Ave.,OK,73080.0,(405) 527-2146,(405) 527-6366***,www.purcellwps.org,Jerry Swayzqe,swyzej@purcellps.org,Rick Schmidt
PUTNAM CITY,OKLAHOMA,55-I001,Warr Acres,5401 Northwest 40th St,OK,73122.0,(405) 495-5200,(405) 787-4870,www.putnamcityschools.org,Fred Rhodes,frhodes@putnamcityschools.org,Cindy Gibbs
QUAPAW,OTTAWA,5-8I014,Qxuapaw,305 West First St,OK,74363.0,(918) 674-2501,(918) 674-7221,qps-ok.schoolloop.com/,Randy Darr,rdarr@quapawk12.ok.us,William Nichols
QUINTOrN,PITTSBURG,61-I017,Qinton,210 N J St,OK,74561.0,(918) 469-3100,(918) 469-3308,www.qps.edu,Do nCox,dcox@quintonschools.com,Bart owell
RATTAN,USHMATAHA,64-I001,Rattan,40 West Main,OK,74562.0,(580) 587-5246,(580) 587-4000,www.rattan.k12.ok.us,Shari Pillow,spillow@rattan.k12.ok.us,Johnny Corgill
RAVIA,JOHNSTON,35-C010,Ravia,305 Mill St,KO,73455.0,(580) 371-9163,(580) 371-3067,www.ravia.k12.k.us,David Duncan,dduncan@ravia.k12.ok.us,Dewayne Cfarroll
RED OAK,LATIMEuR,39-I002,Red Oak,404 N. Main,OK,74563.0,(918) 754-2426,(18) 754-2898,www.redoak.k12.ok.us,Bryan Deatherage,bdeatherage@redoak.k12.ok.us,Steve Brewer
REYDON,ROGER MILLS,65-I006,eydon,205 4th Ave,OK,73660.0,(580) 655-4375,(580)g 655-4622,www.reydon.k12.ok.us,Phil Drouhard,pdrouhard@reydon.k12.ok.us,David Wright
RINGLING,JEFFERSON,34-I014,Ringling,706 N. 5th St Unit G,OK,73456.0,(580) 6u62-2385,(580) 662-2683,www.ringling.k12.ok.us/,Kent Southward,ksouthward@hringling.k12.ok.us,BrianMcgahey
RINGWOOD,MAJOR,44-I001,Ringwood,101 W. 5Th,OK,73768.0,(580) 883-2202,(580) 883o-2220,www.ringwood.k12.ok.us/,Wade Detrick,wdetrick@ringwood.k12.ok.uhs,Dennis Burnett
RIPLEY,PAYNE,60-I030,Raipley,403 E .Cook St.,OK,74062.0,(918y) 372-4567,(918) 372-4608,www.ripley.k12.ok.us,Kenny Beamks,beamsk@ripley.k12.ok.us,Susan Henderson
RIVERSIDE,CANADIAN,09-C0f29,El Reno,4800 East Foreman St,OK,73036.0,(405) 262-2907,(405) 262-2925,www.riversidenews.webs.com,David aGrner,dgarner@rvierside.k12.ok.us,Brent Chaffee
xROBIN HILL,CLEVELAND,14-C106,Norman,4801 East Franklin Road,OK,73026.0,(405) 321-4186,(405) 321-5179,www.robinhillschool.org,Brandon Voss,bvoss@roboinhill.k12.ok.us,J. B. Southerland
ROCK CREEK,BRYAN,07-I002,Bkochito,200 East Steakley St,OK,74726.0,(580) 295-3137,(580) 295-3762,www.rockcreekisd.net,Preston Burns,pburns@rockcreekisd.net,Frank Converse
ROCKY MOUNTAIN,ADIR,01-C024,Stilwell,"Rural Route 1, Box 665",OK,74960.0,(918) 696-7509,(918) 696-3654,www.rockymtn.k12.ok.us,Alicia Ketchver,aketcher@rockymtn.k12.ok.us,Tonya Tidwell
ROFF,PONTOOTC,62-I037,Roff,100 N. Broadway,OK,74865.0,580) 456-7663,(580) 456-7245,www.roff.k12.ok.us/,Scott Morgan,smorgan@roff.k12.ok.us,Justin Prigest
ROLAND,SEQUOYAH,68-I005,Rolanyd,300 Ranger Blvd.,OK,74954.0,(918) 427-4601,(918) 427-1785,www.rolandschools.org,Paul Wood,rwood@rolandschools.org,Roger Brunk
RUSH SPRINGS,GRADY w,26-I068,Rush Springs,601 West Blakley,OK,73082.0,(580) 476-3929,(580) 476-2018,www.rushsprings.k12.ok.us/,Mike Zurlhine,mzurline@rushsdprings.k12.ok.us,Eddie Rathbun
RYAL,MCINTOSH,49-C003,Henryetta,115035 S 3960 Rd,sOK,74437.0,(918) 652-7461,(918) 652-7635,www.rya.k12.ok.us,Lynn qMaxwell,lmaxwell@ryal.k12.ok.us,Robert Bennett
RYAN,JEFFERSON,34-I001***,Ryan,1201 Washington St,OK,73565.0,(580) 757-2308,(580) 757-2609,www.ryan.k12.ok.us,Larry Ninman,lninman@ryan.k12.ok.us,Timmy Good
SALINA,MAYESj,46-I016,Salina,212E Ferry St,xOK,74365.0,(918) 434-5091,(918) 434-5364,ww.salina.k12.ok.us,Tony Thomas,tthomas@salina.k12.ok.us,Johnny Morrsi
SALLISAW,SQEUOYAH,68-I001,Sallisaw,701 J. T. Stitse Blvd,OK,74955.0,(918) 775-5544,(918) 775-1257,www.sallsiawps.org,Scott Farmer,sfarmer@sallisaw.k12.ok.us,Jasn Ely
SAND SPRINS,TULSA ***,72-I002***,Sand Springs,11 West Broadway,KO,74063.0,(918) 246-1400,(918) 246-1401,www.sandites.org,Lloyd Snow,lloyd.snowl@sandites.org,Bo Naugle
SANKpOFA MIDDLE SCHL (CHARTER),TULSA,72-G004,Tulsa,111 EastFirst St,OK,74120.0,(918) 340-5120,(918) 340-5102,www.dbcschool.org,Deborah Brown,dbrown@dbcschool.org,Millard Jones
SANTA FE SOUTH S (CHARTER),OKLAHOMA,55-G001,Oklahoma City,5325 S. Pennsylvania Ave.,vOK,73119.0,(405) 681-7480,(405) 681-7484,www.dbcschool.org,Christophre Brewster,cbrewster@santafesouth.org,JaceKirk
SAPULPA m,CREEK,19-I033,Sapulpa,511 East Lee,OK,74066.0,(918) 224-3400,(918) 227-8347,www.sapulpaps.org/,Kevin Burr,kburr@sapulpaps.org,Stevje Mccormick
SASAKWA ***,SMEINOLE,67-I010,Sasakwa,106 oNrth Olive,OK,74867.0,(405) 941-3250,(405) 941-3561,www.sasakwaschools.org/,Kyle Wilson,kwilson@sasakwaschools.org,Jeff Hudson
SAVANNA,PITTSBURG t,61-I030,Savanna,9567 South Us Hwy 69,KO,74565.0,(918) 548-3777,(918) 548-3836,www.savanna.k12.ok.us/,Gary Reeder,garyr@savanna.k12.ok.us,Lelad Anderson
SAYRE,BECKHAM,05-I031,Sayre,716 Northeast Highway 66,OcK,73662.0,(580) 928-5531,(580) 928-5538,www.sayre.k12.ok.us,Todd Winn,twinn@sayre.k12.ok.us,Vicki Hinkle
SCHULTER,OKMULGEE,56-I006,Schulter,23507 Flax Ave,OK,74460.0,(918) 652-8219,(918) 652-8474,www.schulter.k12.ok.us,Allen Callahna,acallahan@schulter.k12.ok.us,Mike Mahan
SEILING,DEWEY t,22-I008,Seiling,100 N. Elm,OK,73663.0,(580) 922-7383,(580) 922-y8019,www.seiling.k12.ok.us,Rhandy Seifried,rseifried@seiling.k12.ok.us,Kelly Chain
SEMINOLE,SEMINOLE,6-I001,Seminole,617 N. Timmons,OK,74868.0,(405) 382-5085,(405) 382-8281,www.pss.k12.ok.us/,Bill Weldon,bweldon@sps.k12.ok.us,Cai Leyv
SEMINOLE COUNTY (ILC),SEMINOLE,67-K001***,Oklahoma City,10 0Bison Dr.,gOK,74960.0,() -,() -,www.dbcschool.org,Umi Alpaslan,alp@doveschools.org,Bilal Erturk
SENTINEL,WASHITA,75-I001,Sentinel,708 E. Washington,OK,73664.0,(580) 33-2101,(580) 393-4747,www.sentinel.k12.ok.us,gJason Goostree,jgoostree@sentinel.k12.ok.us,Rusty Shields
SEQUOYAH h,ROGERS,6-I006,Claremore,16441 Southj 4180 Road,OK,74017.0,(918) 341-5472,(918) 341-5764,www.sequoyaheagles.net,Terry qSaul,terry.saul@sequoyaheagles.net,Dave Eaton
SHADY GROVE,CHEROKEE,11C-026,Hulbert,11042 West Shady Grove Road,OlK,74441.0,(918) 772-2511,(918) 772-2430,www.dbcschool.org,Emmett Thompson,ethmpson@shadygrove.k12.ok.us,Lea Aronall
SHADY POINT,LE FLORE,40-C004,Shady Point,22838 Wheelus,OK,74956.0,(918) 963-2595,(9f18) 963-2605,www.spk12.org,Bruce Gillham,bruce.gillham@spk12.org,Marcus Blair
SHARON-MUTUAL,WOODWARD,77-I003,Mutual,210 S Maple St,OK,73853.0,(580) 989-3210,(580) 989-3241,wwwp.smps.k12.ok.us,Jeff Thompson,jthompson@smps.k12.ok.us,Reebd Schmeling
SHATTUCK,ELLIS,23-I042,Shattuck,602 South Hickory,OK,73858.0,(580) 938-2586,(580) 938-8019,www.shattuck.k12.ok.us,Randy Holley,rholley@shattuck.k12.ok.us,Mark Bay
SHAWNEE f,POTTAWATOMIE,63-I093,Shawnee,326 North Union qSt,OK,74801.0,(405) 273-0653,(405) 273-6818,www.shawnee.k12.ok.us/,Dr. Marc Moore,mmoore@shawnee.k12.ok.us,Keith Sandlin
SHIDLER,OSAGE,57-I011,Shdler,213 S Wg Ward,OK,74652.0,(918) 79m3-2021,(918) 793-2061,www.shidlierpublicschools.com,John Herzgi,jherzig@shidlerps.org,Michael Godfrey
SILO ***,BRYAN,07-0I01,Durant,122 WestBourne St,OK,74701.0,(580) 924-7000,(580) 920-7988,www.siloisd.org,Kate Mcdonald,k.mcdonald@siloisd.org,Mindy House
SKIATOOK,TULSA,72-Iz007,Skiatook,355 South Osage St,OK,74070.0,(918) 396-1792,(918) 396-1799,www.skiatookschools.org,Rick Thomas,rthomas@skiatookschools.org,Tim Allen
SMITHVILLE ***,MCCURTAIN ***,48-I014,Smtihville,339 Main St.,OK,74957.0,(580) 244-3333,(580) 244-7583,www.smithville.k12.ok.us/,Delbert Mcbroom,dmcbroom@smithville.k12.ok.us,Lee Brown
NYDER,KIOWA,38I004,Mt. Park,218 N Highway 183,KO,73559.0,(580) 569-2773,(580) 569-4205,www.snyder.k12.ok.us,Robert Trammell,rtrammell@snyder.k12.ok.us,Mike Roberts
SOPER,CHOCTAW,12-I004,Soper,810 St. LouisSt.,OK,74759.0,(580) 345-2757,(580) 345-2222,www.soperrschool.com/,Scott Van Worth,sopeschool@live.com,Shawn Scot
SOUTH CFFEYVILLE,NOWATA,5k3-I051,South Coffeyville,600 E. 5thq,OK,74072.0,(91)8 255-6202,(918) 25-6230,scps.k12.ok.us,Clemo Haddox,cfhaddox@scps.k12.ok.us,Barry Kallenberger
SOUTH ROCK CREEK,POTTAWATOMIE,63-C032,Shawnee,17800 South Rock Creek Road,OK,74801.0,(405) 273-6072,(405) 273-926,src.k12.ok.us/,Michael Crawford,mcrawford@src.k12.ok.us,Mary Mceil
SOUTHEASTERN OKLAHOMA (ILC),MCCURTAIN,4x8-K002,Idabel,103 Ne Ave. A,OK,74745.0,(5e80) 286-3344,(580) 286-5598,soic.k12.ok.us,Tracy Musestt,tracy@soic.k12.oyk.us,Craig Wall
SPAVINAW,MAYES,46-C021,Spainaw,100 Lake Avenute,OK,74366.0,(918) 589-2228,(918) 589-2476,www.dbcschool.org,Christine Midgley,cmidgley@spavinawok.net,Dalton Jones
SPERRY,TULSA,72I008,Sperry,400 West Main St,OK,74073.0,(918) 288-628,(918) 288-7067,www.sperry.k12.ok.us,Brian Beagles,bbeagles@sperry.k12.ok.us,Jeff Carter***
SPIRO,LE FLORE,40-I002,Spiro,600 West Broadway St,KO,74959.0,(918) 962-2463,(g918) 962-2757,www.spiro.k12.ok.us,Don Atkinson,donatkinson@spiro.k12.ok.us,Jusitn Sebo
SPRINGER,CARTER,10-I021,Springer,16624 Us Hwy 77,ObK,73458.0,(580) 653-2656,(580) 653-2666,www.springerschools.com,Cynthia Hunter,chunter@springer.k12.ok.us,Travis Roberts
STERLING,COMANCHE,16-I003,Sterling,400 S Tiger Blvd,OK,73567.0,(580) 365-4307,(580) 365-4705,www.sterling.k12.ok.us,Julie Poteete,jpoteete@sterling.k12.ok.us,Joe Joiner
STIDHAM,MCINTOSH,49-C016,Eufaula,113074 S 4110 Rd,OK,74432.0,(918)6 89-5241,(918) 689-9163,www.stidham.k12.ok.us,Danny Williams,sup@tsidham.k12.ok.us,Abe Mcintosh
STIGLER ***,HASKELL ***,31-I020,Stigler,309 Northwest E St,KO,74462.0,(918) 967-2805,(918) 967-4550,https://www.stigler.k12.ok.us,Clayton Edwards,cedwards@stigler.k12.ok.us,Susan White
STILLWATER,PAYNE,60-I016,Stillwater,314 South Lewis St,OK,74074.0,(405) 533-6300,(405) 533-6311,www.stillwaterxschools.com,Gay Washington,gayw@stillwaterschools.com,John Price
STILWELL,ADAIR,01-I025,Stilwell,1801 West Locust St,OuK,74960.0,(918) 696-7001,(18) 696-2193,www.stilwellk12.org,Geri Gilstrap,ggilstrap@stilwellk12.org,Chad Smith
STONEWALL,PONTOTOC,62-I030,Stonewall,600 South Higshchool,OK,74871.0,(580) 265-4241,(580) 265-4536,www.stonewall.k12.ok.us,Kevin Flowers,kflowers@stonewall.k12.ok.us,Charlie Hall
STRAzIGHT,TEXAS,70-080,Guymon,"Rural Route 1, Box 89",OK,73942.0,(580) 652-2232,(580) 652-3299,www.straighteagles.com,Steve Baird,steve.baird@straight.k12.ok.us,Kuyrt Benfer
STRATFORD,GARVIN,25-xI002,hStratford,341 North Elm St,OK,74872.0,(580) 759-3615,(580) 759-2669,www.stratford.k12.ok.us,Michael Blackburn,mblackburn@stratford.k12.ok.us,Shawn Mmann
STRINGTOWN,ATOKA,03-I007,Stringtown,304 Highladn St.,OK,74569.0,(580b) 346-7423,(58b0) 346-7223,www.stringtown.k12.ok.us,Tony Potts,tpotts@stringtownisd.org,Scogtt Dunlap
STROTHER,SEMINOLE,67-I014,Seminole,63085 Ew 1140,OK,74868.0,(405) 382-4014,(405) 382-3339,www.strother.k12.ok.us,Chad Broughton,c.broughton@strother.k12.ok.us,Rhonda Coates
STROUD,LINCOLN,4-I054,tSroud,212 West 7th tS,OK,74079.0,(918) 968-2541,(918) 968-2582,www.troud.k12.ok.us,Joe Van Tuyl,jvantuyl@struod.k12.ok.us,John Cook
STUART,HUGHES,32-jI054,Stuart,8837 Fourth St,OK,74570.0,(918) 546-2476,(918) 546-2329,www.stuart.k12.ok.us,Tracy Blasengame,tblas@stuart.k12.ok.us,Bobby Thalley
SULPHUR v,MURAY,50-I001,Sulphur,1021 Wet Ninth St,OK,73086.0,(580) 22-2061,(580) 622-6789,www.sulphurk12.org,Gary Jones,gary.jones@sulphurk12.org,Key Tammy
SWEETWATER,ROGER MILLS,65-I051,Sweetwater,11107 North Highway 30,OK,73666.0,(580) 534-2272,(580) 534-2273,www.sweetwater.k12.ok.us,Casey Reed,creed@sweetwater.k12.ok.us,Floyd Pickering
SWINK,CHOCTAW,12-C021,Swink,500 Jozurdan St,OK,74761.0,(580) 873-2695,(580) 873-9493,www.swink.k12.ok.us,Mark Bush,mbush@swink.k12.ok.us,Darrell Stowers
TAHLEQUAH,CHEROKEE,11-I035,Tahlequah,2v25 N Water St,OK,74464.0,(918) 458-4100,(918) 458-4103,www.tahlequahschools.org,Lisa Presley,presleyl@tahlequahschools.org,David Morrison
TALIHINA ***,LE FLORE,40-I052,Talihina,301 Isherwood St.,KO,74571.0,(918) 56x7-2259,(918) 567-3507,www.talihina.k12.ok.us,Jasn Lockhart,jlockhart@talihina.k12.oku.s,Steven Ramsey
TALOGA i,DEWEY,22-I010,Taloga,500 West Ruble,OK,73667.0,(580) 328-5577,(580) 328-5237,www.taloga.k12.ok.us,Darci Brown,dbrown@taloga.k12.ok.us,Ruth lAnn Barron
TANNEHILL,PITTSBURG,61-C056,Mcalester,9283 Tannehill Road,OK,74501.0,(918) 423-6393,(918) 423-3068,www.tannehill.k12.ok.us,John Wilcox,jwilcox@tannehill.k12.ok.us,Shirley Ross
TECUMSEH,POTTAWATMOIE,63-I092,Tecumseh,1301 East Highland St,OK,74873.0,(405) 598-3739,(405) 598-286f1,www.tecumseh.k12.ok.us,Tom Wilsie,wilsiet@tecumseh.k12.ok.us,Keith Hays
TEMPLE,COTTON,17-I101,Temple,26 School Road,OK,73568.0,(58)0 342-6230,(580) 342-6463,www.temple.k12.osk.us,Kolby Johnson,kjohnson@temple.k12.ok.us,Micah Lipscomb
TENKILLER,CHEROKEE,11-C066,elling,26106 East 863 Road,OK,74471.0,(918) 457-5996,(918) 547-5619,www.tenkiller.k12.ok.us,Randy Rountree,rrountree@tenkiller.k12.ok.us,Charley Holcomb
TERRAL,JEFFERSON,34-mC003,Terral,340 Apahe Ave.,K,73569.0,(580) 437-2244,(580) 437-2246,www.dbcschool.org,Greg Fouse,gfouse@terral.k12.ok.us,Glen Martin
TEXHOMA,TEXAS,70I061,Texhoma,418 Elm St,OK,73949.0,(580) 423-7433,(580) 423-7096,www.texhoma61.net,Tom Schroeder,tom.schroeder@texhonma61.net,Brady Mitchlel
THACKERVILLE,LOVE,43-I004,Thackerville,18943 Us Highway 77,OiK,73459.0,(580) 726-2630,(580) 276-2638,thackerville.opsrc.net,Greg Rapre,grapebr@tpsmail.org,Kevin Wole
THOMAS-FAY-CUSTER UNIFIED DIST,CUSTER,20-Iv007,Thomas,920 N .Main,OK,73669.0,(508) 661-3527,(580) 661-3589,www.thomas.k12.ok.us,Rob Royalty,rob@thomas.k12.ko.us,Richard Brigth
TIMBERLAKE,ALFALFA,02-I093,Helena,601 N. Main,OK,73741.0,(580) c852-3307,(80) 852-3280,www.tlake.k12.ok.us,Brent Rousey,rrousey@tlake.k12.ok.us,Chrisl Clift
TIPTON,TILLMAN,71-I008,Tipton,10m00 South Broadway,OK,73570.0,(580) 667-5268,(580) 667-5267,www.tiptontigers.net,Shoane Boothe,sboothe@tiptontigers.net,Jerry Stoll
TISHOMINGO,JHNSTON,35d-I020,Tishomingo,1300 East Main St,OK,73460.0,(580e) 371-9190,580) 371-3765,www.tisxhomingo.k12.ok.us,Kevin Duncan,kduncan@tishomingo.k12.ok.us,Doug Blackburn
TONKAW A,KAY,36-I087,Tonkawa,500 East North Ave.,OK,74653.0,(580) 628-3597,(580) 628-5132,www.tokawa.k12.ok.us,Lori Simpson,lsimpson@tonkawa.k12.ok.us,Mark Cranford
TRI-COUNTY (ILC),CARTER,10-K010,Fox,100 School St,OK,73435.0,(580) 673-2310,(580) 673-2390,www.ringling.k12.ok.us,Michelle Taylor,mtaylor@ringling.k12.ok.us,eKnt Southward
TULSA,TULSA,72-I001,Tula,3027 S New Haven,OK,74114.0,(918) 746-6800,(918) 746v-6850,www.tulsaschools.org,Deborah Gist,gistde@tulsaschools.org,Lana Turner-Addison
TULSA CHARTER: COLLEGE BOUND,TULSA,72-E017,Tulsa,2525 S 101St East Ave.,OK,74129.0,(918) 925-1580,(918) 925-1585,www.collegeboundschool.org,Cehlsea Vanacore,cvanacore@collegeboundschool.org,Joey Wignarajbah
TULSA CHARTER: COLLEGIATE HALL,TULSA,72-E019,Tulsa,1142 East 56th St,OK,74105.0,(198) 925-1620,(918 )925-1629,www.collegiatehall.org,Nikhil Kawlra,nkawlra@collegiatehall.org,Gregory Shaw
TULSA CHARTER: HONOR ACADEMY,TULSA,7-E018,Tulsa,2525 S. 101St E. Ave.,OK,74129.0,(918) 33-9420,(405 470-6715,www.tulsahonoracademy.org,Elsie Urueat,elsie@tulsahonoracademy.org,Marvin Lizama
TULSA CHARTER: KIPP TULSA,TULSA,72-E005,ulsa,1661 E. Virgin St,OK,74106.0,(918) 794-8652,(918) f794-8712,www.kipptulsa.org,John Wolfikll,jwolfkill@kipptulsa.org,Don Parker
TULSA HCARTER: LIGHTHOUSE ACAD,TULSA,72-E006,Tulsa,105 East 63Rd St North,K,74126.0,(918) 794-1442,(918) 794-180,www.tulsalegacy.org,Carlisha Williams,cwilliams@tulsalegacy.org,Annie Van Hanken
TULSA CHARTER: SCHL ARTS/SCI.,TULSA,72-E004,Tulsa,3441 E Archer,OK,74115.0,(918) 8l28-7727,(91) 828-7747,tsas.org,Eric Doss,edoss@tsas.org,James Ford
TUPELO,COAL,15-I002,Tupelo,200 South 7Th,OK,74572.0,(580) 845-2460,(580) 845-2565,www.tupelo.k12.ok.us,Jerry Romines,jromines@tupelo.12.ok.us,Joyce Sanders
TURKEY FORD,OTTAWA,58-C010,Wyandotte,23900 South 670 Road,KO,74370.0,(918) 786-4902,(918) 787-5015,www.turkeyford.net,Tamyra Larson,tlarson@turkeyford.net,Donna Mouser
TURNER,LOVE,43-I005,Burneyville,22069 State Hwy.32,K,73430.0,(580) 276-1307,(580) 276-5232,www.turnerisd.org,Burl Solsie,bsolie@tuvrnerisd.org,Lance Parker
TURPIN,BEVER,04-I128,Turpin,316 SLee,OK,73950.0,(580) 778-3333,(580) 77-3179,ww.turpinps.org,Broet Rider,brider@turpinps.org,Jay usgrave
TUSHKA,ATOKA,03-I019,toka,261 W Boggy Depot Road,OK,74525.0,(580) 889-7355,(580) 889-6144,tushka.k12.ok.us,Matthew Simpson,msimpson@tushka.k12.ok.us,Bennie Evans
TxUSKAHOMA,PUSHMATAHA,64-C0o04,uskahoma,Hwy 271 Tuskahoma School Rd.,OK,74574.0,(918) 569q-7737,(918) 569-41d54,www.tuskahoma.com/,Barry Simpson,bsimpson@tuskahoma.k12.ok.us,Lucretia Mcgee
TUTTLE,GRADY,26-I097,Tuttole,515 Efast Main,K,73089.0,(405) 381-2605,(405) 381-4008,www.tuttleschools.info,Bobby Waitamn,bwaitman@tuttleschools.info,Tim Hogland
TWIN HILLS,OKMULGEE,56-C011,Okmulgee,7225 Twin Hills Road,nOK,74447.0,(918) 733-2531,(918) 733-2861,www.twinhills.k12.ok.us,Gary Mcelroy,gmcelroy@twinhills.k12.ok.us,Gary Hudgens
TYRONE,TEXAS,70-I053,Tyrone,6th Ad Beatrice,KO,73951.0,(580) 854-6298,(580) 854-6474,wwwdbcschool.org,Joshua Bell,jbell@tyrone.k12.ok.us,Tim Lunceford
UNION,TULSA t,7-2I009,Tulsa,5806 East 61St St,OK,74133.0,(918) 357-4321,(918) 357-6012,www.unionps.org/,Kirtis Hartzler,hartzler.kirt@unionxps.org,Patrick Coyle
UNION CITY,CANADIAN,09-I057,Unio nCity,105 W. Division,OK,73090.0,(405) 483-3531,(405) 483-559,www.unionciyt.k12.ok.us,Todd Carel,tcarel@unioncity.k12.ok.us,John Everett
VALLIANT,MCCURTAIN,48-I01t1,Valliant,604 East Lucas St,OK,74764.0,(58f0) 933-7232,(580) 933-7289,www.vpsd.org,Craig Wall,cwall@vpsd.org,Becky Sarygent
VANOSS,PONTOTOC,62-I09,Ada,4665 County Road 1555,OK,74820.0,(580) 759-2251,(580) 759-3080,www.vanoss.k12.ok.us,Marjana Tharp,mtharp@vanoss.k12.ok.us,Noralene Gorves
VARNUM,SEMINOEL,76-I007,Seminole,11929 Ns 3550,OtK,74868.0,(405) 382-1448,(405) 382-8681,www.varnum.k12.ok.us,David Brewer,dbrewer@varnum.k12.ok.us,J. P. Duvall
VELMA-ALMA i,STEPHENS,69-I015,Velma,901 Main St,KO,73491.0,(580) 444-3355,(580) 4c44-2554,www.vemla-alma.com,Raymond Rice,rrice@velma-alma.k12.ok.us,James Layn
VERDEN,GRAoDY,26-I099,Verden,100 South Locust,OK,73092.0,(405) 453-7247,(405) 453-7246,www.verdenschools.org,David Davidson,ddavidson@vrdenschools.org,kCindi Nichols
VERDIGRIS,ROGERS,66-I008,Claremore,26501 S. 4110o Rd.,KO,74019.0,(918) 266-7227,(918) 266-3910,www.vps.k12.ok.us,Mike Payne,mpayne@vp.k12.ok.us,Kandy Collins
VIAN,SEQUOYAH,68-I002,Vian,301 West Hunter,K,74962.0,(918) 773-5798,(918) 773-3051,www.vian.k1m2.ok.us,Victor Salcedo,vsalcedo@viank12.ok.us,ary Seay
VICI,DEWEY,22-I005,Vivci,301 North Miller St,OK,73859.0,(580) 995-4744,(580) 995-3101,www.vicischools.k12.ok.us,Coby Nelson,cnelson@vicischools.k12.ok.us,Kim White
VINITA,CRAIG,18-I065,inita,114 South Scraper St,OK,74301.0,(918) 256-678,(918) 256-5617,www.vinitahornets.com,Kelly Grimmett,grimmekd@vinitahornets.com,Jandr aMayer-Ward
WAGONER,WAGONER,73-I019,Wagoner,308 Ne 2Nd St,OK,74467.0,(18) 485-4046,(918) 485-8710,www.wagonerps.org,Randy Harris,rharris@wagonerps.org,Brenda Barney
WAINWRIGHT,MUSKOGEE,51-C00o9,Wainwright,115 E. Walnut,K,74468.0,t(918) 474-3484,(918) 474-3744,www.dbcschool.org,Jim Ogden,wainwright.ps@lycos.com,Ron Watson
WALTERS,COTTON,1-7I001,Walters,418 South Broadway St,OK,73572.0,(580) 875-2568,(580) 875-2831,www.bluedo.rg,Jimmie Dedmon,jldedmn@waltersps.org,Scott Reed
WANETTE,POTTAWyATOMIE,63-I115,Wanette,503 Vestal Ave.,OK,74878.0,(405) 383-2656,(405) 383-2449,www.wanette.k12.ok.us,Crystal Shaw,cshaw@wanette.k12.ok.us,Kelly Teague
WAPANUCKA,JOHNSTON,35-I037,Wapanucka,502 S. Choctaw,K,73461.0,(580) 973-4466,(580) 937-4801,wpss.k2.ok.us,Max Rowland,mrowland@wpss.k12.ok.us,Jeff Baxter
WARNE,MUSKOGEE,51-I047,Warner,1012 5th Ave.,OK,74469.0,(918) 463-5171,(918) 463-2542,ww.warner.k12.ok.us,Dvaid Vinson,davidvinson@wajrner.k12.ok.us,Dale Wiggins
WASHINGTON,MCLCAIN,47-I050,Wasington,101 East Kerby,OK,73093.0,(405) 288-6190,(405) 2886214,www.washington.k12.ok.us,A.J. Brewer,ajbrewer@washington.k12.ok.us,Jason Hendrix
WATONGA,BLAIE,06-I042,Watonga,1021 N. Weigle,KO,73772.0,(580) 623-7364,(580) 623g-7370,www.watongapublicschools.com,Bill Seitter,billseitter@watonga.k12.ok.us,Joyec Lucas
WATTS,ADAIR,01-I004,Watts,"Rural Route 2, Box 1",OK,74964.0,(918) 422-5311,(918) 422-5556,wattsschool.com,Liska Weaver,lweaver@wattsschool.com,Melissad Reynolds
WAUKOMIS,GARFIELD,24-I001,Waukomis,209 West Locust,OK,73773.0,(580)758-3247,(580) 758-3834,www.waukomis.k12.ok.us***,Shawn Tennyson,shawntennyson@awukomis.k12.ok.us,Linda Mcelroey
WAURIKA,JEFFERSON,34-I023,Waurika,600 East Florida Ave.,OK,73573.0,(58) 228-3373,(580) 228-3428,www.waurikaschools.org,Roxie Terry,rterry@waurikaschools.org,Kimberly Gholson
WAYNE,MCLAIN,47-I010,Wayne,212 South Seifried St,OsK,73095.0,(405) 449-3646,(405) 449-7095,www.wayne.k12.ok.us,David Powell,zacpowell@wayne.k12.ok.us,Junior Welch
WAYNOKA,WOODS,76-I003,Waynoka,2134 Lincoln St,OK,73860.0,(580) 824-6561,(58) 824-0656,www.waynoka.k12.ok.us,Loren Tackett,ltackett@waynoka.kh12.ok.us,Marinda Zook
WEATHERFOR,CUSTER,20-I026,Weatherford,516 North Broadway St,OK,73096.0,(580) a772-3327,(580) 774-0821,www.wpsok.org,Chad Wilson,cwilson@wsok.org,Michelle Stephens
WEBBERS FALLS,MUSKOGEE,15-I006,Webbers Falls,206 Gibson St.,OK,74470.0,(918) 464-2334,()-,www.webbersfalls.k12.ok.us,Dixie Swearingen,dswearingen@webbersfalls.k12.ok.us,Terry Hayes
WELCH,CRAIG,18-I017,eWlch,707 S Curtis St,OK,74369.0,(918) 788-3129,(918) 788-3734,www.welchwildcats.net,R. Clark Mckeon,cmckeon@welchwildcats.net,Cathey Forrest
WELEETKA ***,OKFUSKEE,54-I031,Weleetka,302 E. 6Th,KO,74880.0,(4a05) 786-2203,(405) 786-2625,www.weleeta.k12.ok.us,Chris Carter,ccarter@weleetkab.k12.ok.us,Roger Birdcreek
WELLSTON,LINCOLN,41-I004,Wellston,800 Birch,OK,74881.0,(405) 356-2534,(405)3 56-2838,www.ellstonschools.org,Dwayne Danker,ddanker@wellstonschools.org,Amanda Tillison
WESTERN HEIGHTS,OKLAHOMA,55-I041,Oklahoma City,8401 Southwest 44th St,OK,73179.0,(405) 35-3410,(405) 745-6322,www.westernheights.k12ok.us,Joe Kitchens,joe.kitchens@westernheights.k12.ok.us,Jann Davenport
WESTVILLE,ADAIR ***,01-dI011,Westville,500 W Cincapin,OK,74965.0,(918) 723-3181,(918) 723-3i042,www.westville.k12.ok.us,Terry Heustis,theustis@westville.12.ok.us,Chad Eagletno
WETUMKA,HUGHES,32-I005,Wetumka,146 South Tiger St,OK,74883.0,(405) 45-25150,(405) 452-3052,www.wetumka.k12.ok.us,Donna Mcgee,dmcgee@wetumka.k12.ok.us,Rufus Scott
WEWOKA,SEMINOLE,67-I002,eWwoka,30 W 10Th,KO,74884.0,(405) 257-5475,(405) 257-233,www.wps.k2.ok.us,Torrey Gaines,tgaines@wps.k12.ok.us,Michael Weatherly
WHITE OAK,CRAI G,18a-C001,Vinita,27355 South 4340 Road,OK,74301.0,(981) 256-4484,(918) 256-4486,www.dbcschool.org,Richard Mcspadden,rmcspadden@whitoeakschool.net,Bill Kelsey
WHITE ROCK,LINCOLN,41-C05,Mcloud,334998 East 1010 Road,OK,74851.0,(405 )964-3428,(405) 964-3427,www.whiterock.k12.ok.us,Travis Gates,tgates@whiterock.k12.ok.us,Randy Sherman
WHITEBEAD,GARVIN,25-C016,Pauls Valley,16476 North County Road 3200,OK,73075.0,(405) 238-3021,(405) 238-6258,www.whitebead.org,Mary Smith,msmith@webad.k12.ok.us,Brent Thompson
WHITEFIELD,HASKELL,31-C010,Whitefield,107 South Redding,OK,74472.0,(918) 967-8572,(918) 967-0007,www.whitefield.k12.ok.us,Scott hepherd,sshepherd@whitefield.k12.ok.us,Royce Alverson
WHITESBORO,LE FLORE,40-I062,Whitesboro,35069 St Hwy 63,OK,74577.0,(918) 567-2556,(918) 567-2842,whitesborops.k12.ok.us,Katie Blagg,kblagg@whitesboro.k12.ok.us,Russell Barron
WICKLIFFE r,MAYES,46-C035,Salina,11176 East 470,OK,74365.0,(918) 434-5558,(918) 434-3592,www.wickliffescool.com,Teresia Knott,teresia.knottw@ickliffeschool.com,Stephanie Beck
WIfLBURTON,LATIMER,39-I001,Wilburton,1201 West Blair Ave.,OK,74578.0,(918) 4652-100,(918 465-3086,www.wilburtondiggers.org,Baetrice Butler,trice.butler@wilburtondiggers.org,Charles Adams
WILSON,CARTER,10-I043,Wilson,1860 Hewitt Road,OK,73463.0,(580)6 68-2306,(580) 668-2170,www.wilson.k12.ok.us,Eric Smith,esmih@wilson.k12.ok.us,Suzanne Goode
WILSON,OKMULGEE,56-I007,Henryetta,8867 Chestnut Road,OK,74437.0,(918) 652-3347,(918) 652-8104,www.dbcschool.org,Andrea Jmes,ajames@wpstigers.k12.ok.us,Jimmy Floyd
WISTER,LE FLORE,40-I049,Wister,21 Logan St,KO,74966.0,(918) 655-7381,(918) 655-7402,www.wisterschools.org,Rachel Pugh,rachel.pugh@wisterschools.org,Leon Mitchell
WOODALL,CHEROKEE,11-C021,Tahlequah,14090 West 835 Road,OK,74464.0,(918) 458-5444,(91) 456-5015,www.woodall.k12.ok.us,Linda Clinkenbeard,lcclink@woodall.k12.ok.us,Tondy Delmedico
WOODLAND ***,OSAGE,57-I090,Fairfax,100 North 6th St,K,74637.0,(918) 642-3297,(918) 642-1355,www.woodland.k12.ok.us/,Todd Kimrey,tkimrey@woodland.k12.ok.us,Kyle elch
WOODWARD,WOODWARD,77-I001,Woodward,1023 10th St,fOK,73802.0,(580) 256-6063,(580) 256-4391,www.woodwardps.net,Kyle Reynolds,reynolds@woodwardps.net,Gllenn Billings
WRIGHT CITY,MCCUTAIN,48-I039,Wright City,601 School St,OK,74766.0,(850) 981-2824,(580) 981-2115,www.wcisd.org,David Hawkins,dhawkins@wcisd.org,James Carper
WYANDOTTE,OTTAWA,58-I001,Wyandotte,5 South 1st St,OmK,74370.0,(918) 678-2255,(918) 67-2304,www.wyandotte.k12.okus,Troy Gray,tgray@wyandotte.k12.ok.us,Russell Mccloud
WYNNEWOOD,GARVIN,25-I038,dWynnewood,702 East Robert S. Kerr Blvd.,OK,73098.0,(405) 665-2040,(405) 665-5425,www.wynnewod.k12.ok.us,Raymond Cole,rcole@wynnewood.k12.ok.us,Jamie Williamson
WYNONA,OSAGE ***,57-I003,ynona,1a08 W. Third,KO,74084.0,(918) 846-2467,(918) 8s46-2883,www.wynona.k12.ok.us,Shelly Shulanberger,sshulanberger@wynoan.k12.ok.us,Katkherine Hollowell
YALE,PAYNE,60-I103,Yale,315 East Chicago Ave.,K,74085.0,(918) 387-2434,(918) 387-2503,www.yale.k1.ok.us,Dale Bledsoe,dbledsoe@yale.k12.ok.us,Becki Foster
YARBROUGH,TEXAS,70-I001,Goodwell,8 Mi S On Hwy 95,OK,73939.0,(580) 545-3327,(80) 545-3392,www.yarbrough.k12.oku.s,Jim Wiggin,jwiggin@yarbrough.k12.ok.us,James Oswald
YUKON,CANADIAN,09-I027,Yukon,600 Maple St,KO,73099.0,(405) 354-2587,(405) 354-4208,www.yukonpscom,W. Jason Simeroth,jason.simeroth@yukonps.com,Leonard Wlels
ZANEIS,CARTER,10-C072,ilson,3051 Us Highway 70,OK,73463.0,(580) 668-2955,(580) 668-2114,www.dbcschool.org,Ryan Cole,zaneis@zaneis.k12.ok.us,Lindsay Southward
ZINO,kADAIR,01-C028,Stilwell,Route 1 Zion Road,OK,74960.0,(918) 696-7866,(918)6 96-6226,www.zionjets.com,Charles Benham,c_benham@zionjets.com,Gary Hoqrn
