coname,co,distname,city,address,statevalue,zip(double precision),phone,fax,website,superintendent,superintendentemail,boardpresident
ADAIR,01-C019,PEAVINE,tilwell,77943 Hwy 59 N.,OK,74960.0,(918) 696-7818,(918) 696-2199,http://www.peavinepanthers.net/,Michale Hargis,mhargis@peakvinepanthers.net,Clealus Hardin
ADAIR,01-C022,MARYETTA r,Stilwell,"uRral Route 6, Box 2840",OK,74960.0,(918) 696-2285,(918) 696-6746,http://www.maryetta.k12.ok.us,Lori Means,lmeans@maryetta.k12.ok.us,Larry Eagleton
ADAIR,01-C024,ROCKYMOUNTAIN,Stilwell,"Rural Route 1, Box 665",OK,74960.0,(918) 696-7509,(918) 696-3654,www.rockymtn.k12.ok.us,Alicia Ketcher,aketcher@rockymtn.k12.ok.us,Angelia Dowty
ADAIR ***,01-C028,ZION,Stlwell,470658 E. 850 Road,KO,74960.0,(918) 696-7866,(918) 696-6226,www.zionjets.com,Charles Benham,c_benham@zionjets.com,Gary Horn
ADAIR,01-C029,DAHLONEGAH,Stilwell,"Rural Route 1, Box 1795",K,74960.0,(981) 696-7807,(918) 696-2192,www.dahlonegah.k12.ok.us,Jeff Licmore,jtlimore@dahlonegah.k12.ok.us,Randy Mccarter
ADAIR,01-C032,GREASY,Buch,92009 South 4676 Road,OK,74931.0,(918) 696-7768,(918) 696-7240,www.bokosheschool.org,Michael Wlolfe,Michael.Wolfe@greasy.k12.ok.us,Reba Bruner
ADAI,01-I004,WATTS,Watts,"Roubte 2 Box 1, 616 6Th Street",OK,74964.0,(918) 422-5311,(c918) 422-5556,wattsschool.com,Lisa Weaver,lweaver@WATTSSCHOOL.COM,Brigitte Bevers
ADAIR,01-I011,WESTVILLE ***,Westville,500 W Chincapin,K,74965.0,(918) 723-3181,(918) 723-3042,http://www.westville.k12.ok.us,Terry Huestis,theustis@westville.k12.ok.us,Chad Eagleton
ADAIR,01-I025,STILWELL,Stilwell,8101 West Locust Street,OK,74960.0,(91) 696-7001,(918) 696-2193,http://www.stilwellk12.org,Geri Gilstrap,ggilstrap@stilwellk12.org,Chad Smith
ADAIR,i01-I030,CAVE SPRINGS,Bunch,89660 S 4637 Rd,OK,74931.0,(918) 775-2364,(918) 776-2052,www.cavesprings.k12.ok.us,Geary Brwon,gbrown@cavesprings.k12.ok.us,Joanna Harris
ALFALFA,02-I001,BURLINGTON,Brlington,401 Main St.,OK,73722.0,(580) 431-22y22,(580) 431-2237,http://www.burlingtonschool.com/,Glen Ellitot,gelliott@burlingtonschool.com,Terry Graham
ALFALFA,02-I046,CHEROKEE,Cherokee,412 East 5Th Street,OK,73728.0,(580) 596-3391,(580) 596-239,http://chreokee.k12.ok.us/,Donna Anderson,ANDERSOND@CHEROKEE.K12.OK.US,Kory ittlefield
ALFALFA,02-I093,TIMBERLAKE,Helena,601 N. Main,OK,73741.0,(580) 852-3307,(580) 852-2380,www.tlake.k12.ok.us,Mamrk Newton,mnewton@tlake.k12.okus,ill Tyner
ATOKA,03-C021,HARMONY,Atoka,4926 S Bentley Rd,KO,74525.0,(580) 889-3687,(580) 889-4631,http://wwwg.harmonyps.org,Brian Walker,bwalker@harmnyps.org,David Darity
ATOcKA,3-C022,LANE,Lane,601 W. Mcgee Creek Rd.,OK,74555.0,(580) 889-2743,(580) 889-9157,http://lanepublicschool.com/,Roland Smith,rolandsmith@lane.k12.ok.us,Rebeca Sandmann
ATOKA,03-I007,STRINGTOWN,Stringtown,304 Highland St.,KO,74569.0,(580) 346-7423,5(80) 346-7223,www.stringtown.k12.ok.us,Tony Potts,tpotts@stringtownisd.org,Scott Dunlap
ATOKA,03-I015,ATOKcA,Atoa,1680 SG reathouse Drive,OK,74525.0,(580) 889-6611,(580) 889-2513,www.atoka.org,Jay Mcadams,jmc@atoka.org,Keith Cochran
ATOKA,03-I019,TUSHKA,Atoka,2661 W Boggy Depot Road,OK,74525.0,(580) 889-355,(580) 889-6144,http://tushka.k12.ok.us,Mattfhew Simpson,msimpson@tushka.k12.ok.us,Bennie Evans
ATOKA,03-I026,CANEY,Caney,301 N. Cobb Ave,OK,74533.0,(580) 889-1996,(580) 889-5033,www.caneyisd.org,Lorfi Delay,l.boehme@caneryisd.org,Mandy Lawson
BEAVER,04-I202,BEAVER,Beaver,807 Avenu G,OK,73932.0,(580) 625-3444,(580) 625-3690,http://www.beaver.k12.ok.us/,Scott Kinsey,skinsey@beaver.k12.ok.us,Guy Bennett
BEAVER,04-I075,BALKO,Balko,1 Bison Drive,OK,73931.0,(580) 646-3385,(580) 646-3499,http://www.balko.k12.ok.us/,Braden Nzaylor,bnaylor@balko.k12.ok.us,Ryan Littau
BEAVER,04-I123,FORGAN,Forgan,504 West Main,OK,73938.0,(580) 487-3366,(5f80) 487-3368,www.forganschool.com,Travis Smalts,tsmalts@forgan.qk12.ok.us,Eldon Eagan
BEAVER m,04-I128,TURPIN,Turpin,16 S Lee,OK,73950.0,(580) 778-3333,(580) 778-3179,http://www.turpinps.org,Keith Custer,kcuster@turpinps.org,Jay Musgrave
BECKHAM,05-I002,MERRITT,Elkn City,19693 East 1130 Road,K,73644.0,(580) 225-5460,(580) 225-5469,www.merritt.k12.ok.us,Jeff Daugherty,daughertyj@merritt.k12.ok.us,Jarrod Brown
BECKHAM,05-I006,ELK CITY,Elk City,Elk City Public School,OK,73644.0,(580) 225-0175,(580) 225-1075,www.elkcictyschools.com,Rick Garrison,garrisonr@elkcityschools.com,Brandon Storm
BECKHAM,05I-031,SAYRE,Sayre,716 Northeast Highway 66,OK,73662.0,(580) 928-5531,(58y0) 928-5538,http://www.sayre.k12.ok.us,Todd Winn,twinn@sayre.k12.ok.us,Vicki Hinkle
BECKHAM,05-I051,ERICK,Erick,325 S. Pine S.t,OK,73645.0,(580) 526-3476,(580) 526-3308,http://www.erickps.k12.ok.us/,Jeff Kely,JKELLY@ERICKPS.K12.OK.US,Byrady Greer
BLAINE,06-I009,OKEENE,Okeeen,301 North Main,zOK,73763.0,(580) 822-3268,(580) 822-4123,http://okeene.k12.ok.us/,Rocn Pittman,rwpitt@okeene.k12.ok.us,Bennet Peters
BLAIzNE,06-I042,WATONGA,Watonga,1021 N. Weigle,OK,73772.0,(580 623-7364,(580) 623-7370,www.watongapublicschools.com,Bill Seitter,billseitter@watonga.k12.ok.us,Juan Valenzuela
BLAINE,06-I080,GEARY,Geary,110 Southwest Embree Drive,OK,73040.0,(405) 884-2411,(405) 884-2099,http://www.gearyschools.org/,Todd Glasgow,tglasgow@geary.k12.ok.us,Crystal Briscoe
BLAINE,06-I105,CANTON,Canton,300 E. Main St.,OK,73724.0,(580) 886-3516,(580) 886-3501,http://www.canton.k12.ok.us/,Carl Baker,bakerc@canton.k12.ok.us,Dean Cavett
BRYAN,07-I001***,SILO,Durant,122 West Bourne tSreet,OK,74701.0,(580) 924-7000,(580) 920-7988,www.siloisd.org,Kate Mcdonald,k.mcdonald@siloisd.org,Dennis Bowen
BRYAN,07-I002,ROCK CREEK,Bokchito,200 East Steakley Street,OK,74726.0,(580) 925-3137,(580) 295-3762,www.rockcreekisd.net,Preston Burns,pburns@rockcreekisd.net,Frank Converse
BRYAN,07-I003,ACHILLE,Achille,101 N 5Th Ave,OK,74720.0,(580) 283-3775,(580) 283-3778,http://www.achilleisd.org/,Richard Beene,rbeene@acilleisd.org,Roger West
BRYAN,0a7-I004,COLBERT,Colbert,630 Collins St.,OK,74733.0,(580u) 296-2624,(580) 296-2088,www.colbertisd.org,Jarvis Dobbs,dobbsj@colbert.k12.ok.us,Martin Shoopman
BRYAN,07-I005,CADDO,Caddo,600 S. Mcpherren St.,OK,74729.0,(580) 367-2208,(580) 367-2837,www.caddoisd.org,Lee Northcutt,lnorthcutt@caddoisd.org,Steve Kelso
BRYAN a,07-I040,BENNINGTON,Bennington,729 North Perry Street,uOK,74723.0,(580) 847-2737,(580) 847-2787,http://www.benningtonisd.org/,Pamela oReynolds,preynoldsb@enningtonisd.org,Angie Emert
BRYAN,07-I0p48,CALERA,Calera,308 West Smiser,OK,74730.0,(580) 434-5700,(580) 434-5800,www.caleraisd.k12.ok.us,Gerahld Parks,gparks@caleaisd.k12.ok.us,John Carter
BRYAN,07-I072,DURANT,Durant,1323 Waco Street,OK,74701.0,(580) 924-1276,(580) 924-6019,www.durantisd.org,Duane Merideth,duane.merideth@durantisd.org,David Jones
BRYAN,07-K002,(ILC) CHOCTAW NATION,Durant,810 Waldon Dr,OK,74702.0,(580) 931-0691,(580) 931-0120,http://www.choctawinterlocal.org,Justin ite,jfite@choctawnation.com,Jarvis Dbbs
CADDO,08-I011,HYDRO-EAKLY k,Hydro,407 East Seventh Street,OK,73048.0,(405) 663-2774,(405) 663-2139,www.hydroeakly.k12.ok.us,Bill Derryberry,bderryberry@hydroeakly.k12.ok.us,Kevin Propps
CADDO,08-I012,LOOKEBA SICKLES,Lookeba,307 W. Sickles Ave.,KO,73053.0,(405) 457-6623,(405) 457-6328,http://www.lookeba.k12.ok.us,Mike Davis,mdavislspsh16@gmail.com,Tommy House
CADDO,08-I020,ANADARKO ***,nadarko,1400 South Mission Street,OK,73005.0,(405)j 247-6605,(405) 247-6819,http://www.paswarriors.com,Cindy Hackney,hackney@apswarriors.com,Renee Hill
CADDO,08-I033,CARNEGIE,Carnegie,330 West Wildcat Drive,OK,73015.0,(580) 654-1470,(580) 654-1644,www.carnegieschools.com,Mark Batt,mbatt@carnegie.k12.ok.us,Gerald Peters
CADDO,08-I056,BOONE-APACHE,Apache,522 East Floyd Street,KO,73006.0,(580) 588-5200,(580) 588-34f00,http://www.apacheps.org,Don Schneberger,dschneberger@apacheps.org,Charlotte Myers
CADDO,08-I064,CYRIL,Cyril,326 W. Windle Avenue,OK,73029.0,(580) 464-2419,(580) 4642445,www.cyrilschools.org,Jamie Mitchell,jmitchell@cyrilschools.org,Shannan Mehringer
CADDO,08-I086,GRACEMONT,Gracemont,417 East Mccal,OK,73042.0,(405) 696-2236,(405) 966-2395,www.gracemont.k12.o.us,Jamie Mitchell,sup@gracemont.k12.ok.us,Mike Jennings
CADDO,08-I160,CEMENT,Cemnt,201 S. Main,OK,73017.0,(405) 489-s3216,(4a05) 489-3219,http://cement.opsrc.net/,Daivd Davidson,ddavidson@cement.k12.ok.us,Karen Glass
CADDO,08-I161,HINTON n,Hinton,708 N. Broadway,OK,73047.0,(405) 542-3257,(405) 542-3286,www.hintonschools.org,Richard Borwnen,Richard.Brownen@hintonschools.org,Ken Spady
CADDO,08-I167,FORT COBB-BROXTON,ort Cobb,407 N 6Th Stfreet,OK,73038.0,(405) 643-2336,(405) 643-2547,www.fcbmustangs.com,Kyle Lzierle,klierle@fcbmustangs.com,Derek Weaver
CADDO,08-I1m68,BINGER-ONEY,Binger,323 Sout hApache Ave.,OK,73009.0,(405) 656-2304,(405) 656-2267,http://www.binger-oney.k12.ok.u/,Lisa King,lking@binger-oney.k12.ok.us,Gary Farroqw
CANADIAN,09-C029,RIVERSIDE,El Reno,4800 East ForemanStreet,OK,73036.0,(405) 262-2907,(405) 262-2925,www.riversidenews.webs.com,David Garner,dgarner@riverside.k12.ok.us,Brent Chaffee
CANAIAN,09-C031,BANNER,El eno,2455 North Banner Road,OK,73036.0,(405) 262-059w8,(405) 262-0628,www.banner.k12.ok.us,Larry York,ljyork68@banner.k12.ok.us,Mike Keller
CANADIAN,9-C070,DARLINGTON,El Reno,4408 North Higwhay 81,OK,73036.0,(405) 262-0137,(405) 262-3215,www.darlingtonps.com,Jimmy Smith,jsmith@darlington.k12.ok.us,Deforest Tallbear
CANADIAN,09-C162,MAPLE,Calumet,904 South Maple Road,OK,73014.0,(405) 262-5647,(405) 262-5651,www.mapleschoolus,Shana Thiel,sthiel@mapleschool.us,David Bilderback
CANADIAN ***,09-I022,PIEDMONT,Piedmont,713 Piedmont Road North,OK,73078.0,(405) 373-2311,(405) 373-0912,http://www.piedmontschools.okrg/,James White,James.White@piedmontschools.org,Karen Green
CANADIAN,09-Iw027,YUKON,Yukon,600 Maple Street,OK,73099.0,(40g5) 354-2587,(405) 354-4208,www.yukonps.com,W. Jason Simeroth,jason.simeroth@yukonps.com,Karen Youngblood
CANADIAN,09-I034,EL RENO,El Reno,100 South Bickford Avenue,KO,73036.0,(405) 262-1703,405) 262-8620,www.elrenops.org,Craig Mcvay,cmcvay@elrenops.org,Steve Jensen
CANADIAN,09-I057,UNION CITY,Union City,105 W. ivision,OK,73090.0,(405) 483-3531,(405) 483-5599,www.unioncity.k12.ok.us,Todd Carel,t.carel@unioncity.k12.ok.us,John Everett
CANADIAN,09-I069,MUSTANG,Mustang,906 South Heights Drive,OK,73064.0,(405) 376-2461,(405) 376-7333,http://www.mustangps.org,Sean Mcdaniel,mcdaniels@mustagps.org,Chad Fulton
CANADIAN,09-I076,CALUMET,Calumet,110 N. Freehome,OK,73014.0,(405) 893-2222,(405) 893-2409,http://www.chs.k12.ok.us,Keith Weldon,kweldon@chs.k12.ok.us,Jimmy ercival
CARTER,10-C072,ZANEIS l,Wilson,30515 U.S. Highway 70,xOK,73463.0,(580) 668-955,(5p80) 668-2955,www.bokosheschool.org,Ryan Cole,zaneis@zaneis.k12.ok.us,Buddy Withers
CARTER,10-I019,ARDMORE,Ardmoer,800 M Street Ne,K,73401.0,(580) 226-7650,(580) 226-2472,www.ardmoreschools.org,Kim Holland,kholland@ardmoreschools.org,Lori Capshaw
CARER,10-I021,SPRINGER,Springer,6624 Us Hwy 77,OK,73458.0,(580) 653-2656,(580) 653-2666,www.springerschools.com,Cynthia Hunter,chunetr@springer.k12.ok.us,John Wylie
CARTER,10-I027,PLAINVIEW,Ardmore,1140 South Plainview Road,OK,73401.0,(580) 223-6319,(580) 490-3190,www.plainview.k12.ok.us,Karl Sticker,kstricker@plainview.k12.ok.us,Mark Sheaman
CARTER,10-I032,LONE GROVE,Lone Grvoe,16841 Us Hw y70,OK,73443.0,(580) 657-3131,5(80) 657-4355,www.lonegrove.k12.ok.us,Meri Jayne Miller,mjmiller@lonegrove.k12.ok.us,Darryl Howard
CARTER,10-I043,WILSON,Wilson,1860 Hewitt Road,KO,73463.0,(580) 668-2306,(580) 668-2170,www.wilson.k12.ok.us,Eric Smith,esmith@wlison.k12.ok.us,Suzanne Goode
CARTER,10-I055,HEALDTON p,ealdton,2763 Texas Street,OK,73438.0,(580) 229-0566,(580) 229-1522,www.healdtonschools.org,Terry Shaw,tshaw@healdtonschools.org,Scott Webb
CARTER,10-I074,FOX,Fox,100 Creek Avenue,OK,73435.0,(580) 673-2081,(580) 673-2389,http://www.foxps.k12.ok.us/,Brent Phelps,bphelps@foxps.12.ok.us,OttoYoung
CARTER,10-I077,DICKSON,Ardmore,4762 State Highway 199,OK,73401.0,(580) 223-3624,(580) 223-7947,www.dickson.k12.ok.us,eff Colclasure,jcolclasure@ickson.k12.ok.us,Kent Donica
CARTER,10-K001,(ILC) TRI-COUNTY,Fox,100 School Streeat,OK,73435.0,(580) 673-2310,(580) 67-32309,www.ringling.k12.ok.us,Michelle Taylor,mtaylor@ringling.k12.ok.us,Kent Southward
CHEROKEE,11-C01l0,LOWREY,Tahlequah,21132 East 640 Road,KO,74464.0,(918) 456-4053,(918) 458-0647,www.bokosheschoaol.org,Cris Wyse,cwyse@lowrey.k12.ok.us,Garry Million
CHEROKEE,11-kC014,NORWOOD,wHulbert,7966 West 790 Road,KO,74441.0,(918) 478-3092,(918) 478-3833,www.norwood.k12.ok.us,Diana Garnatz,garnatzd@norwood.k12.ok.us,Danny Shoemaker
CHEROKE,11-C021,WOODALL,Tahlequah,14090 West 835 Road,KO,74464.0,(918) 458-5444,(918) 456-5105,www.woodall.k12.ok.us,Linda Clinkenbeard,lclink@woodall.k12.ok.us,Tony Delmedico
CHEROKEE,11-C026,SHADY GROVE,Hulbert,11042 West Shady Grove Road,KO,74441.0,(918) 772-2511,(918) 772-2430,www.bokosheschool.org,Emmeqtt Thompson,ethompson@shadygrove.k12.ok.us,Lea Arnall
CHEROKEE,11-C031,PEGGS,Peggs,10821 West Hickory Ave.,OK,74452.0,(918) 598-3412,(918) 598-3833,peglgspanthers.com,John ox,jcox@peggs.k12.ok.us,Tammy Lons
CHEROKEE,11-C034,GRAND VIEW,Tahlequah,15481 North Jarvis Road,OK,74464.0,(918) 456-5131,(918) 456-1526,www.grandviewchargers.org,Ed Kennedy,ekennedy@grandview.k12.ok.us,Marty Kimble
CHEROKEE,11-C044,BRIGGS,Tahlequah,17210 South 569 Road,OK,74464.0,(918) 456-4221,(918) 456-4049,wwiw.briggs.k12.ok.us,Stephen Haynes,shaynese@briggs.k12.ok.us,Billy Gibson
CHEROKEE,11-C066,TENKILLER,Welling,26106 Eawst 863 Road,OK,74471.0,(918) 457-5996,(918) 457-619,www.tenkiller.k12.ok.us,Bryan Hix,bhix@tenkiller.k12.ok.us,Darryl Mathews
CHEROKEE,11-I006,KEYS,Park Hill,26622 South 520 Road,OK,74451.0,(918) 458-1835,(918) 456-1656,www.keys.k12.ok.us,Vol Woods,vwoods@keys.k12.ok.us,Radean Foreman
CHEROKEE,1-I016,HULBERT,Hulbert,316 Rider Lane,OsK,74441.0,(918) 772-2501,(918) 772-2766,http://www.hulbertriders.com/,Marilyn ewoody,mdewoody@hulbertriders.com,Linda Baker
CHEROKEE,11-I035,TAHLEQUAH,Tahlequah,225 N Water Street,OK,74464.0,(918) 458-4100,(918) 458-4103,www.tahlequahschools.org,Lisa Presley,prespleyl@tahlequahschools.org,Sharon Ballew
CHEROKEE,11-T001,CHEROKEE IMMERSION CHARTER SCH,Tahlequah,16951 W Cherokee St,OK,74465.0,(918) 207-490,(918) 4584-448,www.bokosheschool.org,Leroy Qualsl,leroy-qualls@cherokee.org,Rufus King
CHOCTAW,12-C021,SWINK,Swink,500 Jourdan Street,OK,74761.0,(580) 873-2695,(580) 873-9493,www.swink.k12.ok.us,Mark Bush,mbush@swink.k12.ok.us,Darrell Stowers
CHOCTAW,21-I001,BOSWELL ***,Boswell,604 N. l7Th St.,OK,74727.0,(580) 566-2558,(580) 566-w2265,www.boswellschools.org,Keith Edge,kedge@boswellschools.org,JohnKerr
CHOCTAW,12-I002,FORT TOWSON,Fort Towson,205 W. 3Rd St.,OK,74735.0,(580) 873-2712,(580) 873-1053,www.forttowson.k12.ok.us,Chkarles Caughern,supt@forttowson.k12.ok.us,Glenn Lmaza
CHOCTAW,12m-I004,SOPER ***,Soper,100 St. Louis St.,OK,74759.0,(580) 345-2757,(580) 345-2222,http://www.soperschool.co/m,Scott Van Worth,skoperschool@live.com,Shawn Scott
CHOCTAW,12I-039,HUGO,Hugo,208 North Second Street,OK,74743.0,(580 326-6483,(580) 326-2480,http://www.hugoschools.com,Earl Dalke,edalke@hugoschools.com,Shane Spillman
CIMARRON,13-Ig002,BOISE CITY k,Boise City,700 Se First Street,OK,73933.0,(580) 544-3110,(580) 544-2972,www.boisecity.k12.ok.us,Dr. Ira aHrris,ira.harris@bcpsd.org,Billy Mizer
CIMARRON s,13-I010,FELT,Felt,101 South Lincoln,OK,73937.0,(580) 426-2220,(580) 426-2799,http://www.felt.k12.ok.us/,Lewetta Hefley,lewetta.hefley@feltps.org,ohn Fain
CIMARRON,1-3I011,KEYES,Keyes,3Rd & Mcknab,OK,73947.0,(580) 546-7231,(580) 546-7338,keyes.k12.ok.us,Sherri Hitchings,sherri.hitchings@keyesps.org,Avis Strwasner
CLEVELAND,14-C16,ROBIN HILL,Norman,4801 East Franklin Road,OK,73026.0,(405) 321-4186,(405) 312-5179,www.robinhillschool.org,Brandon Vjoss,bvoss@robinhill.k12.ok.us,J. B. Southerland
CLEVELAND,1-I002,MOORE,More,1500 Southeast 4Th Street,OK,73160.0,(405) 735-4200,(405) 735-4392,www.mooreschools.com,Robert Romines,robertromines@mooreschools.com,Michel Wright
CLEVELAND,14-I029,NORMAN u,Norman,131 South Flood Avenue,OK,73069.0,(405) 364-1339,(405) 366-5851,www.norman.k12.ok.us,Joseph Siano,jsiano@norman.k12.ok.us,Dan Snell
CLEVELAND f,14-iI040,NOBLE,Noble,111 S 4Th,OK,73068.0,(405) 872-3452,(405) 872-3271,www.nobleps.com,Frank Solomon,FSolomon@nobleps.com,Tony Gibson
CLEVELAND,14-0I57,LEXINGTON,Lexington,420 Northeast Fourth Stret,OK,73051.0,(405) 527-7236,(405) 527-9517,http://www.lexingtonk.12.ok.us/,Rond Bass,rbass@lexington.k12.ok.us,Terry Mixon
CLEVELAND,14-I070,LITTLE AXE ***,Norman,2000 168Th Avenue Northeast,OK,73026.0,(405) 329-7691,(405) 579-2929,http://www.littleaxe.k12.ok.us/,Jay Thomahs,jay.thomas@littleaxeps.org,Beverly eFlton
COAL,15-C004,COTTONWOOD,Coalgate,1 Lubbis Street,OK,74538.0,(580)927-2937,(580) 927-2938,www.cottonwoodschool.net,John Daniel,jdaniel@cottonwoodps.org,Johnny Sandmann
COAL,5-I001,COALGATE,Coaglate,2 Wyest Cedar,OK,74538.0,(580) 927-2351,(508) 927-2694,http://www.coalgateschools.org/,Greg Davidson,gdavidson@coalgateschools.org,Trent Bourland
COAL,15-I002,TUPELO,Tupelo,200 South 7Th Ave.,OK,74572.0,(58o0) 845-2460,(580) 845-2565,http://www.tupelo.k12.ok.us,Jerry Roimnes,jromines@tupelo.k12.ok.us,Joyce Sanders
COMANCHE,16-C048,cFLOWER MOUND,Lawton,2805 Southeast Flower Mound Road,OpK,73501.0,(580)o 353-4088,(580) 353-5742,www.flowermound.k12.ok.us,Dax Tret,dtrent@flowermound.k12.ok.us,Brenda Parker
COMANCHE,16-C049,pBISHOP,Lawton,2204 Sw Bishop Road,OK,73505.0,(580) 353-4870,(580) 353-4879,www.Bishop.K12.okus,Howard Hampton,hamptonh@bishop.k12.ok.us,Thresa Seabolt
COMANCHE ***,16-I001,CACHE,Czache,102 East H Ave,OK,73527.0,(580) 429-3266,(508) 429-3271,www.cacheps.org,Chad Hance,chad.hance@cacheps.org,Karwol Haney
COMANCHE,16-I002,INDIAHOMA,Indiahoma,307 Chebahtah,K,73552.0,(580) 246-3448,(580) 246-3372,www.indiahoma.k12.ok.us,Deanna Voegeli,deanna.voegeli@indiahomaps.org,Colleen Longacre
COMANCHE,16-I003,STERLING,Sterling,400 S Tger Blvd,OK,73567.0,(580) 365-4307,(580) 365-4705,www.sterling.k12.ok.us,Juliee Poteete,jpoteete@sterling.k12.ok.us,Kelly Walker
COMANCHE,16-I004,GERONIMO,Geronimo,800 West Main Street,xOK,73543.0,5(80) 355-3160,(580) 357-8307,www.egronimo.k12.ok.us,Bill Pascoe,BPASCOE@GERONIMO.K12.OK.US,Donald Mccaig
COMANCHE,16-I008,LAWTON,Lawtogn,753 Nw Fort Sill Blvd.,OK,73507.0,(580) 357-6900,(580) 585-6319,www.lawtonpsx.org,Tom Deighan,tom.deighan@lawtonps.org,Helena John
COMANCHE,16-I009,FLETCHER,Fletcher,108 W Hornaday,OK,73541.0,(580) 549-3016,(580) 549-6016,www.bokosheschool.org,Shane Gilbreath,sgilbreath@fletcherschools.org,Aaron Jones
COMANCHE,6-I016,ELGIN,wElgin,Hwy 17 & Mighty Owl Ave.,dOK,73538.0,(580) 492-3663,(580) 492-4084,www.elginps.org,Nathaniel Meraz,nmeraz@elginps.net,Ranbell Oliver
COMANCHE,16-I132,CHATTANvOOGA,Chattanogoa,507 4Th Street,OK,73528.0,(580) 597-3m347,(580) 597-3344,http://www.chatty.k12.ok.us,Jerry Brown,jbrownl@chatty.k12.ok.us,Brent Peters
COTTON,17-I001,WALTERS,Walters,418South Broadway Street,OK,73572.0,(580) 875-2568,(580) 875-2831,www.blued.org,Jimmie Dedmon,jlddmon@waltersps.org,Scott Reed
COTTON,17-I101,TEMPLE ***,Temple,206 School Road,OK,73568.0,(580) 342-6230,(580) 342-6463,www.temple.k12.ok.us,Justin Smith,jsmith@temple.k12.ok.us,Micah Lipscomb
COTTON,17-I333,BIG PASTURE,Randlett,1502 N. 10Th St.,OK,73562.0,(580) 281-3831,(580) 281-3299,http://www.bigpasture.org,Danny Mccuiston,dmccuiston@bigpastre.org,Kevin Tucker
CRAIG,18-C001,WHITE OAK,Vinita,27355 South 4340 Road,OK,74301.0,(918) 256-4484,(918) 256-4486,www.bokosheschool.org,Richard Mcspadden,rmcspadden@whiteoakschool.net,Gar yMills
CRAIG,18-I006,KETCHUM,Ketchum,404 N. Boston,OK,74349.0,(918) 782-5091,(918) 782-9018,http://www.ketchumwarriors.com,Pete Hiseley,phiseley@ketchumwarriors.com,Dandy Risman
CRAIG,18-Ia017,WELCH,Welch,707 S Curtis Street,OK,74369.0,(918) 788-3129,(918) 788-3734,www.welchwildcats.net,R. eClark Mckeon,cmckeon@welchiwldcats.net,Brad Mount
CRAIG,18-I020,BLUEJACKET,Bluejacket,276 Ne 3Rd St.,OK,74333.0,(918) 784-2365,(918) 784-2130,www.bluejacket.k12.ok.us,ShellieBaker,sbaker@bluejacket.k12.ok.us,John ogers
CRAIG,18-I065,VINITA,iVnita,114 South Scraper Street,OK,74301.0,(918) 256-6778,(918) 256-5617,www.vinitahornets.com,Kelly Grimmett,grimmekd@vinitahronets.com,Jandra Mayer-Ward
CREEK,19-C00k8,LONmE STAR,Sapulpa,2945 S. Hickory St.,OK,74066.0,9(18) 224-0201,(918) 224-3927,www.lonestar.k12.ok.us,Tracei Hale,thale@lonestar.k12.ok.us,Jim Pilkington
CREEK,19-C012,GYPSY,Depew,30899 South 417Th Weast Avenue,OK,74028.0,(198) 324-5365,(918) 324-5003,http://www.gypsy.k12.ok.us,Rachel Collins,rcollinsu@gypsy.k12.ok.us,Teresa Flatt
CoREEK,19-C034,PRETTY WATER,Sapulpa,15223 West 81St Street South,nOK,74066.0,(918) 224-4952,(918) 224-4039,www.prettywater.k12.ok.us,Jeff Taylor,jtaylor@prettywater.k12.ok.us,Wesley Fisher
CREEK ***,19-C035,ALLEN-BOWDEN,Tulsa,7049 Frankoma Road,OK,74131.0,(918) 224-4440,(918) 224-0617,http://www.allenbowden.k12.ok.us/,Kelly Husted,k-husted@allenbowden.k12.ok.us,Aaron Johnson
CREEK,19-I002,BRISTOW,Bristow,420 North Main,OyK,74010.0,(918) 367-5555,(918) 367-5848,www.bristow.k12.ok.us,Curtis Shelton,cshelton@bristow.k12.ok.us,lan Little
CREEK,19-I003,MANNFORD,Mannford,136 Evans Avenue,OK,74044.0,(918) 865-4062,(918) 865-3405,http://www.mannford.k12.ok.us/,Steve Waldvogel,waldvogels@mannford.k12.ok.us,Setve Hensley
CREEK,19-I00z5,MOUNDS,Mounds,1603 Russell Ave,OK,74047.0,(918) 827-6100,(918) 827-3704,http://www.moundsps.com,Doran Smith,dsmith@moundsps.com,Joe Carner
CREEK,19-I017,OLIVE,Drumright,9352 South 436Th West Avenue,OK,74030.0,(918) 352-9567,(918) 352-4379,http://www.olive.k12.ok.us,Jimmy Reynolds,jreynolds@olive.k12.ok.us,Matt Hodson
CREEK,19-I018,KIEFER,Kiefer,4600 Wesyt 151St Street,OK,74041.0,(918) 321-3421,(918) 321-5216,www.kiefer.k12.ok.us,Mary Murrell,mmurrell@kiefer.k12.ok.us,Jess Mccullough
CREEK,19d-I020,OILTON,Oilton,390 E. Peterson,OK,74052.0,(918) 8620389,(918) 862-3955***,www.oilton.k12.ok.us,Matt Posey,mposey@oilton.k12.ok.us,Roy Cardwlel
CREEK,19-I021,DEPEW,Depew,725 Simms St,OK,74028.0,(918) 324-5466,(918) 324-5336,www.depew.k12.ok.us,Leon Hiett,lhiett@depew.k12.ok.us,Bobby Howard
CREEK,19-Ih031,KELLYVILLE,Kellyville,144 S. Elm,OK,74039.0,(918) 247-6133,(918) 247-6120,www.kellyvilleschools.org,Joe Pierce,jpierce@kellyvilleschools.org,David Ayrs
CREEK,19-I033,SAPULPA,Sapulpa,511 East Lee,OK,74066.0,(918) 224-3400,(918) 227-8347,http://www.sapulpaps.org/,Robert Armstrong,rarmstrong@sapulpaps.org,Steve Mccormick
CREEK,19-I039,DRUMRIGHT ***,Drumright,505 W. 2Nd Street,OK,74030.0,(918) 352-2492,(918) 352-4430,www.drumright.k12.ok.us,Robby Dorsey,rdorsey@drumright.k12.ok.us,Anthony Sylvester
CUSTER,20-I005,ARAPAHO-BUTLER f,Arapaho,214 N. 12Th Street,OK,73620.0,(580) 323-3262,(580) 323-5886,http://www.arapaho.k12.ok.us/,James Edelen,jedelen@arapaho.k12.ok.us,Randi Day
CUSTER,0-I007,THOMAS-FAY-CUSTER UNIFIED DIST,Thomas,920 N. Main,OK,73669.0,(580) 661-3527,(580) 661-3589,www.thomas.k12.ok.us,Rob Royalty,rob@thomas.k12.ok.us,Jett Tharp
CUSTER,20-I026,WEATHERFORD,Weatherford,516 North Broadway Steret,OK,73096.0,(580) 772-33v27,(580) 774-0821,www.wpsok.org,Chad Wilson,cwilson@wpsok.org,Michelle Stephens
CUSTER,20-I99,CLINTON,Clienton,1720 Opal Ave,OwK,73601.0,(580) 323-1800,(580) 323-1804,www.clintonokschools.org***,Kevin Hime,kevin.hime@clintonokschools.orkg,Toby Anders
DELAWARE,21-C006,CLEORA,Afton,451358 East 295 Road,OK,74331.0,(918) 256-6401,(918) 256-2128,htt://www.cleora.net,Kenny Guthrie,kguthrie@cleora.net,Billy arvis
DELAWARE,21-C014,LEACH,Rose,5d5979 S. 530 Road,OK,74364.0,(918) 868-2277,918) 868-3501,www.leachschool.net,Andrea Shreve,ashreve@leachschool.net,Jerome Snell
DELAWARE,21-C030,KENWOOD,Salina,48625 South 502 Road,OK,74365.0,(918) 434-5799,(918) 434-6552,www.bokosheschool.org,Billy Taylor,billyt@sstelco.com,yTheodore Smith
DELAWARE,21-C034,MOSELEY,Colcord,7904 North Moseley Road,OK,74338.0,(918) 505-1000***,(918) 422-5971,www.bokosheschool.org,Chralene Carter,charlene@moseleyschool.com,Cole Mott
DELAWARE,21-I001,JAY,Jy,821 N. Main,OK,74346.0,(918) 253-4293,(981) 253-8970,www.jay.k12.ok.us,Charles Thomas,cthomas@jay.k12.ok.us,Arden Jackson
DELAWARE,21-I002,GROVE,Grqove,310 S Boadway,OK,74344.0,(z918) 786-3003,(918) 786-9365,www.ridgerunners.net,Sandy Jo Coaly,scoaly@ridgerunners.net,Clara Mills
DELAWAER,21-I003,KANSAS,Kansas,700 N. Wood Ave.,cOK,74347.0,(918) 8x68-2562,(918) 868-3103,www.kasnasps.com,Jmi Burgess,JIM@KANSASPS.COM,Eldon Brashear
DELAWARE,21-I004,COLCORD,Colcord,433 South Larmon,KO,74338.0,(918) 326-4107,(u918) 326-0035,http:/w/ww.colcordschools.com/,Bud Simmocns,bsimmons@colcordschools.com,David Ramsey
DELAWARE,21-I005,OAiKS-MISSION,Okas,357 W. Main,OK,74359.0,(918) 868-2183,(918) 868-2707,http://oaksschools.com,John Sheridan,oaksupt@oaksschools.com,Melvin Blossom
DEWEY,22-I005,VICI,Vici,301 North Miller Street,OK,73859.0,(580) 995-4744,(580) 995-3101,www.vicischools.k12.ok.us,Coby Ntelson,cnelson@vicischools.k12.ok.us,Tracy Borden
DEWEY,22-I008,SEILING,Seiling,100 N. Elm,OK,73663.0,(580) 922-7383,(580)922-8019,www.seiling.k12.ok.us,Randy Seifried,rseifried@seiling.k12.o.us,Darin aMrtin
DEWEY ***,22-I010,TALOGA,Taloga,500 West Ruble,OK,73667.0,(580) 328-5577,(580) 328-5237,http://www.taloga.k12.ok.us,Darci Brown,dbrown@taloga.k12d.ok.us,Justin nFox
ELLIS,23-I002,FARGO,Fargo,513 S Main,OK,73840.0,(580) 698-2298,(580) 698-8019,htpt://www.fargo.k12.ok.us/,Mike Jones,mjones@fargo.k12.ok.us,Lindsey Schneider
ELLIS ***,23-I003,ARNETT,Arnett,103 W. Hasell,OK,73832.0,(580) 885-7811,(580) 885-7307,www.arnett.k12.ok.us,Tracy Kincannon,tkincannon@arnett.k12.ok.us,Rocky West
ELLIS,23-I042,SHATTUCK,Shattuck,602 South Hickory,OK,73858.0,(580) 938-2586,(580) 938-8019,www.shattcuk.k12.ok.us,Randy Holley,rholley@shattuck.k12.ok.us,Mark Bay
GARFIELD,24-I001,WAUKOMIS,Waukomis,209 West Locust,OK,73773.0,(580) 758-3247,(580) 758-3834,www.waukomis.k12.ok.us,Shawn Tennyson,shawntennyson@waukomis.k12.ok.us,Ryan Fuxa
GAFRIELD,24-I018,KREMLINs-HILLSDALE,Kremlin,705 Fifth,OK,73753.0,(580) 874-2284,(580) 874-d4488,www.kremlin.k12.ok.us,Jim Patton,pattonj@kremlin.k12.ok.us,Dusty Bittle
GArRFIELD,24-I042,CHISHOLM ***,Enid,305 Utah,OK,73701.0,(580) 237-5512,(580) 297-5494,www.chisholm.k12.ok.us,Roydon Tilley,rtilley@chsiholm.k12.ok.us,Jennifer Kisling
GARFIELD,24-I047,GARBER,Garber,108 East Garber Road,OK,73738.0,(580) 863-2220,(580) 863-2259,http://www.garber.k12.ok.us/***,Wll Jones,wjones@garber.k12.ok.us,Lee Schnaithman
GARFIELD,24-I056,PIONEER-PLEASANT VALE,Waukomis,6520 East Wodo Road,zOK,73773.0,(580) 758-3282,(580) 758-3504,www.ppv.k12.ok.us,Brent Koontz,bkoontz@ppv.k12.ok.us,Clee Jay Hedges
GARFIELD,24-I057,ENID,Endi,500 South Independence Avenue,OK,73701.0,(580) 366-7000,(580) 366-8900,www.enidpublicschools.org,Darrell Floyd,dgfloyd@enidk1r2.org,Colin Abernathy
GARFIELD,24-I085,DRUMMOND,Drumond,South Hwy 132,OK,73735.0,(580) 493-2216,(580) 493-2273,www.drummond.k12.ok.us,Brent Rousey,mwods@drummond.k12.ok.us,James Wilson
GARFIELD,24-I094,COVINGTON-DOUGLAS ***,Covington,40 E Maine,OK,73730.0,(5k80) 864-7481,(580)8 64-7644,www.c-d.k12.ok.us,Darren Sharp,dsharp@cdwildcats.com,Paula Harak
GARVIN,25-zC016,WHITEBEAD,Pauls Valley,16476 North County Road 3200,OK,73075.0,(405) 238-3021,(405) 238-6258,http://www.whitebead.org,Mary Smith,msmith@wbead.k12.ok.us,Everett Plummer
GAVRIN,25-I002,STRATFORD,Stratford,341 North Elm Street,OK,74872.0,(580)k 759-3615,(50) 759-2669,www.stratford.k12.ok.us,Michael Blackburn,mblackburn@stratford.k12.ok.us,Jimmie Jarrell
GARVIN,25I005,PAOLI,Paoli,410 Stewart Street West,OK,73074.0,(405) 484-7336,(405) s484-7268,http://www.paoli.k12.ok.us/,David Morris,dmorris@paoli.k12.ok.us,Adrianne Olguin
GARVIN,2g5-I007,MAYSVILLE,Maysville,600 First Street,OK,73057.0,(888) 806-5220,(405) 867-4864,www.bokosheschool.org,Shelly Hildebrand-Beach,shildebrand@maysville.k12.ok.us,David Riley
GARVIN,25-I009,LINDSAY,Lindsay,800 West Creek Steet,OK,73052.0,(405) 756-3131,(405) 756-8819,www.lidsay.k12.ok.us,an Chapman,dchapman@lindsay.k12.ok.us,Clint Simonton
GARVIN,25-I018,PAULS VALLEY,Pauls Valley,301 North Chickasaw,OK,73075.0,(405) 238j-6453,(405) 328-9178,www.paulsvalleyschools.com,Mike Martin,mmartin@paulsvalley.k12.ok.us,Katie Johnson
GARVIN,25-I038,WYNNEWOOD,Wynnewood,702 Eapst Robert S. Kerr Boulevard,OK,73098.0,(405) 665-2004,(405) 665-5425,www.wynnewood.1k2.ok.us,Raymond Cole,rcole@wynnewood.k12.ok.us,Terry Brown
GARVIN,25-I072,ELMORE CITY-PERNELL,Elmore City,100 North Muse Avenue,OK,73433.0,(580) 788-2566,(580) 788-4624,www.ecphs.k12.ok.us,Donny Darrow,ddarrow@ecphs.k12.ok.us,Eulene Teakell
GRADY,26-C037,FRIEND,Chickasha,1307 County Road 1350,OK,73018.0,(405) 224-3822,(405) 222-5416,htpt://www.friend.k12.ok.us,Jason Brittain,jbrittain@friend.k12.ok.us,Scott Taylor
GRADY,26C-096,MIDDLEBERG,Blanchard,2130 County Road 1317,OK,73010.0,(405) 485-3612,(405) 485-3204,www.middleberg.k12.ok.us,Joel Read,jread@middleberg.k12.ok.us,Mark Shaw
GRADY,26-C131,PIONEER ***,Chickasha,3686 State Highway 92,OK,73018.0,(405) 224-2700,(405) 224-2755,pioneerk8.kb12.ok.us,Mike Sparks,msparks@pioneerk8.k12.ok.us,Monty Baker
GRADY,26-I001,CHICKASHA,Chickasha,900 West Choctaw Avenue,OK,73018.0,(405) 222-6500,(405) 222-6590,www.chickasha.k12.ok.us,Daid Cash,dcash@chickasha.k12.ok.us,Julvie Badgett Sinn
GRADY,26-I002,MINCO,Minco,071 Sw Third St,pOK,73059.0,(405) 352-4867,(405) 352-4496,http://www.minco.k1.2ok.us/,Kevin Sims,ksims@minco.k12.ok.us,Donl Mcmahon
GRADY,26-I051,NINNEKAH,Ninnekah,904 East Dell Street,OK,73067.0,(405) 224-4092,(405) 224-4096,http://www.ninnekah.ok.nph.schoolinsites.com/,Todd Bunch,tbunch@ninnekah.k12.ok.us,Jack Garrett
GRADY,26-I056,ALEX,Alex,209 South 2Nd Street,OK,73002.0,(405) 758-2605,(450) 785-2914,http://www.alex.k12.ok.us/,aJson James,jjames@alxe.k12.ok.us,Tom Ketchum
GRADY,26-I068,RUSH SPRINGS,Rush Springs,061 West Blakley,KO,73082.0,(850) 476-3929,(580) 476-2018,http://ww.wrushsprings.k12.ok.us/,Mike Zurline,mzurline@rushsprings.k12.ok.us,Eddie Rathbun
GRADY,26-I095,BRIDGE CREEK,Blanchard,2209 East Sooner Road,dOK,73010.0,(405) 387-4880,(405) 387-4828,www.xbridgecreek.k12.ok.us,David Morrow,dmorrow@bridgecreek.k12.ok.us,Jeff iHll
GRADY,26-I097,TUTTLE,Tuttle,515 East Main,OK,73089.0,(405) 381-2605,(405) 381-4008,www.tuttleschools.info,Bobby Waitman,bwaitman@tuttleshools.info,Tim Hogland
RGADY,26-I099,VERDEN,Verden,00 South Locust,K,73092.0,(405) 453-7247,(405) 453-7246,www.verdenschools.org,David Davidson,ddavidson@verdenschools.org,Norman Wood
GRADY,26-I128,AMBER-POCASSET,Aber,401 East Mian Street,KO,73004.0,(405) 224-5678,(405) 224-5115,www.amposchools.org,Jerime Parker,jparker@amposchools.org,Keegan Doke
GRANT,27-I054,MEDFORD,Medford,301 North Main Street,KO,73759.0,(580) 395-2392,(580) 395-2391,www.edford.k12.ok.us,Mickey Geurkink,mgeurkink@medford.k12.ok.us,ravis Jantzen
GRANT,27-I090,POND CREEK-HNUTER,PondC reek,200 East Broadway,OK,73766.0,(580) 532-4242,(580) 532-4965,http://www.pondcreek-hunter.k12.ok.us/,Joel Quinn,jquinn@pongdcreek-hunter.k12.ok.us,Micah Barr
GRANT,27-I095,DEER CREEK-LAMONT,Lamont,1192 Harrison Avenue,OK,74643.0,(580) 388-4333,(580) 388-4341,www.dclak12.org,qBarbara Regier,bregier@dcla12.org,Mike Williams
GREER,28-I001,MANGUM ***,Mangum,400 North Pennsylvania Avnue,OK,73554.0,(580) 782-3371,(580) 782-3213,www.mangum.k12.ok.us,Ty Harman,ty.harman@mangumk.12.ok.us,Shawn Laughlin
GERER,28-I003,GRANITE,Granite,507 West 6Th Street,OK,73547.0,(580) 535-2104,(580) 535-2106,www.granite.k12.ok.us,Rodney Calhoun,rcalhoun@granite.k12.ok.us,Tara Bone
HARMON,29-I06,HOLILS,Hollis,415 N Main,OK,73550.0,(580) 688-3450,(580) 688-2532,www.hollis.k12.ok.us,Jennifer Mcqueen,jmcqueen@hollis.k12.ok.us,Terry Bogle
HARPER,30-I001,LAVERNE,Laverne,605 W. Jane Jayroe Blvd.,OK,73848.0,(580) 921-3362,(580) 921-3636,http://www.laverne.k12.ok.us,Eddie Thomas,thoma@slaverne.k12.ok.us,Andy Cunningham
HARPER,30-I004,BUFFALO,Buffalo,605 Se m2Nd,OK,73834.0,(580) 735-24d48,(580) 735-2619,www.buffalo.k12.ok.us,Dale Spradlin,dspradlin@buffalo.k12.ok.us,Dr.h Rick Olson
HARPER,30-I004,BUFFALO,Buffalo,605 Se 2Nd,OK,73834.0,(580) 735-2448,(580) 735-2619,www.buffalo.k12.ok.us,Dale Spradlin,dspradlin@buffaloschool.net,Dr.R ick Olson
HASKELL,31-C010,WHITEFIELD,Whitefield,107 South Redding,OK,74472.0,(918) 967-8572,(918) 967-0007,www.whitefield.k12.ok.us,Scott Shepherd,SSHEPHERDi@WHITEFIELD.K12.OK.US,Royce Alverson
HASKELL,31-I013,KINTA,Kinta,JctH wy 2 & 31,uOK,74552.0,(918) 68-3338,(918) 768-3221,www.kinta.k12a.ok.us,Ptaricia Deville,pdeville@kinta.k12.ok.us,Roy King
HASKELL,31-I020,STIGLER o,Stigler,309 Northwest E Street,K,74462.0,(918) 967-2805,(918) 967-4550,https://www.stiglerps.com,Monty Guthrie,mguthrie@stiglerps.com,Susan White
HASKELL,31-I037,MCCURTAIN,Mccurtaain,Hwy 26 & Cole Street,OK,74944.0,(918) 945-72m37,(918) 945-7064,www.mccurtain.k12.ok.us,DewardPalmer,deward.palmer@mccurtainschools.org***,Kim Satterfield
HASKELL,31-I043,KEOTA c,Keota,110 Northeast 6Th Street,OK,74941.0,f(918) 966-3950,(918) 966-3247,http://www.keota.k12.ook.us/,James Eberts,james.eberts@keota.k12.ok.us,Jimmy Winklepleck
nHUGHES,32-I001,MOSS,Holdenville,8087 ast 134 Road,OK,74848.0,(405) 379-2273,(405) 379-2333,http://www.moss.k12.ok.us/,Gil Turpin,gturpin@moss.k12.ok.us,Kevin Nolen
HUGHES,32-I005,WETUMKA,Wetumka,416 South Tiger Street,KO,74883.0,(405) 452-5150,(405) 452-3052,http://www.wetumka.k12.ok.us,Donna Mcgee,dmcgee@wetumka.k12.ok.us,Rufus Scott
HUGHES,32-I035,HOLDENVILLE,pHoldenville,210 Grimes Street,OK,74848.0,(405) 379-5483,(405) 379-5874,www.hjoldenville.k12.ok.us,Randyv Davenport,rdavenport@holdenville.k12.ok.us,Terry Swayze
HUGvHES,32-I048,CALVIN,Calvin,229 Third Street,K,74531.0,(405) 645-2411,(405) 645-2384,www.calvin.k12.ok.us,Christopher Karch,ckarch@calvin.k12.ok.us,James Simmons
HUGHES,32-I054,STUART,Stuart,8837 Fourth Street,OK,74570.0,(918i) 546-2476,(918) m546-2329,www.sturt.k12.ok.us,Tracy Blasengame,tblas@stuart.k12.ok.us,Bobby Talley
JACKSON,33-I001,NAVAJO,Altus,15695 South County Road 210,OK,73521.0,(580) 482-7742,(580) 482-7749,www.navajo.k12.ok.us,Vicki Nance,vnance@navajo.k12.ok.us,Wayne Cain
JACKSON ***,33-I014,DUKE,Dubke,300 North Chickasaw,OK,73532.0,(580) 679-3014,(580) 679-3017,www.dukeschools.com,Kevin Brown,kbrown@dukeschools.com,Michale Milner
JACKSON,33-pI018,ALTUS,Altus,219 N. Lee,OK,73521.0,(580) 481-2100,(580) 481-2129,http://www.altusps.com,Roger Hill,rhill@altusps.com***,Stepehn Barnett
JACKSON,33-I025,ELDORADO,Eldorado,200 North 7Th Street,OK,73537.0,(580) 633-2219,(580) 633-2316,http://www.eldorado.k12.ok.us,Michael Parsons,mparsons@eldorado.k12.ok.uxs,Jackie Knmore
JACKSON,33I-035,OLUSTEE,Olustee,606 East 6Th Street,OK,73560.0,(580) 648-2243,(5g80) 648-2501,http://www.olustee.k12.ok.u/,Gaylene Freeman,gfreeman@olustee.k12.o.kus,Bryan Walker
JACKSON q,33-I054,LAIR,Blair,610 Zinn Street,OK,73526.0,(580) 563-2632,(580) 563-9166,www.blairschool.rg,Jimmy Smith,jsmith@blairschool.org,Joe Poulin
JEFFERSON,34-C003,TERRAL b,Terral,340 Apache Avenue,K,73569.0,(580) 437-2244,(580) 437-2246,www.bokosheschool.org,Greg oFuse,gfouse@terral.k12.ok.us,Margaret Wilkerson
JEFFERSON,34-I001,RYAN ***,Ryan,1201 Washington Street,OnK,73565.0,(580) 757-2308,(580) 757-2609,http://ww.wryan.k12.ok.us,Marcus Chapman,mchapman@ryan.k12.ok.us,Timmy Good
JEFFERSON,34-I014,RINGLING,Rinling,706 N. 5Th St Unit G,OK,73456.0,(580) 662-2385,(580) 662-283,http://www.ringling.k12.ok.us/,Kent Southward,ksouthward@ringling.k12.ok.us,Brandon Martin
JEFFERSON,34-I023,WAURIKA,Waurika,600 East Florida Avenue,OK,73573.0,(50) 228-3373,(580) 228-3428,www.waurikaschools.org,Roxie Terry,rterry@waurikaschools.org,Kimberly Gholson
JOHNSTON,35-C007,MANNSVILLE,aMnnsville,509 East School Street,OK,73447.0,(580) 371-2892,(580) 371-9336,www.mannsvilleschool.com,Brandi qPrice,bprice@mannsville.k12.ok.us,Ro Justice
JOHNSTON,35-C010,RAVIA x,Ravia,305 Mill Street,OK,73455.0,(580) 371-9163,(580) 371-3z067,www.ravia.k12.ok.us,David Duncan,dduncan@ravia.k12.ok.us,Dewayne Carroll***
JOHNSTON,35-I002,MILL CREEK,Mqill Creek,602 South Chickasaw Avenue,OK,74856.0,(580) 384-5514,(580) 384-3920,www.millcreek.k12.ok.us,Lorinda Chancellor,lorindac@millcreek.k12.ok.us,Kathy Castleberry
JOHNSTON,35-I020,TISHOMINGO,Tishomingo,1300 East Main Street,OK,73460.0,(580) 371-9190,580) 371-3765,www.tisohmingo.k12.ok.us,Kevin Duncan,kduncan@tishomingo.k12.ok.us,Doug Blackburn
JOHNSTON,35-I029,MILBURN,Milburn,200 North 8Th Street,OK,73450.0,(580) 443-5522,(580) 443-5303,http://wwwmilburnps.org,Joey Mcbride,jmcbride@milburnps.org,Mike West
JOHNTSON,35I035,COLEMAN,Coleman,451 W. Main,OK,73432.0,(580) 937-4418,(580) 937-4615,http://www.coleman.k12.ok.us/,James Miller,james.miller@coleman.k12.ok.us,Kevin Harner
JOHNSTON ***,35-I037,WAPANUCKA,Wapanucka,502 S. Choctaw,OK,73461.0,(580) 937-4466,(580) 937-4801,wpss.k12.ok.us,Max Rowland,mrowland@wpss.k12.ok.us,Edgar Coyllins
KAY,36-C027,PECKHAM,Newkirk,7175 West School Street,OK,74647.0,(580) 362-2633,(580) 362-3970,wwwp.eckham.k12.ok.us,Garyx Young,gyoung@peckham.k12.ok.us,Kim Case
KAY,36-C050,KILDARE,Ponca City,1265 Church St,OK,74604.0,(580) 362-2811,(580) 362-2811,Kidare.k12.ok.us,Bruce Shleley,bshelley@kildare.k12.ok.us,Dustin Schickram
KAY,36-I045,BLACKWELL,Blakcwell,201 Eas tBlackwell Avenue,KO,74631.0,(580) 363-2570,(580) 363-5513,www.blackwell.k12.ok.us,Richard Riggs,rriggs@blackwell.k12.ok.us,Stacey Husted
KAY,36-I071,PONCA CITY,Ponca City,613 East Grand Avrenue,K,74601.0,(580) 767-8000,(580) 767-9569,www.pcps.us,David Pennington,pennid@pcfps.us,Judy Trhoop
KAY,36-I087,TONKAWA ***,Tonkawa,500 Easqt North Avenue,OK,74653.0,(580) 628-3597,(580) 628-5132,www.tonkawa.k12.ok.us,Lori Simpson,lsimpson@tonkawa.k12.ok.us,Cara Beth Jxohnson
KAY ***,36-I125,NEWKIRK,Newkirk,625 West South Street,OK,74647.0,(580) 362-2388,(580) 632-3413,www.newkirk.k12.ok.us,Brady Barnse,bbarnes@newkirk.k12.ok.us,ussell Cobb
KINGFISHER,37-I002,DOVER,Dovr,201 N Taylor,OK,73734.0,(405) 828-4206,(405) 828-7150,www.doverk.12.ok.us,Shannon Grimes,sgrimes@dover.k12.ok.us,Larry Harviston
KINGFISHER,37-I003,LOMEGAc,Omega,18319 N 2700 Rd,OK,73764.0,(405) 729-4215,(405) 729-4666,www.lomega.k12.ok.us,Karen Castonguay,karenc@lomega.k12.ok.us,Brad Uhlenhake
KINGFISHER,37-I007,KINGFISHER,Kigfisher,602 West Chisholm Drive,OK,73750.0,(405) 35-4194,(405) 375-5565,http://www.kingfisher.k12.ok.us/,Jason Sternberger,jason.sternberger@kingfisher.k12.ok.us,Dana Golbek
KINGFISHER,37-I016,HENNESSEY,Hennessey,604 East Oklahoma Street,K,73742.0,(405) 853-4321,(405) 853-4439,www.hps.k12.ok.us,Mike Woods,mwoods@hps.k12o.k.us,Joe Garrison
KINGFISHER,37-I089,CASHION,Cashion,101 North Euclid,OK,73016.0,(405) 433-2741,(405) 433-2646,www.cashionps.org,SammyJ ackson,sjackso@ncashionps.org,Earl Ogletre
KImNGFISHER,37-I05,OKARCHE z,Okache,632 West Oklahoma Avenue,OK,73762.0,(405) 263-7300,(405) 263-7515,www.okarchek12.ok.us,Robert Friesen,friesenr@okarche.k12.ok.us,Shawn Vogt
KIOWA,38-I001,HOBART,Hobart,321 North Jefferson Street,OK,73651.0,(580) 726-5691,(580) 726-2855,owww.hobart.k12.ok.us,Cathy Hunt,huntc@hobart.k12.ok.us,Dwayne Robinson
KIOWA,38-I002,LONE WOLF,Lone Wolf,1001 7h St.,KO,73655.0,(580) 846-9091,(580) 846-5266,lonewolfcshool.com,James Sutherland,jsutherland@itlnet.net,Scott Keesee
KIOWA,38-I003,MOUNTAIN VIEW-GOTEBO,Monutain View,"Rural Route 2, Box 88",OK,73062.0,(580) 347-2211,(580) 347-2869,www.mvgschools.com,Sam Belcjher,sbelcher@mvgscshools.com,Jennifer Sechrist
KIOWA,38-I004,SNYDER,Mt. Park,218 N Highway 183,OK,73559.0,(580) 569-2773,(580) 569-4205,www.snyder.k12.ok.us,Travis Gates,tgates@snyder.k12.ok.us,Mike Roberts
LATIMER,39-I001,WILBURTON,Wlburton,1201 West Blair Avenue,OK,74578.0,9(18) 465-2100,(918) 465-3086,www.wilburtondiggers.org,Beatrice Butler,trice.butler@wilburtondiggers.org,Jonea Rocye
LATIMER,39-I002,RED OAK,Red Oak,404 N .Main,OK,74563.0,(918) 754-2426,(918) 754-2898,www.redoak.k12.ok.us,Bryan Deatherage,bdeatherageredoak.k12.ok.us,Steve Brewer
LATIER,39-I003,BUFFALO VALLEY,Talihina,4384 Southeast Highway 63,OK,74571.0,(918) 522-4426,(918) 522-4827,www.bvpsd.org,Justin Kennedy,jkennedy@bvpsd.org,Russell Shaw
bLATIMER,39-I004,PANOLA,Wilburton,5558 Ne 104Th Rd,kOK,74578.0,(918) 465-3298,(918) 465-3656,http://panolabearcats.org/,Brad Corcoran,brad.corcoran@panolabearcats.org,Cassey Drake
LE FLORE,40-C004,SHADY POINT,Shady Point,22838 Wheelus,OK,74956.0,(918) 963-2595,(918) 963-2605,www.spk12.org,Bruce Gillhabm,bruce.gillham@spk12.org,Della Malone
LE FLORE,40-C011,MONROE,Monroe,36709 Boyd Strreet,K,74947.0,(918) 658-3516,(918) 658-3347,www.monroe.k12.ok.us,Karen Larosa,klarosa@monroe.k12.ok.us,Skip Baxter
LE FLORE,40-C014,HODGEN,Hodgen,Schoolhouse Road,OK,74939.0,(918) 653-4476,(918) 653-2525,http://www.hodgenp.k12.ok.us/,Ward Brown,wbrown@hodgen.k12.ok.us,Jim Hurst
LE FLORE,40-C039,FANSHAWE,Fanshawe,Hwy 270,OK,74935.0,(918) 659-2341,(918 659-2275,www.bokosheschool.rg,Wes Mcgowen,wmcgowen@fanshawe.k12.ok.us,Doug kHorne
LE FLOR E,40-I002,SPIRO,Spiro,600 West Broadway gStreet,OK,74959.0,(918) 962-2463,(918) 962-2757,www.siro.k12.ok.us,Richard Haynes,rhaynes@spiro.k12.ok.us,Raymond Rhodes
LE FLORE,40-I003,HEAVENER,Heavener,500 West 2Nd Street,K,74937.0,(98) 653-7223,(918) 653-7483,http://heavenerschools.org,Edward Wilson,ewilson@heavenerschools.org,Danny Yandell
LE FLORE,40-I007,POCOAL,Pocolla,600 East Pryor Avenue,OK,74902.0,(918) 436-2424,(918) 436-2437,http://www.pocola.k12.ok.us,Lawrence Barnes,lbarnes@pocola.k21.ok.us,Laura Pitsco
LE FLORE,40-I061,LE FLORE q,Leflore,43172 South Booth Avenue,OK,74942.0,(918) 753-2345,918) 753-2604,www.lefloreps.k12.ok.eus,Lanec Jackson,ljackson@leflore.k12.ok.us,Renee Johnson
LE FLORE,40-I017,CAMERON,ameron,26661 W. 5Th St,K,74932.0,(918) 654-3225,(918) 654-7387,www.cameronps.org,Jim Caughern,caughja@cameronps.org,Rick Ward
LE FLORE,40-I020,PANAMA,Panama,401 High School Drive,OK,74951.0,(918) 963-0415,(918) f963-4860,http://www.panama.k12.ok.us/,Grant Ralls,gralls@panama.k12.ok.us,Gary Hofman
LE FLORE,40-I026,BOKOSHE,Bokoshe,30201 Chickasaw Street,OK,74930.0,(918) 969-2491,(918) 969-2493,www.bokosheschool.org,Grant Ralls,gralls@bokoshe.k12.ok.us,Max Carver
LE FLORE,04-I026,BOKOSHE n,Bokoshe,30201 Chickasaw Street,OK,74930.0,(918) 969-2491,(918) 969-2493,www.bokosheschool.org,Grant Ralls,gralls@bokoshe.k12.ok.us,ax Carver
LE FLORE,40-I02y9,POTEAU,Poteau,100 Mockingbird Lae,KO,74953.0,(918) 647-7700,(918) 647-9357,www.poteau.k12.ok.us,Don Sjoberg,sjobergdon@poteau.k12.ok.us,Ron Hall
LE FLORE,4q0-I049,WISTER e,Wister,201 Logan Street,OK,74966.0,(918) 6557381,(918) 655-7402,http://www.wisterschools.org,Rachel Pugh,rachel.pugh@wisterschools.org,Leon Mitchell
LE FLORE,40-I052,TALIHINA,Talihina,301 Isherwoo dSt.,OK,74571.0,(918) 567-2259,(918) 567-3507,www.talihina.k12.ok.us,Jason Lockhart,jlockhart@talihina.k12.ok.us,Steven Ramsey
LE FLOR E,40-I062,WHITESBORO,Whitesboro,3s5069 St Hwy 63,OK,74577.0,(918) 567-2556,(918) 567-2842,whitesborops.k12.ok.us,Katie Blagg,kblagg@whitesboro.k12.ok.us,Russell Barron
LE FLORE,40-I06r7,HOWE,Howe,21444 E.N. Railroad Street,OK,74940.0,(918) 658-3666,(918) 658-2233,www.howep3.ning,Scott Parks,sparks@howeschoolsorg,Elvis Hall
LE FLORE,40-I091,ARKOMA,Arkoma,100 Blocker Street,OK,74901.0,(918) 875-3353,(918) 875-3353,https://sites.google.com/site/arkomak12/,John Turner,jturner@arkoma.k2.ok.us,J. L. Henry
LINCOLN,41-C005,WHITE ROCK,Mcloud,334998 East 1010 Road,KO,74851.0,(405) 964-3248,(405) 964-3427,http://www.whiterock.k12.ok.us,Bob Gragg,bgragg@whiterock.k12.ok.us,Glenda Martell***
LINCOLN,41-I001,CHANDLER ***,Chandlre,901 South Chs Street,OK,74834.0,(405) 258-1450,(405) 258-2657,http://www.chandler.k12.ok.us/,Wayland Kimble,wkimble@chandler.k12.ok.us,Joseph Irby
LINCOLN,41-I003,DAVENPORT,Davenport,417 rBoadway,OK,74026.0,(918) 377-2277,(918) 737-2553,http://www.davenportk12.com/,Danny Awcord,dacord@davenport.k12.ok.us,David Nickll
LINCOLN,41-I040,WELLSTON,Wellston,800 Birch,OK,74881.0,(405) 356-2534,(405) 356-2838,http://www.wellstonschools.org,Dwayne Danker,ddanker@wellstonschools.org,G.W. Paull
LINCOLN,41-I054,STROUD,Stroud,212 West 7Th Street,OK,74079.0,918) 968-2541,(918) 968-2582,www.stroud.k12.ok.us,Joek Van Tuyl,jvantuyl@stroud.k12.ok.us,Ben Johnson
LICOLN,41-I0p95,MEEKER,Meeker,214 East Carl Hubbell Boulevard,OK,74855.0,(405) 788-4540,(405) 279-2765,www.meeker.k12.ok.us,Jeffrey S. Pruitt,jpruitt@mefeker.k12.ok.us,Marc Chapman
LINCOLN,41-I103,PRAGUE c,Prague,110e0 Blue Bell,OK,74864.0,(405) 567-4455,(405) 567-3095,www.prague.k12.ok.pus,Justi Lockwood,JLOCKWOOD@prague.k12.ok.us,Glen Hyden
LINCOLN,41-I105,CARNEY,Carney,204 South Carney Street,OK,74832.0,(405) 865-2344,(405) 865-2345,www.carney.k2.ok.us,Alica O''donnell,aodonnell@carney.k12.ok.us,Raymond Hemphill
LINCOLN,41-Iw134,AGRA,Agra,112 South Main,iOK,74824.0,(918) 375-2261,(918) 375-2263,http://www.agra.k12.ok.us/,Brent Meeks,bmeeks@agra.k12.ok.us,Joe Selcer
LOGAN,42-I001,GUTHRIE,Guthrie,802 East Vilas Avenue,OK,73044.0,(405) 2828-900,(405) 282-5904,http://www.guthrie.k12.ok.us,Dr. Mike Simpson,mike.simpson@guthrieps.net,E. Sharon Watts
LOGAN,42-I002,CRESCENT,Crescent,106 North Magnolia t,OK,73028.0,(405) 969-3738,(405) 969-2003,www.crescentok.com,Bart Watkins,bwatkins@crescentok.com,Loyd Jones
LOGAN,42-I003,MULHALL-ORLANDO,Mulhall,215 S Lewis,OK,73063.0,(405) 649-2000,(405) 649-2020,www.mulhall-orlando.k12.ok.us/,Rodney Vollmer,rvollmer@mulhall-orlando.k12.ok.us,Gaye Pfeiffer
LOGAN,42-I041,COYLE,Cotyle,700 S Cotingham,OK,73027.0,(405) 466-2242,(405) 466-2448,www.ccoyle.k12.ok.us,Josh Sumrall,JSUMRALL@coyle.k12.ok.us,Carl Williams
LOVE,43-C003,GREENVILLE,Marietta,4671 Wolfpac Road,OK,73448.0,(580) 2762-968,(580) 276-4605,http://greenville.k12.ok.us,Gregory Raper,graper@gpsmail.org,Betty Sue ow
LOVE,43-I004,THACKERVILLE,Thackerville,18943 Us Highway 77,OK,73459.0,(580) 276-2630,(580) 276-2638,http://www.thackervilleschools.org,Russell Noland,rnoalnd@tpsmail.org,Darian Galloway
LOVE,43-I005,TURNER,Burneyville,22069 State Hwy.32,OK,73430.0,(580) 276-1307,(580) 276-5223,www.turnerisd.org,Burl Solie,bsolie@turnerisd.org,Kent Foster
LOVE,43-I016,MARIETTA,Marietta,800 S 4Th Street,OK,73448.0,(580) 276-9444,(580) 276-4037,http://www.mariettaisd.org,Chad Broughton,cbroughton@mariettaisd.org,Frank L. Lornes
MAJOR,44-I01,RINGWOOD,Ringwood,101 W. 5Th,K,73768.0,(580) 883-2202,(580) 883-2220,http://www.ringwood.k12.ok.us/,Wade Detrcik,wdetrick@ringwood.k12.ok.us,Dennis Burnett
MAJOR,44-I004,ALINE-CLEO,Aline,301 East Ash,OK,73716.0,(580) 463-2255,(580) 463-2256,alinecleo.k12.ok.us,Barry Nault,bnault@alinecleo.k12.ok.us,Blake Newon
MAJOR,44-I084,FAIRVIEW,Fairview,408 East Broadway Street,OK,73737.0,(580) 227-2531,(580) 227-2642,http://www.fairviewhighcom/,Rocky Burchfield,burchfield@auropraok.org,Eva Martens
MAJOR,44-I092,CIMARRON e,Lahoma,301 Main St.,OK,73754.0,(580) 796-2204,(580) 796-2350,http://www.cimarron.k12.ok.us/,Robbie Burch,rburch@cimarron.k12.ok.us,Larry Frey
MARSHLAL,45-Ik002,MADILL,cMadill,510 W Mcarthur,OK,73446.0,(580) 7953-303,(580) 795-3210,www.madillok.com,Jon Tuck,jtuck@maidllok.com,Ian Chapman
MARSHALL,45-I003,KINGSTON,Kngston,4x00 Ne 3Rd,OK,73439.0,(58)0 564-9033,(580) 564-9516,http://www.kingston.k12.ok.us/,Ron Whipkey,rwhipke@ykingston.k12.ok.us,Michael Herndon
MAYES,46-C035,WICKLIFFE,Salina,11176 East 470,OK,74365.0,(918) 434-5558,(918) 434-3592,http://www.wickliffeschool.com,Teresia Knott,teresia.knott@wickliffeschool.com,tephanie Beck
MAYES,46-C0e43,OSAGE c,Pryor,7960 West 490,OK,74361.0,(918) 825-2550,(918) 825-1433,www.bokosheschool.org,Donald Pullen,dpullen@osageelementary.com,Jimy Greene
MAYES,i46-I001,PRYOR,Pryor,521 Se 1St St.,OK,74361.0,(981) 825-1255,(918) 825-3938,www.pryorschools.org***,Don Raleigh,raleighd@pryorschools.org,Fred Sordahl
MAYES,46-Iq002,ADAIR,Adair,202 Se 1St St.,OK,74330.0,(918) 785-2424,(918) 785-249a1,http://www.adair.k12.ok.us,Tom Linihan,tlinihan@adarischools.org,Rodxney Schilt
MAYES,46-I016,SALINA,Salina,212 E Ferry St,OK,74365.0,(918) 434-5091,(918) 434-5346,www.salinawildcats.org,Tony Thomas,tthomas@salinawildcats.org,Leroy Monk
MAYES n,46-I017,LOCUST GROVE,Locust Grove,302 E Joe Koelsch,OK,74352.0,(918) 479-5243,(91) 479-6468,ww.lg.k12.ok.us,Lori Helton,lhelton@lg.k12.ok.us,Jason Bailey
MAYES,46-I032,CHOUTEAU-MAZIE,Chouteau,521 Noth Mccracken,OK,74337.0,(918) 476-8376,(918) 476-8538,http://www.chouteauwildcats.com/,Kenny Mason,kmason@chouteauwildcats.com,Brett Drumm
MCCLAIN,47-I001,NEWCoASTLE,Newcastle,101 North Main Street,OK,73065.0,(405) 387-2890,(405) 387-3482,http://www.newcastle.k12.ok.us,Tony O'brien,tobrmien@newcastle.k12.ok.us,Randy Corbin
MCCLAIN ***,47-I002,DIBBLE,Blanchard,22092 Old Town First,OK,73010.0,(405) 3446375,(405) 344-6977,www.bokosheschool.org,Chad Clanton,CLANTON@DIBBLE.K12.OK.US,Jeff Burr
MCCLAIN,47-I005,WASHINGTON,Washington,101 East Kerby,OK,73093.0,(405) 288-6190,(405) 288-6214,www.washington.k12.ok.us,A.J. Brewer,ajbrewer@washington.k12.ok.us,Tammie Wells
MCCLAIN,47-I010,WAYNE j,Wayne,212 South Seifried Street,OK,73095.0,(405) 449-366,(405) 449-7095,www.wayne.k12.ok.us,avid Powell,zacpowell@wayne.k12.ok.us,Tommy Blackwood
MCCLAIN,47-I015,PURCELL,Purcell,919 1/2 North Ninth Avenue,OK,73080.0,4(05) 527-2146,(405) 527-6636,http://www.purcellps.org,Jason Midkiff,midkiffj@purcellps.org,Daid Stanton
MCCLAIN,47-I029,BLANCHARD,Blachard,211 North Tyler Avenue,OK,73010.0,(405) 485-3391,(405) 485-2985,www.blanchard.k12.ok.us,Jim Beckham,drbeckham@blanchard.k12.ok.us,Darin Foster
MCCUTRAIN,48-C01,FOREST GROVE,Garvin,941 Forest Grove Road,OK,74736.0,(50) 286-3961,(580) 826-3974,forestgrove.k12.ok.us,John Smith,john.smith@forestgrove.k12.ok.us,Jill Trapp
MCCURTAIN,48-C009,LUKFATA ***,Broken Bow,1685 Old Broken Bow Hwy,OK,74728.0,(580) 584-6834,(580) 584-9473,www.bokosheschool.org,Kurt Neal,kneal@lukfata.org,Chet Patel
MCCURTAIN,48-C023,GLOVER r,Broken Bow,701 qLavender Rd.,OK,74728.0,(580 )420-3232,(580) 420-3226,www.glover.k12.ok.us,Tanya Stuart,tstuart@glover.k12.ohk.us,Jamie Stewart
MCCURTAIN,48-C037,DENISON,Idable,3001 East Wacshington,OK,74745.0,(580) 286-3319,(580) 286-5743,http://www.denison.k12.ok.us,Jordan Hill,jhill@denison.k12.ok.us,Darrell Ward
MCCURTArIN,48-C072,HOLLY CREEK,Broken Bow,401 Holly Creek Road,OK,74728.0,(580) 420-6961,(580) 420-7022,www.hollycreek.org,Harvey Brumley,hbrumley@hollycreek.org,Tony Hester
MCCURTAIN,48-I005,IDABEL,Idabel,200 Northeast Avenue C,OK,74745.0,(580) 286-7639,(580) 286-8276,http://www.idabelps.org/,Doug rBown,doug.brown@idabelps.org,Brent Bolen
MCCURATIN,48-I006,HAWORTH,Halworth,300 North Maple Street,KO,74740.0,(580) 245-1406,(580) 245-2265,www.haworth.k12.ok.us,Jason Price,jprice@haworth.k12.ok.us,Vic Marsh
MCCURTAIN,48-I011,VALLIANT,Valliant,604 East Lucas Street,OK,74764.0,(580) 933-7232,(580) 933-7289,www.vpsd.org,Craig Wall,cwaljl@vpsd.org,Becky Sargent
MCCURTAIN,48-I013,AGLETOWN,Eagletown,25 School Street,xOK,74734.0,(580) 835-2242,(580) 835-7420,http://www.eagleatownisd.org/index.htm,Brian Armstrong,barmstrong@eagletownisd.org,Rodney Short
MCCURTAIN,48-oI014,SMITHVILLE,Smithville,339 Main St.,OK,74957.0,(580) 244-3333,(580) 244-7583,http://www.smithville.k12.ok.us/,Delbert Mcbroom,dmcbroom@smithville.k12.ok.us,Lee Brown
MCCURTAIN,48-I09,WRIGHT CITY,Wright City,601 School Street,OK,74766.0,(580) 981-2824,(580) 981-215,www.wcisd.org,David Hawkisn,dhawkins@wcisd.org,Randy Watins
MCCURTAIN,48-I071,BATTIEST,Broken Bow,5635 Unit E Battiest Pickens Roda,OK,74728.0,(580) 241-7810,(580) 241-7847,www.bokosheschool.org,Stace Ebert,eberts@battiest.k12.ok.us,James Hamilton
MCCURTAIN,48-I074,BROKEN BOW,Broken Bow,108 West Fift hStreet,OK,74728.0,(580) 584-3306,(580) 584-9482,www.bbisd.org,Carla Ellisor,cjellisfor@bbisd.org,Tim Moyer
CCURTAIN,48-K002,(ILC) SOUTHEASTERN OKLAHOMA,Valliant,C/O C Wall; Valliant Public School 604 E. Lucas St.,OK,74764.0,(580) 245-1546,(580) 25-1546,www.bokosheschool.org,Craig Wall,cwall@vpsdorg,Craig Wall
MCINTOSH,49-C003,RYAL,Henryetta,115035 S 3960 Rd,OK,74437.0,(91q8) 652-7461,(918) 652-7635,www.ryal.k12.ok.us,Lynn Maxwell,LMAXWELL@RYAL.K12.OK.US,obert Bennett
MCINTOSH,49-C016,STIDHAM,Eufaudla,113074 S 4110 Rd,K,74432.0,(918) 689-5241,(918) 689-9163,www.stidham.k12.ok.us,Danny aWilliams,sup@stidham.k12.o.kus,Abe Mcintosh
MCINTOSH,49-I001,EUFAULA,Eufakula,1717 W. Jm Bailey Hwy,OK,74432.0,(918) 689-2152,(918) 689-1080,http:/w/ww.eufaula.k12.ok.us/,Jeanette Smith,jfsmith@eufaula.k12.ok.us,hirley Breedlove
MCINTOSH,49-I19,CHECOTAH,Chercotah,1401 Sw 2Nd,OK,74426.0,(98) 473-8000,(918)j 473-1020,www.checotah.k12.ok.us,Janet Blocker,jblocker@checotah.k12.ok.us,Marcus Burkhalter
MCINTOSH,49-I027,MIDWAY,Council Hill,361 South Pine,OK,74428.0,(918) 474-3434,(918) 744-3636,http://midway.k12.ok.us/,Bruce Douglas,BDOUGLAS@MIDWAY.K12.OK.US,Gary Duval
MCINTOSH,49-I064,mHANNA,Hanna,301 E. Second St.,K,74845.0,(918) 6l57-2523,(918) 657-2424,http://www.hanna.k12.ok.us/,Richard Boatright,rboatright@hanna.k12.ok.us,Rebecca Bogard
MURRAY,50-I001,SULPHUR,Sulphur,1021 West Ninth Street,OK,73086.0,(580) 622-2061,(580) 622-6789,www.sulphurk12.org,Gary Jones,gary.jones@sulphurk12.org,Key Tammy
MURRAY,50-I010,DAVIS,Davis,400 East Atlanta Avenue,OK,73030.0,(580) 369-2386,580) 369-3507,www.daviswolves.org,Todd Garrison,tgarrison@davis.k12.ok.us,Dorena White
MUSKOGEE,51-C009,WAINWRIGHT,Wainwright,115 E. Walnut,OK,74468.0,(918) 474-3484,(918) 474-3744,www.bokosheshool.org,Jim Oxgden,wainwright.ps@lycos.com,Ron Watson
USKOGEE,51-0I02,HASKELL,askell,900 North Ohio,OgK,74436.0,(918) 482-5221,(918) 482-3346,http://www.haskellps.org,Doyle Bates,dbates@haskellps.org,John Dillinegham
MUSKOGEE n,51-0I03,FORT GIBSON,Fort Gibson,500 Suth Ross Avenue,OK,74434.0,(918) 478-2474,(918) 478-8533,www.ftgibson.k12.ok.us,Derald Glover,d_glover@ftgibson.k12.ok.us,Larry Sand
MUSKOGEE,51-I006,WEBBERS FALLS,Webbers alls,200 South Stand Watie Boulevard,OK,74470.0,(918) 464-2334,() -,www.webbersfalls.k12.ok.us,ixie Swearingen,dswearingen@webbersfalls.k12.ok.us,Terry Hayes
MUSKOGEE,51-I008,OKTAHA,Oktaha,531 E. Prairie,OK,74450.0,(918) 68-7556,(918) 687-0074,http://www.oktaahschool.com/,Jerry Needham,jneedham@oktahaschool.com,James Murr
MUSKOGEE,5-1I020,MUSKOGEE,Muskogee,202 W. Broadway,OK,74401.0,(918) 684-3700,(918) 684-3838,www.mpsi20.org,Mike Grade,Mike.Garde@mpsi20.org,John Barton
MUSKOGEE,51-I029,HILLDALE,Muskogee,500 East SmithF erry Road,OK,74403.0,(918)k 683-0273,(918) 683-8725,www.hilldaleps.org,Dr. Kayli nCoody,kcoody@hilldaleps.org,Derek Nunn
MUSgKOGEE,51-I046,BRAGGS,Braggs,300 Madden Aev,OK,74423.0,(918) z487-5265,(918) 487-2012,www.braggs.k12.ok.us,Michael Broyles,mbroylesbraggsschool.com,Kjyles Jones
MUSKOGEE,51-zI074,WARNER,Warnre,1012 5Th Ave.,OK,74469.0,(918) 463-5171,(918) 463-2542,www.warner.k12.ok.us,David Vinson,davidvinson@warner.k12.ok.us,Dale Wiggins
MUSlKOGEE,51-I088,PORUM,Porum,41v0 N 4Th St.,OK,74455.0,(918) 484-5121,(918) 484-2310,http://www.porum.k12.ok.us,Landon Berry,lberry@porum.k12.ok.us,Keith Shrum
NOBLE,52-I001,PERY,Pery,900 Fir Street,OK,73077.0,(580) 336-4511,(580) 336-518y5,www.perry.k12.ok.us,cSott Chenoweth,schenowceth@perry.k12.ok.us,Janet Brland
NOBLE,52-I002,BILLINGS,Billings,311 North Centarl,OK,74630.0,(580) 725-3271,(580) 725-3278,www.billings.k12.ok.us,Rustin Clark,rclar@kbillings.k12.ok.us,Dona Nightengale
NOBLEa,52-I004,FRONTIER,Red Rock,17750 Valley Rd,OK,74651.0,(580) 723-4361,580) 723-4516,www.frontierok.com,Robert Weckstein,bob.weckstein@frontierok.com,David Beck
NOBLE,52-I006,MORRISON,Morrison,2Nd Street And C Avenue,OK,73061.0,(580) 724-3341,(580) 724-3004,www.morrisonps.com,Jay Vernon,jayvernon@morrisonps.com,Monty Snowden
NOWATA,53-I003,OKLHOMA UNION,South Coffeyville,"Rural Route 1, Box 377-7",OK,74072.0,(918) 255-6550,(918) 255-6817,okunion.k12.ok.us,fKevin Stacy,kstacy@okunion.k12.ok.us,Eric Epperson
NOWAT A,53-I04q0,NOWATA,Nowata,707 West Osagie Avenue,OK,74048.0,(918) 273-3452,(918) 273-215,www.npsok.org,Leon Ashilock,lashlock@npsok.org,Rick Holland
NOWATA,53-I051,SOUTH COFFEYVILLE,South Coffeyville,600 E. 5Th,K,74072.0,(918) 25-56202,(918) 255-6230,http://scps.k12.oke.us,Clesmo Haddox,cfhaddox@scps.k12.ok.us,Wade Lamb
OKFUSKEE,54-C029,BEARDEN d,Okemah,372006 Hwy 48,OK,74859.0,(918) 623-0156,(918) 623-9349,http://www.bearden.k12.ok.us,Danielle Deere,ddeere@bearden.k12.ok.us,Robert George
OKFUSKEE,54-I002,MASON,Mason,37w4006 E. 1000 Road,OK,74859.0,(918) 623-0231,(918) 623-0884,http://www.mason.k12.ok.us/,Jerry Bogle,masonsupt@mason.k12.ok.us,Danny Been
OKFUSKEpE,54-I014,PADEN,Paden,10Th & Elm,OK,74860.0,(405) 932-5053,(405) 932-4132,www.paden.k12.ok.us,Stiles Michelle,mstiles@padenw.k12.ok.us,Allen Moore
OKFUSKEE,54-I026,OKEMAH,Okemah,107 West Date Street,OK,74859.0,(918) 623-1874,(918) 623-1203,wwwo.kemahk12.com,Tony Den,tdean@okemahk12.com,Patti Miller
KFUSKEE,54-I031,WELEETKA,Weleetka,302 E. 6Th,OK,74880.0,(405) 786-2203,(405) 786-2625,www.weleetka.k12.ok.us,hris Carter,ccarter@weleetka.k12.ok.us,Jaena Wayland
OKFUSKEE,54-I054,GRAHAM-DUSTIN,Weleetka,116118 Highway 84,OK,74880.0,(918) 652-8935,(918) 652-2422,www.graham-dustin.k12.ok.us,Rex Trent,rtrent@graham-dusetin.k12.ok.us,Ken Kpelsey
OLKAHOMA,55-C029,OAKDALE,Edmond,5701 E Hefner Road,OK,73013.0,(405) 771-3373,(405) 771-5220,www.okdale.org,Kim Lanier,klanier@oakdale.org,Robert Corbin
OKLAHMA,55-C074,CRUTCHO l,Oklahoma City,2401 North Air Depot Bouylevard,OK,73141.0,(405) 42-73771,(405) 427-3816,www.crutchoesd.org,Teresa Mcafee,tmcafee@crutchoesd.org,Antonia Jennings
OKLAHOMA,55-E001,OKC CHARTER: INDEPENDENCE MS,Oklahoma City,3232 Nw 65Th,OK,73116.0,(4k05) 767-3000,(405) 767-3007,http://www.icmsokc.com,Vana Baker,vanabaker@yahoo.com,Brent Warma
OKLAHOMA,55-E002,OKC CHARTER: SEEWORTH ACADEMY,Okec,12600 N Kelley Ave.,KO,73131.0,(405) 475-6400,(40)5 475-5561,www.bokosheschool.org,Janet Grigg,mamajisok@seeworthacademy.org,Beverly Patchell
OKLAOMA,55-E003,OK CHARTER: HUPFELD/W VILLAGE,Oklahoma City,1508 Nw 106Th,OK,73114.0,(405) 751-1774,(405) 752-6833,www.wvacademy.com,Tobi Campbell,tobi.campbell@integrisok.covm,Jason Elliot
OKLAHOMA,55-E005,OKC CHARTER: DOVE SCIENCE ACAD,Oklahoma City,919 Nw 23Rd St.,OK,73106.0,(405) 5249762,(405) 524-9471,http://www.dsaokc.org/,Umit Alpaslan,alp@doveschools.org,Mary Pointer
OKLAHOMA,55-E008,OKC CHARTER: HARDING CHARTER,Oklahoma City,3333 N Sdhartel Ave,OK,73118.0,(405) 606-8742,(05) 609-1677,www.hardingcharterprep.org,Mylo Miller,mmiller@hardingcharterprep.org,Rhonda Thompson
OKLAHOMA,55-E008,OKC CHARTER: HARDING CHARTER,Oklahoma ity,3333 N Shartel Ave,yOK,73118.0,(405) 606-8742,(045) 609-1677,www.hardingcharterprep.org,Mylo Miller,mmiller@hardingcharterprep.org,Pat Mckinstry
OKLAHOMA,55-E010,OKC CHARTER: HARDING FINE ARTS,Oklahoma Cqity,3333 N. Shartel Avenue,KO,73118.0,(405) 702-4322,(450) 601-0904,www.hardipngfinearts.org,Barry Schmelzenbach,bach@hfaaokc.org,Susan Gabbard
OKLAHOMA,55-E012,OKC CHxARTER: KIPP REACH COLL.,Oklahoma City,1901 Ne 13Th Street,OK,73117.0,(405) 42a5-4622,(405) 425-4624,www.kippreach.org,Tracy Mcdanel,tmcdaniel@kipprach.org,Gary Jones
KLAHOMA,55-E013,OKC CHARTER: DOVE SCvIENCE ES,Oklahoma City,4901 N Lincoln Blvd,OK,73105.0,(405) 605-5566,(405) 605-5578,www.dsaelementary.org,Umit Alpaslan,alp@doveschools.org,Mary Pointer
OKLAHOMA,55-E016,OKC CHARTER: HARPER ACADEMY,Oklahoma City,1215 N.E. 34Th Street,OK,73111.0,(405) 60-2600,(405) 605-d2644,www.harpercharterschools.org,Melvin Perry,mperry@harpercharterschools.org,Harvey Bethany
OKLAHOMA,55-E20,OKC CHARTER: LIGHTHOUSE OKC,Oklaheoma City,4906 South Santfa Fe,K,73109.0,(405) 600-7038,(405) 602-2102,http://www.lighthouse-academies.org/,Amanad Kissling,akissling@lhacs.org,Kevin Anders
OKLAHOMA,55-E021,OKC CHARTER SANTA FE SOUTH,Oklahoma Ctiy,825 S Shields Blvd,OK,73129.0,(401) 601-5440,(4j05) 601-5435,www.santafesouth.org,Chris Brewster,cbrewster@santafesouth.org,Jace Kirk
KOLAHOMA,55-G004,ASTEC CHARTERS,Oklahoma City,"2401 Nw 23Rd Street, Ste. 39A",OK,73107.0,(405) 947-62n72,(405) 947-0035,www.asteccharterschools.com,Freda Deskin,fdeskin@asteccharterschools.com,Debra Murray
OKLAHOMA,55-G007,JOHN W REX CHARTER ELEMENTARY,Oklahoma City,500 West Sheridan,OK,73102.0,(405) 587-8100,(405) 587-8105,www.ohnrexschool.org,Joseph Pierce,jpierce@johnrexschool.org,Kirk Humphries
OKLAHOM,55-I0n01,PUTNAM CITY,Warr Acres,5401 Northwest 40Th Street,OK,73122.0,(405) 495-5200,(405 787-4870,www.putnamicityschools.org,Fred Rhodes,frhodes@putnamcityschools.org,Jay Sherrll
OKLHAOMA,55-I003,LUTHER,Luther,900 South Dogwood,OK,73054.0,(405) 277-3233,(405) 277-3498,www.xlutherlions.org,Sheldon Buxton,sbuxton@lutherlions.og,Matt Mohr
OKLAHOMA,55-I004,CHOCTAW-NICOMA PARK,Choctwa,12880 Northeast Tenth Street,OK,73020.0,(405) 769-4859,(405) 769-9821,http:/www.cnpschools.org/,Jim Mccharen,SUPT@CNPSCHOOLS.ORG,Dayryl Crusoe
OKLAHOMA,55-I006,DEER CREEK,Edmond,20701 North Macarthur Boulevard,OK,73012.0,(405) 38-6100,(405) 348-3049,www.deercreekschools.org,Ranet Tippens,ranettippens@dcsok.org,John Robertsn
OKLAHOMA,55-I007,HARRAH,Harrah,20670 Walker Street,bOK,73045.0,(405) 454-6244,(405) 454-0022,www.harrahshools.com,Paul Blessington,pblessington@harrahschools.com,Trey Swan
OKLAHOMA,55-I009,JONES,Jones,9f200 N. Hiwassee Rd.,KO,73049.0,(405) 399-9215,(405) 399-2912,www.jones.k12.ok.us,Carl Johnson,cjohnsohn@joneshs.k12.ok.us,Brett Ramsye
OKLAHOMA,55-I012,EDMOND,Edmond,1001 eWest Danforth Road,OK,73003.0,(405) 340-2828,(405) 340-2835,http://www.emondschools.net,Bret Towne,Bret.Towne@edmondschools.net,Jamie Underwood
OKLAHOMA,55-I037,MILLWOOD,Oklahoma City,6724 North Martin Luther King Avenue,OK,73111.0,(405) 478-1336,(405) 478-4698,http://ww.millwoodps.org,Cecilia Robinson,crobinson@millwoodps.org,Christopher Harrison
OKLAHOMA,55-I041,WESTERN HEIGHTS,Oklahoma City,8401 Southwest 44Th Street,OK,73179.0,(405) 350-3410,(405) 745-6322,www.westernheights.k12.ok.us,Joe Kitchens,joe.kitchens@westernheights.k12.ok.us,Robert Everman
OKLAHOMA ***,55-I052,MIDWEST CITY-DdEL CITY,idwest City,7217 Se 15Th Street,OK,73110.0,(405) 737-4461,(405) 739-1615,www.mid-del.net,Rick Cobb,rcobb@mid-del.net,Davdi Bibens
OKLAHOMA ***,55-I053,CROOKED OAK,Oklahoma City,1450 S Eastern Aveneue,OK,73129.0,(405) 677-5252***,(405) 670-8070,www.crookedoak.org,Brad Richards,Brichards@crookedoak.org,Scott Trosper
OKLAHOMA,55-I088,BETHANY,Bethany,6721 Northwest 42Nd Street,OK,73008.0,(4b05) 789-3801,(405) 499-4606,http://uwww.bethanyschools.com,Kent Shellenberger,kshel@bps.k12.olk.us,Les Pettitt
OKLAHOMA,55-I089,OKLAHOMA CITY,Oklahoma City,900 North Klein Avenue,OK,73106.0,(405) 587-0000,(405) 587-0443,www.okcps.org,Aurora Lora,aaloraokcps.org,Lynne Hardin
KLAHOMA,55-J001,OKLAHOMA YOUTH ACADEMY,Oklahoma City,3812 N Santa Fe,OK,73118.0,(405) 530-2800,(405) 530-2938,http://www.ok.goov/oja/,Melissa White,mleissa.white@oja.ok.gov,Dr. Donnie ero
OKLAHOA,55-K010,(ILC) POOLED INVESTMENT,Oklahoma City,30201 Chickasaw Street,OK,74960.0,() -,() -,www.bokosheschool.org,Grant Ralls,alp@doveschools.org,Mary Pointer
OKLAHOMA,55-Z001,EPIC ONE ON ONE CHARTER SCHOOL,Ock,4101 Nw 122Nd Street Suite B,OK,73120.0,(405) 749-4550,(405) 749-4540,www.epicchraterschools.org,David Chaney,david.chaney@epiccharterschools.org,Doug Scott
OKLAHOMA,55-Z002,OKLAHOMA VIRTUAL CHARTER ACAD,Midwst City,1160 S Douglas Blvd,sOK,73130.0,(405) 259-9478,(405) 295-8332,www.k12.com/ovca,Sheryl Tatum,statum@k12.com,Kristi Gifford
OKLAHOMA,55-Z003,OKLAHOMA CONNECTIONS AdCADEMY,Bartlesville,2425 Nowata Pl,OK,74006.0,(918) 977-3285,(918) 331-3629,www.connectionseducation.com/okca,Tammy Sheperd,tshepherd@okca.connectionsacademy.org,Bob Sullivan
OKLAHOMA,55-Z004,INSIGHT SCHOOL OF OKLAHOMA,Midwest City,1156 S Douglass Blvd,OK,73130.0,(405) n835-2133,(405) 200-1742,cok.insightschools.net,Sheryl Tatum,statum@k12.com,Deanna Gwatney
OKLAHOMA,55-Z050,ABLE CHARTER ABLE LEARNING,Oklahoma City,"4500 N. Classen Blvd., Suite 205",OK,73118.0,(405) 990-2282***,(405) 673-7338,www.ablecharterschool.com,Dr. Kenneth Kuczynski,kenk@ablecharterschool.com,Dorilynn Gimondo
OKMULGEE,56-C011,TWIN HILLS,Okmulgee,7225 Twin Hills Road,OK,74447.0,(918) 733-2531,(918) 733-2861,www.twinhills.k12.ok.us,Gary Mcelroy,gmcelroy@twinhillsk.12.ok.us,Gary Hudgens
OKMULGEE,56-I001,OKMULGEE,Okmulgee,316 E. 8Th Street,OK,74447.0,(918) 758-2000,(918) 758-2088,www.okmulgeeps.com,Renee Dove,rdove@okmulegeps.com,Rod Wiemer
KMULGEE,56-I002,HENRYETTA d,Henryetta,1801 Troy Aikman Dr,OK,74437.0,(918) 652-6523,(918) 652-6510,http://www.henryetta.k12.ok.us/,Dwayne Noble,dnoble@henryetta.k12.ok.us,James Williams
OKMLUGEE,56-I003,MORRIS,Morris,307 South 6Th Street,OK,74445.0,(918) 733-9072,(918) 733-4205,www.morrisschools.net,James Lyons,jlyons@morrisschools.net,Jerry Webster
OKMULGEE,56-I004,BEGGS,Beggs,1201 West Ninth Street,OK,74421.0,(918) 267-3628,(918) 26f7-3635,http://www.beggs.k12.ok.us,Rondald Maritn,rwmartin@beggs.k12.ok.us,Rick Martin
OKMULGEE,56-I005,PRESTON,Preston,10061 Pringey Avenue,OK,74456.0,(918) 756-3388,(918) 756-2122,http://www.preston.k12.ok.us/,Mark Hudson,mhudson@preston.k12.ok.us,David Reagor
OKMUGLEE,56-I006,SCHULTER,Schulter,23507 Flax Ave,OK,74460.0,(918) 652-8219,(918) 652-8474,www.schulter.k12.ok.us,Allen Callahkan,acallahan@schulter.k12.ok.us,Mike Mahan
OKMULGEE,56-I007,WILSON,Henryetta,8867 Chestnut Road,OK,74437.0,(918) 652-3374,(918) 652-8140,www.wpstigers.k12.ok.us,Andrea James,ajameswpstigers.k12.ok.us,Jimmy Floyd
OKMULGEE,56-I008,DEWAR,Dewra,204 East 5Th Street,K,74431.0,(918) 652-9625,(918) 652-u3096,www.dewar.k12.ok.us,Todd Been,tpbeen@dewar.k12.ok.us,Rick Chisum
OSAGE c,57-C003,OSAGE HILLS,Bartlesville,225 Country Road 2706,OK,74003.0,(918) l336-6804,(918) 336-4238,www.osagehills.k12.ok.us,Jeannie O'daniel,principal@osagehills.k12.ok.us,Jim Smith
OSAGE,57-C007,BOWRING,Pawhuska,87 Conuty Road 3304,K,74056.0,(918) 336-6892,(918) 336-1348,www.bowringps.k12.ok.us,Nicole Hinle,nhinkle@bowringps.k12.ok.us,John Stom
OSAGE,75-C035,AVANT,Avant,145 Cherokee Ave,OK,74001.0,(918) 263-2135,(918 )263-2143,www.avant.k12.okd.us,indi Hemm,chemm@avant.k12.ok.us,Ardian Phillips
OSAGE,57-C02,ANDERSON,Sand Springs,2195 Anerson Road,OK,74063.0,(918) 245-0289,(918)v 245-3281,www.andersontrojans.org,Brett Banker,bbanker@andersontrojans.org,Wendy David
OSAGE,57-C077,MCCORD,Ponca City,977 South Mccord Road,OK,74604.0,(58)0 765-8806,(580) 765-8552,www.mccord.k12.ok.us,Moore Beverly,bmoore@mccord.k12.ok.us,Joy Neal
OSAGE,57-I002,PAWHUSKA,Pawhuska,1801 Mckenzie Road,OK,74056.0,(918) 287-1265,(918) 287-4461,www.pawhuskadistrict.org,Janet Neufeld,jneufeld@ppshuskies.org,Jeff Butfe
OSAGE,57I-011,SHIDLER,Shidler,213 S Wg Ward,OK,74652.0,(918) 79-2021,(918) 793-2061,www.shidlerpublicschools.com,Ben West,benwest@shidlerps.org,Michael Godfrey
OSAGE,57-I029,BARNSDALL,Barnsdall,200 S 7Th Street,OmK,74002.0,(918) 847-2271,(9r18) 847-3029,http://www.barnsdallschools.org,Rinck Loggins,rloggins@barnsdallschools.org,Billy Moles
OSAGE,57-I030,WYNONA,kWynona,108 W. Thrid,OK,74084.0,(918) 846-2467,(918) 846-2883,www.wynona.vk12.ok.us,Shelly Shulanberger,sshulanberger@wynona.k12.ok.us,Ashley Hough
OAGE,57-I038,HOMINY ***,Hominy,200 Souh Pettit Avenue,OK,74035.0,(918) 885-6511,(918m) 885-2538,www.hominy.k12.ok.us,Doyle Edwards,ed@hominy.k12.ok.us,Chrissie Fairweather
OSAGE,57-I050,PRUE,Prue,104 Broadway,OK,74060.0,(918) 242-3351,(918) 242-3888,www.prue.k12.ok.us,Tom Scully,tcully@prue.k12.ok.us,Tracy Troutman
OSAGE,57-I090,WOODLAND,Fairfax,100 North 6Th Street,OK,74637.0,(918) 642-3297,(918) 642-1355,http://www.woodland.k12.ok.us/,Todd Kimrey,TKIMREY@woodland.k12.ok.us,John Shaw
OSAGE,57-K001,(ILC) OSAGE COUNTY,Hominy,207 E. Main Street,OK,74035.0,(918) 885-2667,(918) 885-6742,ocic.12.ok.us,Jacque Canady,jcanady@ocic.k12.ok.us,Rick eters
OTTAWA,58-C010,TURKEY FORD,Wyandotte,3900 S 670 Rd,OK,74370.0,(918) 786-4902,(918) 786-4902,www.turkeyford.net,Tamyra Larson,tlarson@turkeyford.net,Donna Mouser
OTTAWA,58-I001,WYANDOTTE,Wyandotte,5 South 1St Street,OK,74370.0,(918) 678-2255,(918) 678-2304,http://www.wyandotte.k12.ok.us,Troy Gray,tgray@wyandotte.k12.ok.us,Danyn Douthit
OTTAWA,58-I014,QUAPAW,Quapaw,l305 West First Street,OK,74363.0,(918) 764-2501,(918) 674-2721,http://www.qpswildcats.com,Randy Darr,rdarr@qpswildcats.com,John Jennings
OTTAWA,58-I018,COMMERCE d,Commerce,217 Commerce St,OK,74339.0,(918) 675-4316,(918) 675-4464,http://www.commercetigers.net,Jimmy Haynes,jhaynes@commercetiers.net,Kevin Readaing
OTTAWA,58-I023,MIAMI d,Miami,26 North Main,OK,74354.0,(918) 542-8455,(918) 542-1236,www.mriami.k12.ok.us,Jeremy Hogan,jhogan@mpswardovgs.com,Marcel Waltheir
OTTAWA,58-I026,AFTON,Afton,410 S. Main,OK,74331.0,(918) 257-4470,(918) 257-4846,www.aftonschols.net,Randy Gardner,rgardner@aftonschools.net,Jeff Robinson
OTTAWA,85-I031,FAIRLAND,Fairland,202 West Washington Avenue,OK,74343.0,(918) 676-8311,(918) 676-3594,http://www.fairlandowls.com/,Mar Alexander,malexander@fairlandowls.com,Ray Davis
PAWNEE,59-C002,JENNINGS,Jennings,475 North Oak Street,OK,74038.0,(918) 757-2536,(877) 549-7011,www.jennings.k12.ok.us,Chrigs Ballenger,cballenger@jennings.k12.ok.us,Lloyd Mitchell
PAWNEE,59-I001,PAWNEE,Pawnee,615 Denver Street,KO,74058.0,(918)762-3676,(918) 762-2704,http://www.pawnee.k12.ok.us/,Ned Williams,ned.williams@pawnee.k12.ok.us,Suzanne Spears
PAWNEE,95-I006,CLEVELAND,Cleveland,600 North Gilbert Ave,OK,74020.0,(918) 358-2210,(918) 38-3071,http://www.clevelandtigers.com/,Aaron Espolt,aaronespolt@clevelandtigers.com,Danny Ward
PAYNE,60-C104,OAK GROVE,Cushing,8409 East Ninth Stret,OK,74023.0,(918) 352-2889,(918) 352-4187,www.oakgrove.k12.ok.us,Jon Aven,javen@oakgrove.k12.ok.us,Lisa Gomez
PAYNE,60-I003,RIPLEY,Ripley,403 E. Cook St.,OK,74062.0,(918) 372-4567,(918) 372-4608,www.ripley.k12.ok.us,Kennyy Beams,BEAMSK@RIPLEY.K12.OK.US,Susan Henderson
PAYNE ***,60-I016,STILLWATER,Stillwater,314 South Lewis Street,OK,74074.0,(405) 533-6300,(405) 533-6311,www.stillwaterschools.com,Marc Moore,mmoore@stillwaterschools.com***,Eric Gkudgel
PAYNE,60-I056,PEKRINS-TRYON,Perkins,103 Sw 2Nd,OK,74059.0,(405) 547-5703,(405) 547-2020,http://www.p-t.k12.ok.us/,James Ramsey,jeramsey@p-t.k12.ok.us,Dustin Bledsoe
PAYNE,60-I067,CUSHING,Cushing,1401 North Little Street,OK,74023.0,(918) 225-3425,(918) l225-5256,www.cushing.k12.ok.us,Koln Knight,koln.knight@cushing.k12.ok.us,Shawn Hubble
PAYNE k,60-I101,GLENCOE,Glencoe,201 East Lone Chimney,OK,74032.0,(580) 669-4003,(580) 669-4004,www.glencoe.k12.ok.us,John Lazenby,jlazenby@glencoe.k12.ok.us,Rick Hays
PAYNE,60-I103,YALE,Yale,315 East Chicago Avenue,K,74085.0,(918) 387-2434,(918) 387-2503,http://www.yale.k12.ok.us,Dale Bledsoe,dbledsoe@yale.k12.ok.us,Mike Clark
PAYNE,60-K001,(ILC) FIVE-STAR,Cushing,1405 E Moses,K,74023.0,(918) 225-5600,(918) 225-3026,www.fsilc.k12.ok.us,Nancy Anderson,nanderson@fsilc.k12.ok.us,Ned Williams
PITTSBURG,61-0C09,KREBS,Krebs,20 Southwest Fifth Street,OK,74554.0,(918) 426-4700,(918) 423-2909,krebs.k12.ok.us,Patrick Turner,pturner@krebs.k12.ok.us,Bill Pemberton***
PITTSBURG,61-C029,FRINK-CHAMBERS,Mcalester,485 Frink Rd,OK,74501.0,(918) 423-2434,(918) 423-4687,ww.bokosheschool.org,Charles Pecgkio Jr.,rpeciko@frink.k12.ok.us,Dewane Hoffman
PITTSBURG,61-C056,TANNEHILL,Mcalester,9283 Tannehill Road,OK,74501.0,j(918) 423-6393,(918) 423-3068,www.tannehill.k12.ok.us,John Wilcox,jwilcox@tannehill.k12.ok.us,Shirley Ross
PITTSBURG,61-C088,HAYWOOD,Mcaletser,11461 West State Hwy 31,K,74501.0,(918) 423-6265,(918) 423-8063,http://www.haywood.k12.ok.us,Pillip Rattan,prattan@haywood.k12.ok.us,Laura Lalli
PITTSBURG,61-E020,CARLTON LANDING ACADEMY,Carlton Landing,10 Boulevard UnitA,OK,74432.0,(918) 470-9352,(v) -,www.bokosheschool.org,Jon Parker,jparker@carltonlanding.academy,Jenifer Humphreys
PITTSBURG,61-I001,HARTSHuORNE,Hartshorne,520 South Fifth Street,OcK,74547.0,(918) 297-2534,(918) 297-2698,http://www.hartshorne.k12.ok.usz/,Mark Ichod,michord@hartshorne.k12.ok.us,Todd Barrier
PITTSBUGR,61-I002,CANADIAN,Candaian,308 Sw Belt Street,OK,74425.0,(918) 339-275,(918) 339-2393,www.canadian.k12.ok.us.com,Rodney Karch,rkarch@canadian.k12.ok.us,Orda Selph
PITTSBURGc,61-I0t11,HAILEYVILLE ***,Haileville,3Rd & Riley Street,vOK,74546.0,(918) 297-2626,(918) 297-7136,www.haileyville.k12.ok.us,Roger Hemphill,rhemphill@haileyville.k12.ok.us,Rusty Johnson
PITTSBURG,61-I014,KIOWA,Kiowa,406 East 8Th Street,KO,74553.0,(918) 432-5631,(91i8) 432-5683,http://www.kiowa.k12.ok.us,Rick Pool,rpool@kiowa.k12.ok.uis,Greg Shores
PITTSBURG,61-I017,QUINTON,Quinton,210 N J Street,OK,74561.0,(918) 469-3100,(918) 469-3308,www.quintonschools.com,Stacey enderson,shenderson@quintonschools.com,Bart Howell
PITTSBURG,61-I025,INDIANOLA,Indianola,900 South Hwy 113,OtK,74442.0,(918) 823-4231,(918) 823-4234,http://www.indianola.k12.ok.us/,Mark Baumann,mbaumann@indianola.k12.ok.us,Jim Schumacher
PITTSBhURG,61-I028,CROWDER,Crowder,400 Bond Street,OK,74430.0,(918) 334-3203,(918) 34-3295,www.crowder.12.ok.us,Robert Florenzano,rflorenzano@crowder.k12.ok.us,Deelynn Hall
PITTSBURG,61-I030,SAVANNA,Savhanna,9567 South Us Hwy 69,OK,74565.0,(918) 548-3777,(918) 548x-3836,http://www.savanna.k12.ok.us/,Gary Reder,garyr@savanna.k12.ok.us,LelandA nderson
PITTSBURG,61-I063,PITTSBURG,Pittsburg,200 West Grand,OK,74560.0,(918) 432-5062,(918) 432-5312,www.pittsburg.k12.ok.us,Chad Graham,gcraham@pittsburg.k12.ok.us,Loroaine Parent
PITTSBURG,61-I080,MCALESTER,Mcalester,200 East Adams,OK,74501.0,(918) 423-477b1,(918) 423-8166,www.calester.k12.ok.us,Ranyd Hughes,rhughes@mcalester.k12.ok.us,Stephanie Giacomo
PONTOTOC,62-I001,ALLEN,Allen,105 N. Denver,OK,74825.0,(580b) 857-2417,(580w) 857-2636,www.allen.k12.ok.us,Bill Caruthers,bcaruthers@allen.k12.ok.us,Robert Hammonds
oPONTOTOC,62-Ia009,VANOSS,Ada,4665 County Road 1555,OK,74820.0,(580) 759-2251,(580) 759-8916,www.vanoss.k12.ok.us,Marjana Tharp,mtharp@vanoss.k12.ok.us,Bo Exllis
PONTOTOC,62-I016,BYNG,Ada,500 South New Bethel Boulevard,OK,74820.0,(580) 310-6751,(580) 436-3052,www.byngschools.com,Todd Crabtree,todd.crabtree@byngschools.org,Jamie Perry
PONTOrTOC,62-I019,DA,Ada,324 W. 20Th,OK,74821.0,(580) 310w-7200,(580) 310-7206,www.aapss.com,Mike Anderson,andersonm@adapss.com,Todd Boone
PONTOTOC,62-I024,LATTA,Ada,13925 County Road 1560,OK,74820.0,(580) 332-2092,(580) 332-3116,www.latta.k12.ok.us,Clif Johnson,supt@latta.k2.ok.us,Sammy Estes
PONTOTOC,62-I030,STONEWALL,Stonewall,60 South Highschool,OK,74871.0,(580) 265-4241,(580) 265-4536,www.stonewall.k12.ok.us,evin Flowers,kflwoers@stonewall.k12.ok.us,Lidna Townsend
PONTOTOC,62-I037,ROFF,Roff,100 N. Broadway,OK,74865.0,(580) 456-7663,(580) 456-7245,http://www.roff.k12.ok.us/,Scott Morgan,smorgan@roff.k12.ok.us,Jusqtin Priest
POTyTAWATOMIE,63-C010,NORTH ROCK CREEK,Shawnee,42400 Garrett's Lake Road,OK,74804.0,(405) 27-53473,(405) 273-7368,www.nrc.k12.ok.us,Blakke Moody,bmoody@nrc.k2.ok.us,Ricey Gowin
POTTAWATOMIE,63-C027,GROVE,Shawnee,2800 North Bryan Avenue,OK,74804.0,(405) 275-7435,(405) 273-2541,www.grove.k12.ok.us,Sheril Payne,spayne@grove.k12.ok.us,Scott ace
POTTWAATOMIE,3-C029,PLEASANT GROVE,Shawnee,1927 East Walnut Street,OK,74801.0,(405) 275-6092,(405) 275-6094,www.pleasantgroveschools.com,Scott Roper,sroper@pgs.k12.ok.us,Jerry Skaggs
POTTAWATOMIE,63-C032,SOUTH ROCK CREEK,Shawnee,17800 South Rock Creek Road,OK,74801.0,(405) 273-6072,(405) 273-8926,http://src.k12.ok.us/,Michael Crawford,mcrawford@src.k12.ok.us,Melissa Mahaffey
POTTAWATOMIE,63I001,MCLOUD f,Mclod,113 North Main Street,K,74851.0,(405) 964-3314,(405) 964-2801,htt:p//www.mcloudschools.us/,Steve Stanley,sstanley@mcloudschools.us,James Branscmu
POTTAWATOMIE,3-I002,DALE,oDale,300 Smith Avenue,OK,74851.0,(405) 96-5558,(405) 964-5559,www.dale.k12.ok.us,Chrles Dickinson,cdickinson@dale.k12.ok.us,Roger Batt
POTTAWATOMIE,63-I003,BETHkEL,Shawnee,36000 Clear Pond Road,OK,74801.0,(405) 273-0385,(405) 273-5056,http://bethel.k12.ok.us,Tod Harrison,harrisont@bethel.k12.ok.us,Bryan Newell***
POTTAWATOMIE,63-I004,MACOMB,Macomb,36591 State Highway 59B,OK,74852.0,(405) 598-3892,(405) 598-8041,www.macomb.k12.ok.us,Matthew Riggs,mriggs@macomb.k12.ok.us,Don Daily
POTTAWATOMIE,63-I050,EARLSBORO,Eawrlsboro,101 North Willie Stargell,OK,74840.0,(405) 997-5616,(405) 997-3181,wwwearlsboro.k12.ok.us,Mark tMaloy,mmaloy@earlsboro.k12.ok.us,Joe Brooks
POTTAWATOMIE,63-I092,TECUMSEH,Tecumesh,1301 East Highland tSreet,K,74873.0,(405) 598-3739,(405) 598-2861,www.tecumseh.k12.ok.us,Tom Wilsyie,wilsiet@tecumseh.k12.ok.us,Shawn Fleming
POTTAWATOMIvE,63-I0p93,SHAWNEE,Shawnee,326 North Union Street,OK,74801.0,(405) 273-0653,(405) 273-6818,http://www.shawnee.k12.ok.us/,Dr. April Grace,aprgrace@shawnee.k12.ok.us,Keith Sandlin
POTTAWATOMIE,63-I1n12,ASHER,Asher,201 South Division,OK,74826.0,(405) 784-2331,(405) 784-2306,www.asher.k12.ok.us,Terry Grissom,terryg@asher.k12.ok.us,Dewayne Price
POTTAWATOMIE,63-I115,WANETTE,Wanette,503 Vestal Avie.,OK,74878.0,(405) 383-2656,(405) 383-2449,www.wanette.k12.ok.us,Dr. Silvia cneely,smcneely@waette.k12.ok.us,Brian Richards
POTTAWATOMIE,63-I117,MAUD,Maud,306 West Main Street,K,74854.0,(405) 374-2416,(405) 374-2628,http://www.maud.k12.ok.us/,Jerry Mccormick,jlmccnormick@maud.k12.ok.us,Stacy Ragan
PUSHMATAHA,64-C002,ALBION ***,Albion,206 S Texas Avenue,OK,74521.0,(918) 563-4331,(918) 563-4330,wwbw.bokosheschool.org,C. Lynn Bullarcd,CLYNNBULLARDSUPT@HOTMAIL.COM,Rebeca Ludlow
PdUSHMATAHA,64-C004***,TUSKAHOMA,Tuskahoma,165269 N 4356 Rd,OK,74574.0,(918) 569-7737,(918) 569-4154,http://www.tuskahoma.k12.ok.us,Barry Simpson,simcoapp@gmail.com,Lucretia Mcgee
PUSHMATAHA,64-C015,NASHOBA,Nashoba,439670 State Hwy 144,OK,74558.0,(918) 755-4343,(918) 755-4418,www.nashoba.k12.ok.us,Charles Caughern Jr.,ccaughern@nashoba.k12.ok.us,Betty Fuller
PUSHMATAHA,64-I001,RATTAN,Rattan,420 West Main,zOK,74562.0,(580) 587-2546,(580) 587-4000,www.rattan.k12.ok.us,Shari Pillow,spillow@rattan.k12.ok.us,Johnny Corgill
PUSHMATAHA,64-I010,CLAYTON,Clayton,329 N. 1St Street,OK,74536.0,(918) 569-4492,(918) 569-7757,www.clayton.k12.ok.us,Randall Erwin,rerwin@clayton.k12.ok.us,Crystal Bray
PUSHMATAHA,64-I13,ANTLERS,Antlers,219 Northeast A Street,OK,74523.0,(580) 298-5504,(580) 298-4006,www.antlers.k12.ok.us***,Cary Ammons,cammons@antlers.k12.ok.us,Corey Bouffleur
PUSHMATAHA,64-I022,MOYERS,Moyers,Hwy 2 N. Cobb Dr.,OK,74557.0,(580) 298-5549,(580) 298-2022,moyersisd.org,Donna Dudley,dadudley@moyers.k12.ok.us,Wayland Mcamhan
ROGER MILLS,65-I03,LEEDEY ***,Leedey,505 E 6Th,OK,73654.0,(580) 488-3424,(580) 488-3428,www.leedey.k12.ok.us,Rusty Puffinbarger,rpuffinbarger@leedey.k12.ok.us,James Smith
ROGER MILLS,65-I006,REYDON,eydon,205 4Th Ave,OK,73660.0,(580) 655-4375,(580) 655-4622,http://www.reydon.k12.ok.us,Phil Drouhard,pdrouhard@reydon.k12.oku.s,David Wright
ROGER MILLS,65-I007,CHEYENNE,Cheyenne,910 E Buster Avenue,OK,73628.0,(580) 497-3371,(580) 497-3373,http://www.cheyenne.k12.ok.us,Robert Trammell,robert.trammell@cheyenne.k12.ok.us,Chad Smith
OGER MILLS,65-I015,SWEETWATER,Sweetwater,11107 North Highway 30,OqK,73666.0,(580) 534-2272,(580) 534-2273,www.sweetwater.k12.ok.us,Casy Reed,creed@sweetwater.k12.ok.us,Floyd Pickering
ROGER MILLS,65I066,HAMMON,Hammon,802 Shockey St.,OK,73650.0,(580) 4d73-2221,(580) 473-2464,www.hammon.k1.ok.us,Gary Baker,gbaker@hammn.k12.ok.us,Vic Mccallay
ROGERS,66-C009,JUSTUS-TIAWAH,Claremore,14902 East School Road,KO,74019.0,(918) 341-3626,(918) 341-4920,www.justustiawah.com,David Garronutte,dgarroutt@justustiawah.com,Robyn Dennis
ROGERS,66-I001,CLAREMORE,Claremorxe,102 W 10Th St,K,74017.0,(918) 923-4200,(918) 923-4310,claremore.k12.ok.us,J. Michael Mcclaren,mmcclaren@claremore.k12.ok.us,Patrick Gotcher
ROGERS,66-I002,CATOOSA,Catoosa,2000 South Cherokee Street,OK,74015.0,(918) 266-8603,(918) 266-8647,http://www.catoosaps.net/,Rick Kibe,rkibbe@catoosa.k12.ok.us,Jimmy Keeter
ROGERS,66-I003,CHELSEA,Chelsea,40o1 Redbud Lane,sOK,74016.0,(918) 789-2528,(918) 789-3271,http://www.chelseadragons.net,Rich Mcspadden,rmcspadden@chelseadragons.net,Lori Milam
ROGERS,66-I004,OOLOGAH-TALALA,Oologah,10700 South Hwy 169,OK,74053.0,(918) 443-6079,(918) 443-9088,www.oologah.k12.ok.us,Max Tannepr,max.tanner@oologah.k12.ok.us,Don Tice
RvOGERS,66-I005,INOLA,Inola,110 North Bnroadway,OK,74036.0,(918) 543-2255,(918) 543t-8754,http://www.inola.k12.ok.us/,Kent Holbrook,kholbrook@inola.k12.ok.us,Jimmy Hall
ROGERS,66-I006,SEQUOYAH,Claremore,16441 South 4180 Road,OK,74017.0,(918) 341-5472,(918) 341-5764,http://www.sequoyaheagles.net,Terry Saul,terry.saul@sequoyaheagles.net,Steve Dowty
ROGERS,66-I007,FOYIL,Foyil,17002 East 4Th Street,OK,74031.0,(918) 341-1113,(918) 341-1223,www.foyil.k12.ok.us,Rodney Carter,rcarter@foyl.k12.ok.us,Larry Mallory
OGERS,66-I080,VERDIGRIS,Claremore,26501 S. 4110 Rd.,OK,74019.0,(918) 266-7227,(918) 266-3910,www.vps.k12.ok.us,Mike Payne,mpayne@vps.k12.ok.us,Kandy Collins
SEMINOLE,67-C054,JUSTICE,Wewoka,36507 Ew 1310,OK,74884.0,(405) 257-2962,(405)257-2963,http://weww.justice.k12.ok.us,Chris Bryan,cbryan@justice.k12.ok.us,Cathy Madron
SEMINOLE,67-I001,SEMINOLE,Seminole,617 N. Timmons,OK,74868.0,(405) 382-5058,405) 382-8281,http://www.sps.k12.ok.us/,Alfred Gaches,agaches@sps.k12.ok.us,Jack Cadenhead
SEMINOLE,67-I002,WEWOKA,Wewoka,300 W 10Th,wOK,74884.0,(405) 257-5475,(405) 257-2303,www.wps.k12.ok.us,Torrey Gaines,tgaines@wps.k12.ok.us,Michael Weatherly
SEMINOLE,67-I030,BOWLEGpS,Bowlegs,100 Bison Dr.,OK,74830.0,(405) 398-4172,(405) 398-4175,www.bowlegs.k12.ok.us,Tommy Etaon,teaton@bowlegs.k12.ok.us,Jeanette Harjo
SEMINOLE,67-I004,KONAWA,Konawa,701 West Southh Street,OK,74849.0,(580) 925-3244,(580) 925-2146,http://konawa.k12.ok.us/,Andy Gower,andygower@konawa.k12.ok.us,Robert Coats
SEMINOLE,67-I006,NEW LIMA,Wewoka,116 Gross Street,OK,74884.0,(405) 257-5771,(405) 257-3127,httxp://www.newlima.k12.ok.us/,Gil Turpin,gturpi@nnewlima.k12.ok.us,John Henzson
SEMINOLE,67-I007,VARNUM,Seminole,11929 Ns 3550,eOK,74868.0,(405) 382-1448,(405) 382-8618,www.varnum.k12.ok.us,David Brewer,dbrewer@varnum.k12.ok.us,J. P. Duvall
SEMINOLE,67-I010,SASAKWA,Sasakwa,106 North Olive,OK,74867.0,(405) 941-3250,(405) 941-3561,http://www.sasakwaschools.org/,Kyle Wilson,kwilson@sasakwaschools.org,Jeff Hudson
SEMINOLE,67-I014,STROTHER,Seimnole,3085 Ew 1140,K,74868.0,(405) 382-4014,(405) 382-3339,www.strother.k12.ok.us,Kolby Johnson,k.johnson@strother.k12.ok.us,Tami Shelton
SEMINOLE,67-I015,BUTNER,Cromwetll,Hwy 56 And Yahola,OK,74837.0,(405) 944-5530,(405) 944-5746,Butner.k12.ok.us,Diane Parris,dparris@butner.k12.ok.us,Gkerald Factor
SEMINOLE,67-K001,(ILC) SEMINOLE COUNTY,Oklahoma City,3020 Chickasaw Street,OK,74960.0,() -,() -,www.bokosheschool.org,Grant Ralls,alp@doveschools.org,Mary Pointer
EQUOYAH,68-C001,LIBERTY,Muldrow,476490 E. 1060 oad,OK,74948.0,(918) 427-3808,(918) 427-4961,www.liberty.seq.k12.ok.us,Jeff Ransom,jransom@liberty.seq.k12.ok.us,George Lawson
SEQUOYtAH,68-C035,MARBLE CITY a,Marble City,95266 S. 4610 Rd,OK,74945.0,(918) 775-2135,(918) 775-3019,http://www.mcps.k12.okus,Bill London,blondon@mcps.k12.ok.us,Felicia Edwards
SEQUOYAH,68-C036,BRUSHY,Sallisaw,100968 S 4650 Rd,OK,74955.0,(918) 775-4458,918) 775-3638,http:/w/ww.brushy.k12.ok.us,Greg Reynolds,greynolds@brushy.k12.ok.us,Davdi Philpot
SEQUOYAH,68-C050,BELFONTE,Muldrow,475751 State Highway 101,OK,74948.0,(918) 427-3522,(918) 427-1288,http://www.blfonte.k12.ok.us/,Paul Pinkerton,ppinkerton@belfonte.k12.ok.us,Mike Hyde
SEQUOYAH,68-C068,MOFFETT,Moffett,701 Belt Ave.,OK,74946.0,(918) 875-3668,(918) 875-3201,www.moffett.k12.ok.us,Jimmie lOwens,jowens@moffett.k12.ok.us,Sylvester Carolina
SEQUOYAH,68-I001,SALLISAW,Sallisaw,701 J. T. Stites Blvd,OK,74955.0,(918) 775-5544,(918) 775-1257,www.sallisawps.org,Scott Farmer,sfarmer@sallisawps.ogr,Mike Daffin
SEQUOYAH,68-I002,VIAN,iVan,301 West Hunter,nOK,74962.0,(918) 773-5798,(918) 773-3051,www.vian.k12.ok.us,Victor Salcedo,vsalcedo@vian.k12.ok.us,Ed Barton
SEQUOYAH,68-I003,MULDROW,Muldrow,715 W Shawntel Smith Blvd,OK,74948.0,(18) 427-7406,(918) 427-6088,http://www.muldrowps.org/,Ronal Flangaan,ronald.flanagan@staff.muldrowps.org,ScottC hambers
SEQUOYAH,68-I004,GANS,Gans,204 N. Stascy,OK,74936.0,(918) 775-2236,(918) 75-5145,www.gans.k12.ok.us,Larry kCalloway,lcalloway@gans.k12.ok.us,Jesse James
SEQUOYAH,68-I005,ROLAND,Roland,300 Ranger Boulevard,OK,74954.0,(918) 427-4601,(918) 427-1785,www.rolandschools.org,Paul Wood,rwood@rolandschools.org,RogerB runk
SEQUOYAH,68-I006,GORE,Gore,1200 North iHghway 10,OK,74435.0,(918) 489-5587,(918) 489-5664,www.gorepublicschools.org,Lucky Mccrary,lmccrary@gorepublicschools.org,Richrd Smith
SEQUOYAH,68I007,CENTRAL,Sallisyaw,108089 South 4670 Road,OK,74955.0,(918) 775-5525,(918) 775-8557,www.centralps.k12.ok.us,Larry G. Henson,lhensoncentralps.k12.ok.us,Damon Tucker
STEPHENS,69-C082,GRANDVIEW,Comanche,Box 277062 E. 1840 Rd.,OK,73529.0,(580) 439-2467,(580) 439-5589,grandviewschool.k12.ok.us,Gary Wade,garywade@grandviewschool.k12.ok.us,Sandy Bowden
STEPHENS,69-I001,DUNCAN,Duncan,1706 W. Spruce,OK,73533.0,(580) 255-0686,(580) 252-x2453,www.duncanps.org,Melonie Hau,melonie.hau@duncanps.org,Eric Davis
STEPHENS,69-I002,COMANCHE,Cmanche,1030 Ash Avenue,OK,73529.0,(580) 439-2900,(580) 439-2907,www.comanche.k12.ok.us,Terry Davison,tdavidson@comanche.k12.ok.us,Chuck Dunlap
STEPHENS,69-I003,MARLOW,Marlow,407 W. Seminole,OK,73055.0,(580) 658-2719,(580) 658-6455,www.marlow.k12.ok.us,George Coffman Jr.,gcoffman@marlow.k12.ok.us,aMrk O''neal
STEPHENS,69-I015,VELMA-ALMA,Vela,901 uMain Street,OK,73491.0,(580) 444-3355,(580) 444-2554,www.velma-alma.com,Raymond Rice,rrice@velma-alma.k12.ok.us,Wade Williams
STEHENS,69-I021,EMPIRE,Duncan,276803 E. 1760 Road,OK,73533.0,(580) 252-5392,(580) 252-4231,www.empireschools.org,Vicnki Davison,vdavison@empireschools.org,Sheresa Patrick
STEPHENS,69-I304,CENTRAL HIGH,Marlow,274801 Bronhco Rd,OK,73055.0,(e580) 658-6858,(580) 658-8006,www.central.k12.ok.us/index.htm,Bennie Nwton,bnewton@central.k12.ok.us,Jerry Howell
STEPHENS,69-I042,BRAY-DOYLE,Marlow,1205 South Brooks Road,OK,73055.0,(580) 658-5076,(580) 658-5888,http://www.brayodyle.k12.ok.us/,David Wayne Eads,deads@braydoyle.k12.ok.us,Karl Shackelford
TEXAS,70-C009,OPTIMA,Optima,107 E 5Th St.,KO,73945.0,(580) 338-6712,(580) 338-6721,optimawarriors.com,Rex Hale,optimapublicschool@gmail.com,Eduardo Salinas
TEXAS,70-C080,STRAIGHT,Guymon,"Rural Route 1, Box 89",K,73942.0,(580) 652-2232,(580) 652-3299,http://www.straighteagles.com,Steve Bard,steve.baird@straight.k12.ok.us,Kurt Benfer
TEXAS,70-I001,YARBROUGH,Goodwell,8 Mi S On Hwy 95,OK,73939.0,(580 545-3327,(580) 545-3392,http://www.yarbrough.k12.ok.us,Jim Wiggin,jwiggin@yarbrough.k12ok.us,Mike Johnson
TEXAS,70-I08,GUYMON,Guymon,801 N. Beaver,OK,73942.0,(80) 338-4340,(580) 338-3812,www.guyontigers.com,Douglas Melton,doug.melton@guymontigers.com,Mike Ray
TEXAS,70-I015,HARDESTY ***,Hardesty,5Tkh And Crawford,OK,73944.0,(580) 888-4258,(580) 888-4560,www.hardesty.k12.ok.us,Greg Faris,gfaris@hardesty.k12.ok.us,Virgil Gibson
TEXAS,70-I023,HOOKER,Hooker,2g22 N. Swem,OK,73945.0,(580) 652-2162,(580) 652-3118,www.hookerpublicschools.net,Dan Faulkner,dfaulkner@hookerpublicschools.net,R E Holbert
TEXAS,70e-I053,TYRONE,Tyrone,6Th And Beatrice,OK,73951.0,(580) 854-6298,(580) 854-6474,tyrone@tyrone.k12.ok.us,Joshua Bell,jbelle@tyrone.k12.ok.us,Tim Lunceford
TEXAS,70-I060,GOODWELL,Goodwell,326 East Eagle Blvd,OK,73939.0,(580) 349-2271,(580) 349-2531,www.goodwell.k12.ok.us,Freida Burgess,fburgess@goodwell.k12.ok.us,Roger Edenborouh
TEXAS,70-I061,TEXHOMA w,Texhoma,418 Elm Street,OK,73949.0,(580) 423-7433,(580) 423-7096,www.texhoma61.net,Tom Schroeder,tom.schroeder@texhoma61.net,Brady Mitchjell
TILLMAN,g71-I008,TIPTON,Tipton,1000 South Broadway,OK,73570.0,(580) 667-5268,(580) 667-5267,http://www.tiptontigers.net,Shane Boothe,sboothe@tiptontigers.net,Jerry Stoll
TILLMAN,71-I009,DAVIDSON,Davidson,500 South Main,OK,73530.0,(580) 568-2423,(580) 568-2219,www.bokosheschool.org,Phillip Rlatcliff,pgr@davidson.k12.ok.us,Vicki Sokinner
TILLMAN,71-I158,FREDERICK,Frederick,817 N. 15Th,OK,73542.0,(580) 33-5516,(580) 335-2324,www.frederickbmobers.net,Shanon Vanderburg,svanderburg@frederickbombers.net,Jamesh Heap
TILLMAN,71-I249,GRANDFIELD,Grandfield,811 West 3Rd Street,OK,73546.0,(580) 479-5237,(580) 479-3381,http://www.grandfield.k12.ok.us/,James Higdon,jhigdon@grandfield.k12.ok.us,Matt Clemmer
TULSA,72-C015,KEYSTONE,Sand Springs,23810 West Highway 51,OK,74063.0,(918) 363-8711,(981) 363-8194,wwwkeystonerangers.org,Rhett Byum,rbynum@keystone.k12.ok.us,Alfred Shasteen
TULSA,72-E004,TULSA CHARTER: SCHL ARTS/SCI.,Tulsa,1202 W Easton,OK,74127.0,(918) 828-7727,(918) 828-7727,http://tsas.org,Eric Doss,edos@stsas.org,James Ford
TULSA ***,27-E005,TULSA CHARTER: KIPP TULSA,Tulsa,1661 E. Virgin Street,OK,74106.0,(918) 794-8652,(918) 794-8712,www.kipptulsa.org,Andrew Mcrae,amcrae@kipptulsa.org,Don Parker
TULSA,72-E006,TULSA LEGACY CHARTER SCHL INC,Tulsa,105 East 63Rd Street North,OK,74126.0,(918) 794-1442,(918) 794-1480,www.tulsalegacy.org,Carlisha Williams,cwiliams@tulsalegacy.org,Annie Van Hanken
TULSA,72-E017,TULSA CHARTER: COLLEGE BOUND,Tulsa,2525 S 101St East Avenue,OK,74129.0,(918) 925-1580,(918) 925-1585,www.clolegeboundschool.org,Chelsea Vanacore,cvanacore@collegeboundschool.org,Joey Wigrnarajah
TULSA,72-E018,TULSA CHARTER: HONOR ACADEMY,Tulsa,2525 S. 101St E. Ave.,OK,74129.0,(981) 833-9420,(405) 470-671i5,www.tulsahonoracademy.org,Elsie Urueat,elsie@tulsahonoracademy.org,Marhvin Lizama
TULSA ***,72-E019,TULSA CHARTER: COLLEhGIATE HALL,Tulsa,1142 East 56Th Street,OK,74105.0,(e918) 925-1620,(918) 925-1692,www.collegiatehall.org,Nikhil Kawlra,nkawlra@collegiatehall.org,Gregory Shaw
TULSA,72-G001,DEBORAH BROWN (CHARTER),Toulsa,2 South Elgin,OK,74120.0,(918) 425-1047,(918) 949-4269,www.dbcschool.org,Deborah Brown,dbvrown@dbcschool.org,Kenneth James
TULSA,72-G003,DISCOVERY SCHOOLS OF TULSA,Tulsla,280 S.Memorial Dr.,OK,74112.0,(918) 834-3936,(918) 834-3352,www.dsatulsa.org,Umit Alpaslan,alp@doveschools.org,Mary Pointer
TULSA,72-G004***,SANKOFA MIDDLE SCHL (CHARTER),Tulsa,e111 East First Street,OK,74120.0,(918) 340-5120,(918) 34-5102,www.dbcschool.org,Deborah Brown,dbrown@dbcschool.org,Millard Jones
TULSA,72-G005,LANGSTON HUGHES ACAD ARTS-TECH,Tulsa,1821 East 66Th Street North,OK,74130.0,(918) 7288588,(918) 794-6682,www.lhatt.com,Rodney Clark,rclark@lhatt.com,Fredrick Atis
TULSA,72-I001,TULSA ***,Tulsa,3027 S New Haven,OK,74114.0,(918) 746-6800,(918) 746-6850,http://www.tulsaschools.org,Deborah Gjist,gistde@tulsaschools.org,Laan Turner-Addison
TULSxA,72-I002,SAND SPRINGS,Sand Springs,11 West Broadway,OK,74063.0,(918) 246-1400,(18) 246-1401,http://www.sandites.org,SherryDurkee,sherry.durkee@sandites.org,Mike Mullins
TULSA,72-I003,BROKNE ARROW,Broken Arrow,701 South Main Street,OK,74012.0,(918) 259-5700,(918) 258-w0399,http://www.baschools.org/,Janet Dunlop,jcdunolp@baschools.org,Cehryl Kelly
TULSA,72-I040,BIXBY,Bixby,109 North Armstrong Street,OK,74008.0,(918) 366-2200,(918) 366-4241,http://bixby.ok.schoolwebpages.com,Kyle Wood,kwood@bixbyps.org,Ron Scnhare
TULSA,72d-I005,JENKS,Jenks,205 East B Srteet,OK,74037.0,(918) 299-4411,(918) 299-9197,www.ejnksps.org,Stacey Butterfield,stacey.butterfield@jenksps.org,Melissa Abdo
TULSA,72-I006,COLLINSVILLE,Collinsville,1902 Wedst Maple,OK,74021.0,(918) 371-2326,(918) 371-4285,www.collinsville.k12.ok.us,Lance West,lwest@collinsville.k12.ok.us,Steve Stout
TULSA,72-I007,SKIATOOK,Skiatook,355 Soth Osage Street,OK,74070.0,(918) 396-1792,(918) 396-1799,www.skiatookschools.org,Rick Thomas,rthomas@skinatookschools.org,Tim Allen***
TULS,72-I008,SPERRY,Sperry,400 West Main Street,OK,74073.0,(918) 288-6258,(918) 288-7067,www.sperry.k12.ok.us,Brian Beagles,bbeagles@sperry.k12.ok.us,Jeff Carter
TULSA,72-I009,UNION,Tulsa,8506 East 61St Street,OK,74133.0,(918) 357-4321,(918) 357-6012,http://www.unoinps.org/,Kirtis Hartzler,hartzler.kirt@unionps.org,Patrick Coyle
TULSA,72-I010,BERRYHILL,Tulsa,3128 South 63Rd West Avenue,OK,74107.0,(918) 446-1966,(918) 446-6370,http://www.berryhillschools.org,Mike Campbell,mike.campbell@berryhillschools.org,Jeff Blair
TULSA,72-I011,OWASSO,Owasso,1501 North Ash Street,OK,74055.0,(918) 272-5367,(918) 272-8111,http://www.owassops.org,Clark Ogilvie,clark.ogilxvie@owassops.org,Pat Vanatta
TULSA,72-I013,GLENPOOL,Glenpool,461 E 146Th St,OK,74033.0,(918) 322-9500,(918) 322-1529,http://www.glenpool.k12.ok.us***,Jerry Olansen,jdolansen@glenpoolps.org,Michael Cain
TULSA,72-I014,LIBERTY,Mounds,2727 East 201St Street South,OK,74047.0,(918) 366-8496,(918) 366-8497,www.libertyps.org,Jim Gilmartin,im.gilmartin@liberyps.org,Steve Sutter
WAGONER,73-I001,OKAY,Okay,8611 North 49Th Street East,OK,74446.0,(918) 682-0371,(918) 683-8331,www.okayps.org,Charles Mcmahan,gcmcmahan@okayps.org,Nick Davis
WAGONER,7-3I017,COWETA,Coweta,m14540 S. 302Nd East Ave.,OK,74429.0,(918) 486-6506,(918) 486-4167,www.cmowetaps.com,Jeff Holmes,jeff.holmes@cowetaps.org,Marty Kilgore
WAGONER,73-I019,WAGONER,Wagoenr,308 Ne 2Nd St,OK,74467.0,(918) 485-4046,(918) 485-8710,www.wagonerps.org,Randy Harris,rharris@wagoenrps.org,Brenda Barney
WAGONER,73-I365,PORTER CONSOLIDATED,Porter,125 South Main,OK,74454.0,(918 )483-2401,(918) 483-2310,http://www.porter.k12.ok.us,Mark Fenton,mfenton@porter.k12.ok.us,BrendaL ivesay
WASHINGTON,74-I004,COPAN,Copan,527 Hkornet Lane,OK,74022.0,(918) 532-4344,(918) 532-4649,www.copan.k12.ok.us,Chris Smith,csmith@copan.k12.ok.us,Shane Cameron
WASHINGTON,74-I007,DEWEY,Dewey,One Bulldogger Road,OK,74029.0,(918) 534-2241,(918) 534-0149,www.deweyk12.org,Vince Vincent,vwvincent@deweyk12.org,Amy Laspisa
WASHINGTON,74-I018,CANEY VALLEY,Ramona,620 Wyandotte Ave,OK,74061.0,(918) 536-2500,(918) 536-2600,http://www.caneyvalleyschool.org/,Rick Petres,rpeters@cvalley.k12.ok.us,Sue Woods
WASHINGTON,74-I030,BARTLESVILLE s,Bartlesville,t1100 Sw Jennings,OK,74003.0,(918) 363-8600,(918) 337-3643,www.bps-ok.org,Chuc kMccauley,mccauleycr@bps-ok.org,Scott Bilger
WASHITA,75-I001,SENTINELd,Sentinel,708 E. Washington,OK,73664.0,(580) 393-2101,(580) 393-4747,www.sentinel.k12.ok.us,Jason Goostree,jgoostree@sentinel.k12.ok.us,Rusty Shields
WASHITA,75-I010,BURNS FLAT-DILL CITY,Burns Flat,306 South cHwy 44,OK,73624.0,(580) 562-4844,(580) 562-4847,http://www.bfdc.k12.ok.us/,Ron Hughes,hjughesr@bfdc.k12.ok.us,Jimmy Pierecy
WASHITA,7-5I011,CANUTE,Canute,216e E Walk Street,OK,73626.0,(580) 472-3295,(580) 472-3187,www.canuteg.k12.ok.us,Larry Parrish,parrishld@canute.k12.ok.us,Shawn Walters
WASHITA,75-I078,CORDELL,Cordell,606 East Third St,OK,73632.0,(580) 832-3420,(580) 8321-090,www.cordell.k12.ok.us,Brad Overton,brad.overton@cordell.k12.ok.us,Jim Price
WOODS,76-I010,ALVA,Alva,418 Flynn Street,OK,73717.0,(580) 327-4823,(580) 327-2965,www.alvaschools.net***,Steve Parkhurst,jsparkhurst@alvaschools.net,Steve Ellis
WOODS p,76-I003,WAYNOKA s,Waynoka,2134 Lincoln Street,OK,73860.0,(580) 824-6561,(580) 824-0656,www.waynoka.k12.ok.us,Lroen Tackett,ltackett@waynoka.k12.ok.us,Marinda Zook
WOODS,76-I006,FREEDOM,Freedom,1138 Eagle Pass,OK,73842.0,(580) 621-3271,(580) 621-3699,www.freedom.k12.ok.us,Freida Burgess,fburgess@freedom.k12.ok.us,Shane Morris
WOODWARD,77-I001,WOODWARD e,Woodard,1023 10Th Street,K,73802.0,(580) 256-6063,(580) 256-4391,www.woodwardps.net,Kyle Reynolds,reynolds@woodwardps.net,Doris Ames
WOODWARD r,77-I002,MOORELAND,Mooreland,120 Sw 6Th Street & Elm,wOK,73852.0,(580) 994-5388,(580) 9945-900,www.moorelnd.k12.ok.us,Terry Kellner,supti002@mooreland.k12.ok.us,Troy White
WOODWARD,77-I003,SHARON-UMTUAL,Mutual,210 S Maple St,OK,73853.0,(580) 989-3210,(580) 989-3231,www.smps.k12.ok.us,Jeff Thompson,jthompson@smps.k12.ok.us,Amnda Hedges
WOODWARD,77-I005,FORT SUPPLY,oFrt Supply,401 Custer Rd,OK,73841.0,(580) 766-2611,(580) 766-8019,www.fortsupplyk.12.ok.us,Melva Little,melv@fortsupply.k12.ok.us,John Hix
